{"RJGG": {"temp": 33, "dewp": 25, "wdir": 250, "wspd": 6, "wgst": null, "reportTime": "2026-07-23T02:00:00.000Z", "rawOb": "METAR RJGG 230200Z 25006KT 9999 FEW020 33/25 Q1007 NOSIG"}, "RJTT": {"temp": 34, "dewp": 27, "wdir": 90, "wspd": 7, "wgst": null, "reportTime": "2026-07-23T02:00:00.000Z", "rawOb": "METAR RJTT 230200Z 09007KT 9999 FEW030 34/27 Q1006 NOSIG"}, "ROAH": {"temp": 33, "dewp": 26, "wdir": 90, "wspd": 7, "wgst": null, "reportTime": "2026-07-23T02:00:00.000Z", "rawOb": "METAR ROAH 230200Z 09007KT 9999 FEW024 33/26 Q1009"}, "RJAA": {"temp": 34, "dewp": 24, "wdir": 60, "wspd": 10, "wgst": null, "reportTime": "2026-07-23T02:00:00.000Z", "rawOb": "METAR RJAA 230200Z 06010KT 020V090 9999 FEW025 BKN040 34/24 Q1007 BECMG 10009KT"}, "RJFF": {"temp": 34, "dewp": 24, "wdir": "VRB", "wspd": 3, "wgst": null, "reportTime": "2026-07-23T02:00:00.000Z", "rawOb": "METAR RJFF 230200Z VRB03KT 9999 FEW020 BKN040 34/24 Q1009 BECMG 31012KT"}, "RJBB": {"temp": 31, "dewp": 26, "wdir": 270, "wspd": 5, "wgst": null, "reportTime": "2026-07-23T02:00:00.000Z", "rawOb": "METAR RJBB 230200Z 27005KT CAVOK 31/26 Q1009 NOSIG"}, "RJOA": {"temp": 31, "dewp": 25, "wdir": 200, "wspd": 4, "wgst": null, "reportTime": "2026-07-23T02:00:00.000Z", "rawOb": "METAR RJOA 230200Z 20004KT 120V280 9999 SCT025 31/25 Q1011"}, "RJOB": {"temp": 32, "dewp": 23, "wdir": 230, "wspd": 4, "wgst": null, "reportTime": "2026-07-23T02:00:00.000Z", "rawOb": "METAR RJOB 230200Z 23004KT 180V280 9999 FEW020 32/23 Q1010"}, "RJBE": {"temp": 31, "dewp": 27, "wdir": 240, "wspd": 7, "wgst": null, "reportTime": "2026-07-23T02:00:00.000Z", "rawOb": "METAR RJBE 230200Z 24007KT 9999 FEW030 31/27 Q1009"}, "RJCK": {"temp": 25, "dewp": 19, "wdir": 180, "wspd": 9, "wgst": null, "reportTime": "2026-07-23T02:00:00.000Z", "rawOb": "METAR RJCK 230200Z 18009KT 9999 FEW030 SCT040 25/19 Q1008"}, "RJCO": {"temp": 27, "dewp": 22, "wdir": 340, "wspd": 5, "wgst": null, "reportTime": "2026-07-23T02:00:00.000Z", "rawOb": "METAR RJCO 230200Z 34005KT 9999 FEW020 SCT250 27/22 Q1009"}, "RJSK": {"temp": 28, "dewp": 23, "wdir": 260, "wspd": 11, "wgst": null, "reportTime": "2026-07-23T02:00:00.000Z", "rawOb": "METAR RJSK 230200Z 26011KT 9999 FEW007 SCT012 BKN025 28/23 Q1008"}, "RJOM": {"temp": 30, "dewp": 25, "wdir": 290, "wspd": 5, "wgst": null, "reportTime": "2026-07-23T02:00:00.000Z", "rawOb": "METAR RJOM 230200Z 29005KT 240V320 9999 FEW020 30/25 Q1009"}, "RJCB": {"temp": 27, "dewp": 20, "wdir": "VRB", "wspd": 4, "wgst": null, "reportTime": "2026-07-23T02:00:00.000Z", "rawOb": "METAR RJCB 230200Z VRB04KT 9999 FEW030 27/20 Q1008"}, "RJEC": {"temp": 26, "dewp": 18, "wdir": 330, "wspd": 3, "wgst": null, "reportTime": "2026-07-23T02:00:00.000Z", "rawOb": "METAR RJEC 230200Z 33003KT 280V040 9999 FEW030 BKN/// 26/18 Q1009"}, "RJOO": {"temp": 36, "dewp": 23, "wdir": "VRB", "wspd": 3, "wgst": null, "reportTime": "2026-07-23T02:00:00.000Z", "rawOb": "METAR RJOO 230200Z VRB03KT 9999 FEW030 BKN/// 36/23 Q1008"}, "RJOT": {"temp": 32, "dewp": 25, "wdir": "VRB", "wspd": 4, "wgst": null, "reportTime": "2026-07-23T02:00:00.000Z", "rawOb": "METAR RJOT 230200Z VRB04KT 9999 FEW030 32/25 Q1010"}, "RJSS": {"temp": 28, "dewp": 24, "wdir": 100, "wspd": 14, "wgst": null, "reportTime": "2026-07-23T02:00:00.000Z", "rawOb": "METAR RJSS 230200Z 10014KT 9999 FEW040 SCT050 28/24 Q1007"}, "_updated": "2026-07-23T04:40:00Z"}