{"RJBB": {"temp": 23, "dewp": 18, "wdir": 340, "wspd": 5, "wgst": null, "reportTime": "2026-07-02T21:00:00.000Z", "rawOb": "METAR RJBB 022100Z 34005KT 9999 FEW030 SCT040 23/18 Q1012 NOSIG"}, "RJAA": {"temp": 20, "dewp": 19, "wdir": 360, "wspd": 8, "wgst": null, "reportTime": "2026-07-02T21:00:00.000Z", "rawOb": "METAR RJAA 022100Z 36008KT 9999 FEW005 SCT030 BKN110 20/19 Q1009 NOSIG"}, "RJFF": {"temp": 20, "dewp": 19, "wdir": 100, "wspd": 2, "wgst": null, "reportTime": "2026-07-02T21:00:00.000Z", "rawOb": "METAR RJFF 022100Z 10002KT 9999 FEW005 BKN/// 20/19 Q1013 NOSIG"}, "RJTT": {"temp": 21, "dewp": 20, "wdir": 30, "wspd": 12, "wgst": null, "reportTime": "2026-07-02T21:00:00.000Z", "rawOb": "METAR RJTT 022100Z 03012KT 9999 -RA FEW008 BKN010 21/20 Q1010 BECMG FEW008 BKN015"}, "ROAH": {"temp": 27, "dewp": 27, "wdir": 240, "wspd": 1, "wgst": null, "reportTime": "2026-07-02T21:00:00.000Z", "rawOb": "METAR ROAH 022100Z 24001KT 9999 FEW003 SCT010 BKN/// 27/27 Q1014"}, "RJGG": {"temp": 23, "dewp": 20, "wdir": 290, "wspd": 11, "wgst": null, "reportTime": "2026-07-02T21:00:00.000Z", "rawOb": "METAR RJGG 022100Z 29011KT 9999 FEW030 23/20 Q1009 NOSIG"}, "RJBE": {"temp": 24, "dewp": 18, "wdir": 310, "wspd": 3, "wgst": null, "reportTime": "2026-07-02T22:00:00.000Z", "rawOb": "METAR RJBE 022200Z 31003KT 270V330 9999 FEW025 SCT045 24/18 Q1012"}, "RJCK": {"temp": 9, "dewp": 9, "wdir": "VRB", "wspd": 1, "wgst": null, "reportTime": "2026-07-02T21:00:00.000Z", "rawOb": "METAR RJCK 022100Z AUTO VRB01KT 0600 R35/0225V0300N FG OVC001 09/09 Q1014"}, "RJCO": {"temp": 17, "dewp": 15, "wdir": 90, "wspd": 3, "wgst": null, "reportTime": "2026-07-02T22:00:00.000Z", "rawOb": "METAR RJCO 022200Z 09003KT 9999 FEW020 BKN040 17/15 Q1013"}, "RJEC": {"temp": 16, "dewp": 13, "wdir": 180, "wspd": 5, "wgst": null, "reportTime": "2026-07-02T21:00:00.000Z", "rawOb": "METAR RJEC 022100Z AUTO 18005KT 9999 BKN018 BKN049 BKN050 16/13 Q1013"}, "RJSK": {"temp": 21, "dewp": 19, "wdir": 140, "wspd": 4, "wgst": null, "reportTime": "2026-07-02T22:00:00.000Z", "rawOb": "METAR RJSK 022200Z 14004KT 9999 FEW010 BKN035 21/19 Q1011"}, "RJSS": {"temp": 20, "dewp": 19, "wdir": 20, "wspd": 6, "wgst": null, "reportTime": "2026-07-02T21:00:00.000Z", "rawOb": "METAR RJSS 022100Z AUTO 02006KT 9999 -RA BKN008 OVC013 20/19 Q1011"}, "RJOO": {"temp": 22, "dewp": 18, "wdir": 310, "wspd": 6, "wgst": null, "reportTime": "2026-07-02T21:00:00.000Z", "rawOb": "METAR RJOO 022100Z AUTO 31006KT 9999 FEW040 OVC044 22/18 Q1012"}, "RJOB": {"temp": 21, "dewp": 17, "wdir": 320, "wspd": 3, "wgst": null, "reportTime": "2026-07-02T22:00:00.000Z", "rawOb": "METAR RJOB 022200Z 32003KT 270V010 9999 FEW015 BKN/// 21/17 Q1014"}, "RJOM": {"temp": 21, "dewp": 21, "wdir": 200, "wspd": 3, "wgst": null, "reportTime": "2026-07-02T21:00:00.000Z", "rawOb": "METAR RJOM 022100Z AUTO 20003KT 9999 FEW003 BKN042 21/21 Q1012"}, "RJCB": {"temp": 16, "dewp": 11, "wdir": 140, "wspd": 4, "wgst": null, "reportTime": "2026-07-02T23:00:00.000Z", "rawOb": "METAR RJCB 022300Z 14004KT 100V180 9999 FEW010 BKN/// 16/11 Q1013"}, "RJOA": {"temp": 19, "dewp": 17, "wdir": 310, "wspd": 3, "wgst": null, "reportTime": "2026-07-02T21:00:00.000Z", "rawOb": "METAR RJOA 022100Z AUTO 31003KT 9999 BKN040 BKN250 19/17 Q1014"}, "RJOT": {"temp": 20, "dewp": 19, "wdir": 150, "wspd": 3, "wgst": null, "reportTime": "2026-07-02T21:00:00.000Z", "rawOb": "METAR RJOT 022100Z AUTO 15003KT 9999 NCD 20/19 Q1013"}, "_updated": "2026-07-02T23:45:58Z"}