{"RJSS": {"temp": 21, "dewp": 19, "wdir": 110, "wspd": 2, "wgst": null, "reportTime": "2026-07-06T20:00:00.000Z", "rawOb": "METAR RJSS 062000Z AUTO 11002KT 9999 FEW005 SCT007 BKN008 21/19 Q1014"}, "RJOA": {"temp": 22, "dewp": 22, "wdir": "VRB", "wspd": 1, "wgst": null, "reportTime": "2026-07-06T20:00:00.000Z", "rawOb": "METAR RJOA 062000Z AUTO VRB01KT 0300 R28/0500V1000N FG BKN002 OVC042 22/22 Q1011"}, "RJFF": {"temp": 26, "dewp": 24, "wdir": 140, "wspd": 12, "wgst": null, "reportTime": "2026-07-06T20:00:00.000Z", "rawOb": "METAR RJFF 062000Z AUTO 14012KT 9999 NCD 26/24 Q1009 NOSIG"}, "ROAH": {"temp": 27, "dewp": 25, "wdir": 280, "wspd": 2, "wgst": null, "reportTime": "2026-07-06T20:00:00.000Z", "rawOb": "METAR ROAH 062000Z AUTO 28002KT 9999 NCD 27/25 Q1011"}, "RJAA": {"temp": 21, "dewp": 19, "wdir": 20, "wspd": 7, "wgst": null, "reportTime": "2026-07-06T20:00:00.000Z", "rawOb": "METAR RJAA 062000Z AUTO 02007KT 9999 NSC 21/19 Q1013 NOSIG"}, "RJTT": {"temp": 22, "dewp": 19, "wdir": 10, "wspd": 7, "wgst": null, "reportTime": "2026-07-06T20:00:00.000Z", "rawOb": "METAR RJTT 062000Z 01007KT 9999 FEW030 BKN070 22/19 Q1013 NOSIG"}, "RJGG": {"temp": 21, "dewp": 19, "wdir": 220, "wspd": 7, "wgst": null, "reportTime": "2026-07-06T20:00:00.000Z", "rawOb": "METAR RJGG 062000Z AUTO 22007KT 9999 SCT045 BKN050 OVC060 21/19 Q1012 NOSIG"}, "RJBB": {"temp": 22, "dewp": 20, "wdir": 50, "wspd": 7, "wgst": null, "reportTime": "2026-07-06T20:00:00.000Z", "rawOb": "METAR RJBB 062000Z AUTO 05007KT 9999 SCT034 OVC060 22/20 Q1011 NOSIG"}, "RJCO": {"temp": 20, "dewp": 16, "wdir": 150, "wspd": 16, "wgst": null, "reportTime": "2026-07-06T22:00:00.000Z", "rawOb": "METAR RJCO 062200Z 15016KT 9999 FEW010 SCT025 20/16 Q1015"}, "RJEC": {"temp": 15, "dewp": 14, "wdir": 140, "wspd": 6, "wgst": null, "reportTime": "2026-07-06T20:00:00.000Z", "rawOb": "METAR RJEC 062000Z AUTO 14006KT 9999 NSC 15/14 Q1016"}, "RJSK": {"temp": 23, "dewp": 17, "wdir": 120, "wspd": 11, "wgst": null, "reportTime": "2026-07-06T22:00:00.000Z", "rawOb": "METAR RJSK 062200Z 12011KT 9999 FEW040 23/17 Q1013"}, "RJCK": {"temp": 16, "dewp": 16, "wdir": 190, "wspd": 5, "wgst": null, "reportTime": "2026-07-06T20:00:00.000Z", "rawOb": "METAR RJCK 062000Z AUTO 19005KT 0300 R35/0550V0800N FG OVC001 16/16 Q1017"}, "RJOB": {"temp": 22, "dewp": 22, "wdir": 120, "wspd": 3, "wgst": null, "reportTime": "2026-07-06T22:00:00.000Z", "rawOb": "METAR RJOB 062200Z 12003KT 0300 R07/0325V0550N FG FEW000 SCT001 BKN002 22/22 Q1012"}, "RJOM": {"temp": 24, "dewp": 24, "wdir": "VRB", "wspd": 2, "wgst": null, "reportTime": "2026-07-06T20:00:00.000Z", "rawOb": "METAR RJOM 062000Z AUTO VRB02KT 9999 SCT030 BKN033 BKN034 24/24 Q1009"}, "RJOO": {"temp": 23, "dewp": 18, "wdir": 80, "wspd": 9, "wgst": null, "reportTime": "2026-07-06T20:00:00.000Z", "rawOb": "METAR RJOO 062000Z AUTO 08009KT 9999 FEW033 BKN060 23/18 Q1010"}, "RJBE": {"temp": 24, "dewp": 19, "wdir": 50, "wspd": 12, "wgst": null, "reportTime": "2026-07-06T22:00:00.000Z", "rawOb": "METAR RJBE 062200Z 05012KT 9999 FEW008 BKN020 24/19 Q1011"}, "RJOT": {"temp": 22, "dewp": 22, "wdir": 110, "wspd": 3, "wgst": null, "reportTime": "2026-07-06T20:00:00.000Z", "rawOb": "METAR RJOT 062000Z AUTO 11003KT 0100 R26/0325V0650D FG OVC000 22/22 Q1011"}, "_updated": "2026-07-06T22:45:45Z"}