{"RJCB": {"temp": 25, "dewp": 23, "wdir": 100, "wspd": 5, "wgst": null, "reportTime": "2026-07-12T08:00:00.000Z", "rawOb": "METAR RJCB 120800Z 10005KT 9999 -TSRA FEW005 SCT015 BKN030 FEW030CB 25/23 Q1004"}, "RJGG": {"temp": 31, "dewp": 25, "wdir": 270, "wspd": 2, "wgst": null, "reportTime": "2026-07-12T08:00:00.000Z", "rawOb": "METAR RJGG 120800Z 27002KT 9999 FEW020 BKN/// 31/25 Q1010 NOSIG"}, "RJBB": {"temp": 29, "dewp": 25, "wdir": 230, "wspd": 5, "wgst": null, "reportTime": "2026-07-12T08:00:00.000Z", "rawOb": "METAR RJBB 120800Z 23005KT 9999 FEW020 BKN/// 29/25 Q1012 NOSIG"}, "RJAA": {"temp": 28, "dewp": 24, "wdir": 240, "wspd": 4, "wgst": null, "reportTime": "2026-07-12T08:00:00.000Z", "rawOb": "METAR RJAA 120800Z 24004KT 190V290 9999 FEW020 BKN150 BKN/// 28/24 Q1009 NOSIG"}, "RJOT": {"temp": 32, "dewp": 24, "wdir": 240, "wspd": 6, "wgst": null, "reportTime": "2026-07-12T08:00:00.000Z", "rawOb": "METAR RJOT 120800Z 24006KT 9999 FEW025 BKN/// 32/24 Q1013"}, "RJOA": {"temp": 29, "dewp": 23, "wdir": 180, "wspd": 3, "wgst": null, "reportTime": "2026-07-12T08:00:00.000Z", "rawOb": "METAR RJOA 120800Z 18003KT 140V230 9999 FEW025 BKN/// 29/23 Q1013"}, "RJOB": {"temp": 31, "dewp": 25, "wdir": 220, "wspd": 6, "wgst": null, "reportTime": "2026-07-12T08:00:00.000Z", "rawOb": "METAR RJOB 120800Z 22006KT 190V250 9999 FEW025 BKN/// 31/25 Q1013"}, "RJOM": {"temp": 28, "dewp": 25, "wdir": 280, "wspd": 5, "wgst": null, "reportTime": "2026-07-12T08:00:00.000Z", "rawOb": "METAR RJOM 120800Z 28005KT 9999 FEW030 BKN/// 28/25 Q1011"}, "RJOO": {"temp": 32, "dewp": 24, "wdir": "VRB", "wspd": 4, "wgst": null, "reportTime": "2026-07-12T08:00:00.000Z", "rawOb": "METAR RJOO 120800Z VRB04KT 9999 FEW030 BKN/// 32/24 Q1011"}, "RJFF": {"temp": 33, "dewp": 24, "wdir": 320, "wspd": 10, "wgst": null, "reportTime": "2026-07-12T08:00:00.000Z", "rawOb": "METAR RJFF 120800Z 32010KT 9999 FEW030 SCT045 BKN/// 33/24 Q1011 TEMPO -TSRA"}, "RJBE": {"temp": 30, "dewp": 25, "wdir": 230, "wspd": 8, "wgst": null, "reportTime": "2026-07-12T08:00:00.000Z", "rawOb": "METAR RJBE 120800Z 23008KT 9999 FEW030 BKN/// 30/25 Q1011"}, "RJSS": {"temp": 28, "dewp": 22, "wdir": 230, "wspd": 5, "wgst": null, "reportTime": "2026-07-12T08:00:00.000Z", "rawOb": "METAR RJSS 120800Z 23005KT 9999 FEW010 BKN050 BKN120 28/22 Q1005"}, "RJEC": {"temp": 24, "dewp": 23, "wdir": 200, "wspd": 4, "wgst": null, "reportTime": "2026-07-12T08:00:00.000Z", "rawOb": "METAR RJEC 120800Z 20004KT 9999 FEW001 SCT040 BKN130 24/23 Q1004"}, "RJCK": {"temp": 17, "dewp": 17, "wdir": 160, "wspd": 8, "wgst": null, "reportTime": "2026-07-12T08:00:00.000Z", "rawOb": "METAR RJCK 120800Z 16008KT 0200 R17/0350V0500N FG VV001 17/17 Q1005"}, "ROAH": {"temp": 29, "dewp": 26, "wdir": 160, "wspd": 21, "wgst": null, "reportTime": "2026-07-12T08:00:00.000Z", "rawOb": "METAR ROAH 120800Z 16021KT 9999 FEW009 SCT011 BKN/// 29/26 Q1009"}, "RJCO": {"temp": 25, "dewp": 22, "wdir": 310, "wspd": 5, "wgst": null, "reportTime": "2026-07-12T08:00:00.000Z", "rawOb": "METAR RJCO 120800Z 31005KT 9999 FEW020 BKN150 25/22 Q1003"}, "RJSK": {"temp": 23, "dewp": 23, "wdir": 280, "wspd": 16, "wgst": null, "reportTime": "2026-07-12T08:00:00.000Z", "rawOb": "METAR RJSK 120800Z 28016KT 3000 SHRA BR FEW000 SCT003 BKN004 23/23 Q1006"}, "RJTT": {"temp": 28, "dewp": 24, "wdir": 210, "wspd": 10, "wgst": null, "reportTime": "2026-07-12T08:00:00.000Z", "rawOb": "METAR RJTT 120800Z 21010KT 9999 FEW030 BKN160 28/24 Q1009 NOSIG"}, "_updated": "2026-07-12T10:37:00Z"}