{"RJOM": {"temp": 27, "dewp": 25, "wdir": 0, "wspd": 0, "wgst": null, "reportTime": "2026-07-19T15:00:00.000Z", "rawOb": "METAR RJOM 191500Z AUTO 00000KT 9999 NSC 27/25 Q1007"}, "RJOO": {"temp": 29, "dewp": 25, "wdir": 260, "wspd": 4, "wgst": null, "reportTime": "2026-07-19T15:00:00.000Z", "rawOb": "METAR RJOO 191500Z AUTO 26004KT 220V330 9999 BKN039 BKN043 29/25 Q1007"}, "RJAA": {"temp": 25, "dewp": 23, "wdir": "VRB", "wspd": 2, "wgst": null, "reportTime": "2026-07-19T15:00:00.000Z", "rawOb": "METAR RJAA 191500Z AUTO VRB02KT 9999 NCD 25/23 Q1008 NOSIG"}, "RJTT": {"temp": 27, "dewp": 25, "wdir": 190, "wspd": 9, "wgst": null, "reportTime": "2026-07-19T15:00:00.000Z", "rawOb": "METAR RJTT 191500Z 19009KT CAVOK 27/25 Q1007 NOSIG"}, "RJBB": {"temp": 29, "dewp": 24, "wdir": 190, "wspd": 7, "wgst": null, "reportTime": "2026-07-19T15:00:00.000Z", "rawOb": "METAR RJBB 191500Z AUTO 19007KT 9999 NCD 29/24 Q1008 NOSIG"}, "RJCK": {"temp": 17, "dewp": 17, "wdir": 190, "wspd": 7, "wgst": null, "reportTime": "2026-07-19T15:00:00.000Z", "rawOb": "METAR RJCK 191500Z AUTO 19007KT 150V220 1200 R35/0750V1100U -RA BR OVC001 17/17 Q1007"}, "RJEC": {"temp": 21, "dewp": 19, "wdir": 160, "wspd": 9, "wgst": null, "reportTime": "2026-07-19T15:00:00.000Z", "rawOb": "METAR RJEC 191500Z AUTO 16009KT 9999 BKN022 BKN050 OVC060 21/19 Q1005"}, "RJSS": {"temp": 25, "dewp": 23, "wdir": 340, "wspd": 1, "wgst": null, "reportTime": "2026-07-19T15:00:00.000Z", "rawOb": "METAR RJSS 191500Z AUTO 34001KT 9999 NCD 25/23 Q1007"}, "RJFF": {"temp": 30, "dewp": 25, "wdir": "VRB", "wspd": 4, "wgst": null, "reportTime": "2026-07-19T15:00:00.000Z", "rawOb": "METAR RJFF 191500Z AUTO VRB04KT 9999 FEW023 SCT036 30/25 Q1007 NOSIG"}, "RJGG": {"temp": 27, "dewp": 25, "wdir": 120, "wspd": 6, "wgst": null, "reportTime": "2026-07-19T15:00:00.000Z", "rawOb": "METAR RJGG 191500Z AUTO 12006KT 9999 NCD 27/25 Q1008 NOSIG"}, "ROAH": {"temp": 28, "dewp": 28, "wdir": 220, "wspd": 6, "wgst": null, "reportTime": "2026-07-19T15:00:00.000Z", "rawOb": "METAR ROAH 191500Z AUTO 22006KT 9999 SCT007 BKN050 28/28 Q1008"}, "RJOA": {"temp": 27, "dewp": 23, "wdir": 290, "wspd": 8, "wgst": null, "reportTime": "2026-07-19T15:00:00.000Z", "rawOb": "METAR RJOA 191500Z AUTO 29008KT 9999 NCD 27/23 Q1009"}, "RJOT": {"temp": 26, "dewp": 25, "wdir": "VRB", "wspd": 2, "wgst": null, "reportTime": "2026-07-19T15:00:00.000Z", "rawOb": "METAR RJOT 191500Z AUTO VRB02KT 9999 NCD 26/25 Q1008"}, "_updated": "2026-07-19T17:33:35Z"}