{"ROAH": {"temp": 28, "dewp": 27, "wdir": 200, "wspd": 7, "wgst": null, "reportTime": "2026-07-18T10:30:00.000Z", "rawOb": "METAR ROAH 181030Z 20007KT 9999 FEW005 SCT018 28/27 Q1005"}, "RJGG": {"temp": 28, "dewp": 25, "wdir": 140, "wspd": 10, "wgst": null, "reportTime": "2026-07-18T10:30:00.000Z", "rawOb": "METAR RJGG 181030Z 14010KT 9999 FEW010 SCT/// 28/25 Q1006 NOSIG"}, "RJBB": {"temp": 30, "dewp": 24, "wdir": 190, "wspd": 11, "wgst": null, "reportTime": "2026-07-18T10:30:00.000Z", "rawOb": "METAR RJBB 181030Z 19011KT 9999 FEW020 FEW025CB BKN/// 30/24 Q1004 NOSIG"}, "RJFF": {"temp": 32, "dewp": 24, "wdir": 160, "wspd": 11, "wgst": null, "reportTime": "2026-07-18T10:30:00.000Z", "rawOb": "METAR RJFF 181030Z 16011KT 130V190 9999 FEW030 BKN/// 32/24 Q1002 NOSIG"}, "RJOT": {"temp": 28, "dewp": 27, "wdir": 140, "wspd": 6, "wgst": null, "reportTime": "2026-07-18T11:00:00.000Z", "rawOb": "METAR RJOT 181100Z 14006KT 9999 FEW025 SCT080 BKN/// 28/27 Q1004"}, "RJCK": {"temp": 19, "dewp": 19, "wdir": 130, "wspd": 9, "wgst": null, "reportTime": "2026-07-18T11:00:00.000Z", "rawOb": "METAR RJCK 181100Z 13009KT 0400 R17/0900N FG -SHRA VV001 19/19 Q1012"}, "RJSS": {"temp": 23, "dewp": 22, "wdir": 160, "wspd": 11, "wgst": null, "reportTime": "2026-07-18T11:00:00.000Z", "rawOb": "METAR RJSS 181100Z 16011KT 9999 FEW006 SCT030 BKN/// 23/22 Q1007"}, "RJTT": {"temp": 28, "dewp": 23, "wdir": 200, "wspd": 11, "wgst": null, "reportTime": "2026-07-18T10:30:00.000Z", "rawOb": "METAR RJTT 181030Z 20011KT 9999 FEW020 BKN025 BKN/// 28/23 Q1007 NOSIG"}, "RJBE": {"temp": 27, "dewp": 25, "wdir": 250, "wspd": 4, "wgst": null, "reportTime": "2026-07-18T11:00:00.000Z", "rawOb": "METAR RJBE 181100Z 25004KT 9999 FEW020 SCT045 BKN/// 27/25 Q1005"}, "RJOA": {"temp": 27, "dewp": 23, "wdir": 140, "wspd": 3, "wgst": null, "reportTime": "2026-07-18T11:00:00.000Z", "rawOb": "METAR RJOA 181100Z 14003KT 9999 FEW045 SCT/// 27/23 Q1005"}, "RJAA": {"temp": 25, "dewp": 23, "wdir": 140, "wspd": 6, "wgst": null, "reportTime": "2026-07-18T10:30:00.000Z", "rawOb": "METAR RJAA 181030Z 14006KT 9999 FEW015 BKN/// 25/23 Q1008 NOSIG"}, "RJOM": {"temp": 28, "dewp": 24, "wdir": 360, "wspd": 3, "wgst": null, "reportTime": "2026-07-18T11:00:00.000Z", "rawOb": "METAR RJOM 181100Z 36003KT 320V030 9999 FEW030 SCT045 28/24 Q1003"}, "RJEC": {"temp": 21, "dewp": 21, "wdir": "VRB", "wspd": 1, "wgst": null, "reportTime": "2026-07-18T11:00:00.000Z", "rawOb": "METAR RJEC 181100Z VRB01KT 8000 -SHRA FEW001 SCT010 BKN050 21/21 Q1009"}, "RJOO": {"temp": 30, "dewp": 24, "wdir": 240, "wspd": 6, "wgst": null, "reportTime": "2026-07-18T11:00:00.000Z", "rawOb": "METAR RJOO 181100Z 24006KT 150V290 9999 FEW020 FEW025CB BKN040 30/24 Q1005"}, "RJOB": {"temp": 28, "dewp": 24, "wdir": 120, "wspd": 4, "wgst": null, "reportTime": "2026-07-18T11:00:00.000Z", "rawOb": "METAR RJOB 181100Z 12004KT 080V150 9999 FEW020 SCT/// 28/24 Q1005"}, "RJSK": {"temp": 26, "dewp": 22, "wdir": 120, "wspd": 8, "wgst": null, "reportTime": "2026-07-18T11:00:00.000Z", "rawOb": "METAR RJSK 181100Z 12008KT 9999 FEW030 BKN160 BKN/// 26/22 Q1005"}, "RJCO": {"temp": 22, "dewp": 22, "wdir": 140, "wspd": 9, "wgst": null, "reportTime": "2026-07-18T11:00:00.000Z", "rawOb": "METAR RJCO 181100Z 14009KT 8000 -SHRA FEW008 BKN012 BKN060 22/22 Q1007"}, "RJCB": {"temp": 18, "dewp": 18, "wdir": 140, "wspd": 7, "wgst": null, "reportTime": "2026-07-18T11:00:00.000Z", "rawOb": "METAR RJCB 181100Z 14007KT 4000 -SHRA BR FEW003 BKN004 BKN005 18/18 Q1011"}, "_updated": "2026-07-18T13:23:51Z"}