{"RJFF": {"temp": 29, "dewp": 25, "wdir": 150, "wspd": 7, "wgst": null, "reportTime": "2026-07-19T17:00:00.000Z", "rawOb": "METAR RJFF 191700Z AUTO 15007KT 9999 NCD 29/25 Q1007 NOSIG"}, "RJBB": {"temp": 29, "dewp": 24, "wdir": 180, "wspd": 3, "wgst": null, "reportTime": "2026-07-19T17:00:00.000Z", "rawOb": "METAR RJBB 191700Z AUTO 18003KT 9999 NCD 29/24 Q1007 NOSIG"}, "RJGG": {"temp": 27, "dewp": 25, "wdir": 110, "wspd": 3, "wgst": null, "reportTime": "2026-07-19T17:00:00.000Z", "rawOb": "METAR RJGG 191700Z AUTO 11003KT 9999 NCD 27/25 Q1008 NOSIG"}, "ROAH": {"temp": 28, "dewp": 27, "wdir": 220, "wspd": 8, "wgst": null, "reportTime": "2026-07-19T17:00:00.000Z", "rawOb": "METAR ROAH 191700Z AUTO 22008KT 9999 FEW008 28/27 Q1008"}, "RJAA": {"temp": 25, "dewp": 24, "wdir": 180, "wspd": 3, "wgst": null, "reportTime": "2026-07-19T17:00:00.000Z", "rawOb": "METAR RJAA 191700Z AUTO 18003KT 9999 NCD 25/24 Q1007 NOSIG"}, "RJTT": {"temp": 27, "dewp": 25, "wdir": 200, "wspd": 10, "wgst": null, "reportTime": "2026-07-19T17:00:00.000Z", "rawOb": "METAR RJTT 191700Z 20010KT 9999 FEW030 SCT/// 27/25 Q1007 NOSIG"}, "RJEC": {"temp": 21, "dewp": 19, "wdir": 170, "wspd": 7, "wgst": null, "reportTime": "2026-07-19T17:00:00.000Z", "rawOb": "METAR RJEC 191700Z AUTO 17007KT 9999 BKN017 OVC019 21/19 Q1005"}, "RJCK": {"temp": 18, "dewp": 18, "wdir": 60, "wspd": 3, "wgst": null, "reportTime": "2026-07-19T17:00:00.000Z", "rawOb": "METAR RJCK 191700Z AUTO 06003KT 0300 R35/1700D FG OVC001 18/18 Q1006"}, "RJOM": {"temp": 27, "dewp": 26, "wdir": 10, "wspd": 4, "wgst": null, "reportTime": "2026-07-19T17:00:00.000Z", "rawOb": "METAR RJOM 191700Z AUTO 01004KT 330V030 7000 NCD 27/26 Q1007"}, "RJOO": {"temp": 29, "dewp": 24, "wdir": 250, "wspd": 4, "wgst": null, "reportTime": "2026-07-19T17:00:00.000Z", "rawOb": "METAR RJOO 191700Z AUTO 25004KT 190V310 9999 FEW024 SCT041 BKN043 29/24 Q1007"}, "RJOT": {"temp": 24, "dewp": 24, "wdir": 160, "wspd": 3, "wgst": null, "reportTime": "2026-07-19T17:00:00.000Z", "rawOb": "METAR RJOT 191700Z AUTO 16003KT 120V220 9999 NCD 24/24 Q1008"}, "RJSS": {"temp": 24, "dewp": 23, "wdir": 320, "wspd": 2, "wgst": null, "reportTime": "2026-07-19T17:00:00.000Z", "rawOb": "METAR RJSS 191700Z AUTO 32002KT 9999 NCD 24/23 Q1006"}, "RJOA": {"temp": 26, "dewp": 24, "wdir": 310, "wspd": 4, "wgst": null, "reportTime": "2026-07-19T17:00:00.000Z", "rawOb": "METAR RJOA 191700Z AUTO 31004KT 9999 NCD 26/24 Q1009"}, "_updated": "2026-07-19T19:55:14Z"}