{"RJSS": {"temp": 22, "dewp": 21, "wdir": "VRB", "wspd": 1, "wgst": null, "reportTime": "2026-07-18T20:00:00.000Z", "rawOb": "METAR RJSS 182000Z AUTO VRB01KT 8000 OVC001 22/21 Q1007"}, "RJOA": {"temp": 25, "dewp": 22, "wdir": 300, "wspd": 4, "wgst": null, "reportTime": "2026-07-18T20:00:00.000Z", "rawOb": "METAR RJOA 182000Z AUTO 30004KT 9999 NCD 25/22 Q1008"}, "RJGG": {"temp": 27, "dewp": 25, "wdir": 120, "wspd": 9, "wgst": null, "reportTime": "2026-07-18T20:00:00.000Z", "rawOb": "METAR RJGG 182000Z AUTO 12009KT 9999 FEW011 BKN035 OVC040 27/25 Q1007 NOSIG"}, "RJFF": {"temp": 28, "dewp": 25, "wdir": 130, "wspd": 10, "wgst": null, "reportTime": "2026-07-18T20:00:00.000Z", "rawOb": "METAR RJFF 182000Z AUTO 13010KT 9999 NCD 28/25 Q1004 NOSIG"}, "ROAH": {"temp": 28, "dewp": 27, "wdir": 200, "wspd": 5, "wgst": null, "reportTime": "2026-07-18T20:00:00.000Z", "rawOb": "METAR ROAH 182000Z AUTO 20005KT 8000 OVC003 28/27 Q1006"}, "RJBB": {"temp": 27, "dewp": 25, "wdir": 40, "wspd": 2, "wgst": null, "reportTime": "2026-07-18T20:00:00.000Z", "rawOb": "METAR RJBB 182000Z AUTO 04002KT 9999 NSC 27/25 Q1006 NOSIG"}, "RJAA": {"temp": 23, "dewp": 22, "wdir": 140, "wspd": 3, "wgst": null, "reportTime": "2026-07-18T20:00:00.000Z", "rawOb": "METAR RJAA 182000Z AUTO 14003KT 9999 NCD 23/22 Q1008 NOSIG"}, "RJTT": {"temp": 27, "dewp": 24, "wdir": 180, "wspd": 10, "wgst": null, "reportTime": "2026-07-18T20:00:00.000Z", "rawOb": "METAR RJTT 182000Z 18010KT 9999 FEW010 SCT014 BKN040 27/24 Q1008 NOSIG"}, "RJOM": {"temp": 26, "dewp": 24, "wdir": 20, "wspd": 2, "wgst": null, "reportTime": "2026-07-18T20:00:00.000Z", "rawOb": "METAR RJOM 182000Z AUTO 02002KT 9999 NCD 26/24 Q1006"}, "RJOT": {"temp": 24, "dewp": 24, "wdir": 140, "wspd": 6, "wgst": null, "reportTime": "2026-07-18T20:00:00.000Z", "rawOb": "METAR RJOT 182000Z AUTO 14006KT 9999 NCD 24/24 Q1007"}, "RJOO": {"temp": 28, "dewp": 23, "wdir": 60, "wspd": 5, "wgst": null, "reportTime": "2026-07-18T20:00:00.000Z", "rawOb": "METAR RJOO 182000Z AUTO 06005KT 040V100 9999 NSC 28/23 Q1006"}, "RJBE": {"temp": 29, "dewp": 25, "wdir": 60, "wspd": 6, "wgst": null, "reportTime": "2026-07-18T22:00:00.000Z", "rawOb": "METAR RJBE 182200Z 06006KT 9999 FEW030 SCT050 29/25 Q1007"}, "RJCK": {"temp": 19, "dewp": 19, "wdir": 140, "wspd": 14, "wgst": null, "reportTime": "2026-07-18T20:00:00.000Z", "rawOb": "METAR RJCK 182000Z AUTO 14014KT 0300 R17/0650N -RA FG OVC001 19/19 Q1010"}, "RJCO": {"temp": 21, "dewp": 20, "wdir": 150, "wspd": 15, "wgst": null, "reportTime": "2026-07-18T22:00:00.000Z", "rawOb": "METAR RJCO 182200Z 15015KT 9999 FEW010 BKN040 BKN080 21/20 Q1004"}, "RJEC": {"temp": 20, "dewp": 19, "wdir": 160, "wspd": 5, "wgst": null, "reportTime": "2026-07-18T20:00:00.000Z", "rawOb": "METAR RJEC 182000Z AUTO 16005KT 9999 -RA FEW042 BKN070 OVC090 20/19 Q1005"}, "RJOB": {"temp": 27, "dewp": 25, "wdir": 60, "wspd": 4, "wgst": null, "reportTime": "2026-07-18T22:00:00.000Z", "rawOb": "METAR RJOB 182200Z 06004KT 6000 FEW007 SCT030 27/25 Q1008"}, "RJSK": {"temp": 26, "dewp": 23, "wdir": 120, "wspd": 6, "wgst": null, "reportTime": "2026-07-18T22:00:00.000Z", "rawOb": "METAR RJSK 182200Z 12006KT 090V160 9999 -SHRA FEW020 SCT035 BKN040 26/23 Q1006"}, "_updated": "2026-07-18T22:54:16Z"}