{"RJGG": {"temp": 29, "dewp": 22, "wdir": 10, "wspd": 5, "wgst": null, "reportTime": "2026-07-23T16:30:00.000Z", "rawOb": "METAR RJGG 231630Z AUTO 01005KT 9999 NCD 29/22 Q1009 NOSIG"}, "RJOA": {"temp": 27, "dewp": 23, "wdir": "VRB", "wspd": 1, "wgst": null, "reportTime": "2026-07-23T17:00:00.000Z", "rawOb": "METAR RJOA 231700Z AUTO VRB01KT 9999 NCD 27/23 Q1012"}, "RJOM": {"temp": 28, "dewp": 24, "wdir": 140, "wspd": 5, "wgst": null, "reportTime": "2026-07-23T17:00:00.000Z", "rawOb": "METAR RJOM 231700Z AUTO 14005KT 9999 NCD 28/24 Q1010"}, "RJOO": {"temp": 29, "dewp": 22, "wdir": 310, "wspd": 5, "wgst": null, "reportTime": "2026-07-23T17:00:00.000Z", "rawOb": "METAR RJOO 231700Z AUTO 31005KT 9999 NCD 29/22 Q1010"}, "ROAH": {"temp": 29, "dewp": 26, "wdir": 90, "wspd": 7, "wgst": null, "reportTime": "2026-07-23T16:30:00.000Z", "rawOb": "METAR ROAH 231630Z AUTO 09007KT 9999 NCD 29/26 Q1010"}, "RJOT": {"temp": 27, "dewp": 24, "wdir": 220, "wspd": 4, "wgst": null, "reportTime": "2026-07-23T17:00:00.000Z", "rawOb": "METAR RJOT 231700Z AUTO 22004KT 9999 NCD 27/24 Q1011"}, "RJSS": {"temp": 24, "dewp": 22, "wdir": 180, "wspd": 4, "wgst": null, "reportTime": "2026-07-23T17:00:00.000Z", "rawOb": "METAR RJSS 231700Z AUTO 18004KT 9999 OVC011 24/22 Q1011"}, "RJTT": {"temp": 28, "dewp": 25, "wdir": 70, "wspd": 8, "wgst": null, "reportTime": "2026-07-23T16:30:00.000Z", "rawOb": "METAR RJTT 231630Z 07008KT 9999 FEW020 BKN050 28/25 Q1010 NOSIG"}, "RJAA": {"temp": 25, "dewp": 24, "wdir": 40, "wspd": 7, "wgst": null, "reportTime": "2026-07-23T16:30:00.000Z", "rawOb": "METAR RJAA 231630Z AUTO 04007KT 9999 OVC005 25/24 Q1010 NOSIG"}, "RJBB": {"temp": 31, "dewp": 22, "wdir": 90, "wspd": 6, "wgst": null, "reportTime": "2026-07-23T16:30:00.000Z", "rawOb": "METAR RJBB 231630Z AUTO 09006KT 9999 NCD 31/22 Q1010 NOSIG"}, "RJCK": {"temp": 17, "dewp": 16, "wdir": 110, "wspd": 3, "wgst": null, "reportTime": "2026-07-23T17:00:00.000Z", "rawOb": "METAR RJCK 231700Z AUTO 11003KT 9999 OVC026 17/16 Q1012"}, "RJEC": {"temp": 17, "dewp": 16, "wdir": 340, "wspd": 3, "wgst": null, "reportTime": "2026-07-23T17:00:00.000Z", "rawOb": "METAR RJEC 231700Z AUTO 34003KT 9999 FEW031 BKN070 OVC090 17/16 Q1012"}, "RJFF": {"temp": 27, "dewp": 24, "wdir": 130, "wspd": 4, "wgst": null, "reportTime": "2026-07-23T16:30:00.000Z", "rawOb": "METAR RJFF 231630Z AUTO 13004KT 080V150 9999 NCD 27/24 Q1010 NOSIG"}, "_updated": "2026-07-23T19:23:30Z"}