{"RJOM": {"temp": 30, "dewp": 23, "wdir": 170, "wspd": 4, "wgst": null, "reportTime": "2026-07-14T22:00:00.000Z", "rawOb": "METAR RJOM 142200Z 17004KT 9999 FEW020 SCT050 BKN/// 30/23 Q1006"}, "RJCB": {"temp": 23, "dewp": 21, "wdir": 140, "wspd": 3, "wgst": null, "reportTime": "2026-07-14T23:00:00.000Z", "rawOb": "METAR RJCB 142300Z 14003KT 070V220 6000 FEW007 BKN009 BKN010 23/21 Q1003"}, "RJAA": {"temp": 27, "dewp": 25, "wdir": 210, "wspd": 5, "wgst": null, "reportTime": "2026-07-14T21:30:00.000Z", "rawOb": "METAR RJAA 142130Z 21005KT 9999 FEW013 SCT/// 27/25 Q1005 NOSIG"}, "RJGG": {"temp": 27, "dewp": 24, "wdir": 190, "wspd": 3, "wgst": null, "reportTime": "2026-07-14T21:30:00.000Z", "rawOb": "METAR RJGG 142130Z 19003KT 9999 FEW020 BKN/// 27/24 Q1005 NOSIG"}, "RJCK": {"temp": 18, "dewp": 18, "wdir": 50, "wspd": 4, "wgst": null, "reportTime": "2026-07-14T22:00:00.000Z", "rawOb": "METAR RJCK 142200Z AUTO 05004KT 0100 R35/0225V0500N FG OVC000 18/18 Q1004"}, "RJFF": {"temp": 29, "dewp": 25, "wdir": 170, "wspd": 8, "wgst": null, "reportTime": "2026-07-14T21:30:00.000Z", "rawOb": "METAR RJFF 142130Z 17008KT 9999 FEW008 BKN050 BKN/// 29/25 Q1006 NOSIG"}, "RJOO": {"temp": 29, "dewp": 24, "wdir": "VRB", "wspd": 1, "wgst": null, "reportTime": "2026-07-14T22:00:00.000Z", "rawOb": "METAR RJOO 142200Z VRB01KT 9999 FEW030 BKN040 29/24 Q1006"}, "RJCO": {"temp": 23, "dewp": 21, "wdir": 150, "wspd": 12, "wgst": null, "reportTime": "2026-07-14T22:00:00.000Z", "rawOb": "METAR RJCO 142200Z 15012KT 9999 FEW005 BKN230 23/21 Q1001"}, "RJTT": {"temp": 28, "dewp": 26, "wdir": 180, "wspd": 8, "wgst": null, "reportTime": "2026-07-14T21:30:00.000Z", "rawOb": "METAR RJTT 142130Z 18008KT 9999 FEW010 28/26 Q1005 TEMPO FEW007 BKN011"}, "RJBB": {"temp": 27, "dewp": 25, "wdir": 170, "wspd": 3, "wgst": null, "reportTime": "2026-07-14T21:30:00.000Z", "rawOb": "METAR RJBB 142130Z 17003KT 130V240 9999 FEW030 BKN045 27/25 Q1006 NOSIG"}, "RJEC": {"temp": 24, "dewp": 22, "wdir": 170, "wspd": 6, "wgst": null, "reportTime": "2026-07-14T22:00:00.000Z", "rawOb": "METAR RJEC 142200Z AUTO 17006KT 9999 FEW038 SCT150 BKN160 24/22 Q1002"}, "ROAH": {"temp": 27, "dewp": 25, "wdir": 210, "wspd": 11, "wgst": null, "reportTime": "2026-07-14T21:30:00.000Z", "rawOb": "METAR ROAH 142130Z 21011KT 9999 FEW006 SCT008 27/25 Q1010"}, "RJBE": {"temp": 28, "dewp": 25, "wdir": 220, "wspd": 7, "wgst": null, "reportTime": "2026-07-14T22:00:00.000Z", "rawOb": "METAR RJBE 142200Z 22007KT 9999 FEW015 BKN045 28/25 Q1006"}, "RJSK": {"temp": 25, "dewp": 24, "wdir": 100, "wspd": 3, "wgst": null, "reportTime": "2026-07-14T22:00:00.000Z", "rawOb": "METAR RJSK 142200Z 10003KT 080V150 8000 FEW001 SCT009 BKN012 25/24 Q1005"}, "RJSS": {"temp": 27, "dewp": 24, "wdir": "VRB", "wspd": 1, "wgst": null, "reportTime": "2026-07-14T22:00:00.000Z", "rawOb": "METAR RJSS 142200Z AUTO VRB01KT 9999 NCD 27/24 Q1004"}, "RJOB": {"temp": 26, "dewp": 23, "wdir": 220, "wspd": 3, "wgst": null, "reportTime": "2026-07-14T22:00:00.000Z", "rawOb": "METAR RJOB 142200Z 22003KT 9999 FEW025 BKN040 26/23 Q1007"}, "RJOT": {"temp": 29, "dewp": 24, "wdir": 250, "wspd": 3, "wgst": null, "reportTime": "2026-07-14T22:00:00.000Z", "rawOb": "METAR RJOT 142200Z 25003KT 210V280 9999 FEW030 SCT120 BKN/// 29/24 Q1007"}, "RJOA": {"temp": 25, "dewp": 23, "wdir": 200, "wspd": 5, "wgst": null, "reportTime": "2026-07-14T22:00:00.000Z", "rawOb": "METAR RJOA 142200Z AUTO 20005KT 160V230 9999 FEW023 25/23 Q1007"}, "_updated": "2026-07-15T00:07:04Z"}