{"RJGG": {"temp": 27, "dewp": 23, "wdir": 260, "wspd": 3, "wgst": null, "reportTime": "2026-07-14T15:30:00.000Z", "rawOb": "METAR RJGG 141530Z AUTO 26003KT 220V300 9999 NCD 27/23 Q1005 NOSIG"}, "ROAH": {"temp": 26, "dewp": 26, "wdir": 180, "wspd": 12, "wgst": null, "reportTime": "2026-07-14T15:30:00.000Z", "rawOb": "METAR ROAH 141530Z AUTO 18012KT 9999 FEW005 26/26 Q1012"}, "RJTT": {"temp": 27, "dewp": 25, "wdir": 200, "wspd": 10, "wgst": null, "reportTime": "2026-07-14T15:30:00.000Z", "rawOb": "METAR RJTT 141530Z 20010KT 9999 FEW008 SCT010 BKN080 27/25 Q1006 TEMPO FM1600 FEW008 BKN012"}, "RJOM": {"temp": 26, "dewp": 25, "wdir": 240, "wspd": 4, "wgst": null, "reportTime": "2026-07-14T16:00:00.000Z", "rawOb": "METAR RJOM 141600Z AUTO 24004KT 9999 FEW037 SCT040 26/25 Q1006"}, "RJSS": {"temp": 24, "dewp": 23, "wdir": 270, "wspd": 3, "wgst": null, "reportTime": "2026-07-14T16:00:00.000Z", "rawOb": "METAR RJSS 141600Z AUTO 27003KT 9999 NCD 24/23 Q1004"}, "RJAA": {"temp": 25, "dewp": 23, "wdir": 130, "wspd": 3, "wgst": null, "reportTime": "2026-07-14T15:30:00.000Z", "rawOb": "METAR RJAA 141530Z AUTO 13003KT 9999 NSC 25/23 Q1006 NOSIG"}, "RJBB": {"temp": 28, "dewp": 24, "wdir": 230, "wspd": 7, "wgst": null, "reportTime": "2026-07-14T15:30:00.000Z", "rawOb": "METAR RJBB 141530Z AUTO 23007KT 9999 NCD 28/24 Q1006 NOSIG"}, "RJCK": {"temp": 16, "dewp": 16, "wdir": 180, "wspd": 3, "wgst": null, "reportTime": "2026-07-14T16:00:00.000Z", "rawOb": "METAR RJCK 141600Z AUTO 18003KT 8000 R35/0700V1600D FEW004 BKN240 16/16 Q1004"}, "RJEC": {"temp": 22, "dewp": 21, "wdir": 180, "wspd": 4, "wgst": null, "reportTime": "2026-07-14T16:00:00.000Z", "rawOb": "METAR RJEC 141600Z AUTO 18004KT 9999 FEW026 OVC037 22/21 Q1003"}, "RJFF": {"temp": 29, "dewp": 24, "wdir": 180, "wspd": 13, "wgst": null, "reportTime": "2026-07-14T15:30:00.000Z", "rawOb": "METAR RJFF 141530Z AUTO 18013KT 9999 FEW029 SCT035 BKN038 29/24 Q1007 NOSIG"}, "RJOA": {"temp": 25, "dewp": 23, "wdir": 240, "wspd": 5, "wgst": null, "reportTime": "2026-07-14T16:00:00.000Z", "rawOb": "METAR RJOA 141600Z AUTO 24005KT 210V270 9999 NCD 25/23 Q1007"}, "RJOO": {"temp": 29, "dewp": 24, "wdir": 160, "wspd": 4, "wgst": null, "reportTime": "2026-07-14T16:00:00.000Z", "rawOb": "METAR RJOO 141600Z AUTO 16004KT 9999 NCD 29/24 Q1006"}, "RJOT": {"temp": 27, "dewp": 22, "wdir": 190, "wspd": 5, "wgst": null, "reportTime": "2026-07-14T16:00:00.000Z", "rawOb": "METAR RJOT 141600Z AUTO 19005KT 9999 NCD 27/22 Q1007"}, "_updated": "2026-07-14T18:07:12Z"}