{"RJBB": {"temp": 31, "dewp": 27, "wdir": 240, "wspd": 8, "wgst": null, "reportTime": "2026-07-23T09:30:00.000Z", "rawOb": "METAR RJBB 230930Z 24008KT 9999 FEW035 31/27 Q1007 NOSIG"}, "RJAA": {"temp": 29, "dewp": 22, "wdir": 90, "wspd": 6, "wgst": null, "reportTime": "2026-07-23T09:30:00.000Z", "rawOb": "METAR RJAA 230930Z 09006KT 050V180 9999 FEW030 29/22 Q1008 NOSIG"}, "ROAH": {"temp": 31, "dewp": 26, "wdir": 120, "wspd": 10, "wgst": null, "reportTime": "2026-07-23T09:30:00.000Z", "rawOb": "METAR ROAH 230930Z 12010KT 9999 VCSH FEW022 SCT033 31/26 Q1009"}, "RJTT": {"temp": 30, "dewp": 25, "wdir": 110, "wspd": 10, "wgst": null, "reportTime": "2026-07-23T09:30:00.000Z", "rawOb": "METAR RJTT 230930Z 11010KT 9999 FEW030 30/25 Q1008 NOSIG"}, "RJGG": {"temp": 33, "dewp": 25, "wdir": 330, "wspd": 13, "wgst": null, "reportTime": "2026-07-23T09:30:00.000Z", "rawOb": "METAR RJGG 230930Z 33013KT 9999 FEW020 33/25 Q1006 NOSIG"}, "RJFF": {"temp": 31, "dewp": 24, "wdir": 320, "wspd": 7, "wgst": null, "reportTime": "2026-07-23T09:30:00.000Z", "rawOb": "METAR RJFF 230930Z 32007KT 280V350 9999 FEW030 31/24 Q1009 NOSIG"}, "RJCB": {"temp": 23, "dewp": 17, "wdir": 110, "wspd": 6, "wgst": null, "reportTime": "2026-07-23T10:00:00.000Z", "rawOb": "METAR RJCB 231000Z 11006KT 9999 FEW030 SCT050 BKN080 23/17 Q1009"}, "RJBE": {"temp": 32, "dewp": 25, "wdir": 260, "wspd": 8, "wgst": null, "reportTime": "2026-07-23T10:00:00.000Z", "rawOb": "METAR RJBE 231000Z 26008KT 9999 FEW030 32/25 Q1007"}, "RJCK": {"temp": 18, "dewp": 18, "wdir": 60, "wspd": 4, "wgst": null, "reportTime": "2026-07-23T10:00:00.000Z", "rawOb": "METAR RJCK 231000Z 06004KT 030V100 0300 R17/0400V0700N FG VV001 18/18 Q1011"}, "RJCO": {"temp": 23, "dewp": 18, "wdir": 330, "wspd": 7, "wgst": null, "reportTime": "2026-07-23T10:00:00.000Z", "rawOb": "METAR RJCO 231000Z 33007KT 9999 FEW020 SCT250 23/18 Q1010"}, "RJOA": {"temp": 30, "dewp": 24, "wdir": 340, "wspd": 7, "wgst": null, "reportTime": "2026-07-23T10:00:00.000Z", "rawOb": "METAR RJOA 231000Z 34007KT 300V040 9999 FEW035 30/24 Q1011"}, "RJOB": {"temp": 30, "dewp": 24, "wdir": 230, "wspd": 4, "wgst": null, "reportTime": "2026-07-23T10:00:00.000Z", "rawOb": "METAR RJOB 231000Z 23004KT 9999 FEW025 SCT060 30/24 Q1009"}, "RJOM": {"temp": 30, "dewp": 25, "wdir": 240, "wspd": 6, "wgst": null, "reportTime": "2026-07-23T10:00:00.000Z", "rawOb": "METAR RJOM 231000Z 24006KT 9999 FEW035 30/25 Q1009"}, "RJOO": {"temp": 34, "dewp": 24, "wdir": 350, "wspd": 13, "wgst": null, "reportTime": "2026-07-23T10:00:00.000Z", "rawOb": "METAR RJOO 231000Z 35013KT 320V020 9999 FEW035 SCT060 34/24 Q1008"}, "RJOT": {"temp": 32, "dewp": 23, "wdir": 240, "wspd": 4, "wgst": null, "reportTime": "2026-07-23T10:00:00.000Z", "rawOb": "METAR RJOT 231000Z 24004KT 9999 FEW035 SCT060 32/23 Q1009"}, "RJSS": {"temp": 24, "dewp": 22, "wdir": 110, "wspd": 8, "wgst": null, "reportTime": "2026-07-23T10:00:00.000Z", "rawOb": "METAR RJSS 231000Z 11008KT 9999 FEW007 BKN015 BKN020 24/22 Q1010"}, "RJEC": {"temp": 23, "dewp": 19, "wdir": 300, "wspd": 5, "wgst": null, "reportTime": "2026-07-23T10:00:00.000Z", "rawOb": "METAR RJEC 231000Z 30005KT 9999 FEW030 SCT/// 23/19 Q1010"}, "RJSK": {"temp": 25, "dewp": 23, "wdir": 320, "wspd": 3, "wgst": null, "reportTime": "2026-07-23T10:00:00.000Z", "rawOb": "METAR RJSK 231000Z 32003KT 9999 FEW007 SCT009 BKN/// 25/23 Q1010"}, "_updated": "2026-07-23T12:02:50Z"}