{"RJGG": {"temp": 30, "dewp": 25, "wdir": 160, "wspd": 14, "wgst": null, "reportTime": "2026-07-18T07:00:00.000Z", "rawOb": "METAR RJGG 180700Z 16014KT 9999 FEW015 BKN070 30/25 Q1005 NOSIG"}, "RJFF": {"temp": 34, "dewp": 25, "wdir": 170, "wspd": 14, "wgst": null, "reportTime": "2026-07-18T07:00:00.000Z", "rawOb": "METAR RJFF 180700Z 17014KT 9999 FEW025 BKN/// 34/25 Q1001 NOSIG"}, "ROAH": {"temp": 30, "dewp": 28, "wdir": 210, "wspd": 9, "wgst": null, "reportTime": "2026-07-18T07:00:00.000Z", "rawOb": "METAR ROAH 180700Z 21009KT 9999 FEW007 SCT010 30/28 Q1005"}, "RJTT": {"temp": 28, "dewp": 25, "wdir": 150, "wspd": 5, "wgst": null, "reportTime": "2026-07-18T07:00:00.000Z", "rawOb": "METAR RJTT 180700Z 15005KT 060V220 9999 FEW010 SCT030 BKN060 28/25 Q1007 NOSIG"}, "RJBB": {"temp": 33, "dewp": 25, "wdir": 220, "wspd": 18, "wgst": null, "reportTime": "2026-07-18T07:00:00.000Z", "rawOb": "METAR RJBB 180700Z 22018KT 9999 FEW020 BKN/// 33/25 Q1003 NOSIG"}, "RJAA": {"temp": 28, "dewp": 23, "wdir": 140, "wspd": 10, "wgst": null, "reportTime": "2026-07-18T07:00:00.000Z", "rawOb": "METAR RJAA 180700Z 14010KT 9999 FEW020 SCT050 BKN/// 28/23 Q1007 NOSIG"}, "RJOT": {"temp": 30, "dewp": 27, "wdir": 80, "wspd": 7, "wgst": null, "reportTime": "2026-07-18T07:00:00.000Z", "rawOb": "METAR RJOT 180700Z 08007KT 9999 -SHRA FEW010 FEW025CB SCT035 BKN045 30/27 Q1004"}, "RJCB": {"temp": 21, "dewp": 21, "wdir": 140, "wspd": 8, "wgst": null, "reportTime": "2026-07-18T07:00:00.000Z", "rawOb": "METAR RJCB 180700Z 14008KT 5000 -SHRA BR FEW005 BKN006 BKN007 21/21 Q1011"}, "RJCK": {"temp": 19, "dewp": 19, "wdir": 170, "wspd": 8, "wgst": null, "reportTime": "2026-07-18T07:00:00.000Z", "rawOb": "METAR RJCK 180700Z 17008KT 0300 R17/0650V1100D FG -SHRA VV001 19/19 Q1012"}, "RJCO": {"temp": 23, "dewp": 21, "wdir": 150, "wspd": 12, "wgst": null, "reportTime": "2026-07-18T07:00:00.000Z", "rawOb": "METAR RJCO 180700Z 15012KT 9999 -SHRA FEW012 BKN030 BKN070 23/21 Q1008"}, "RJEC": {"temp": 23, "dewp": 21, "wdir": 170, "wspd": 5, "wgst": null, "reportTime": "2026-07-18T07:00:00.000Z", "rawOb": "METAR RJEC 180700Z 17005KT 9999 -SHRA FEW005 SCT030 BKN090 23/21 Q1009"}, "RJOB": {"temp": 32, "dewp": 26, "wdir": 130, "wspd": 6, "wgst": null, "reportTime": "2026-07-18T07:00:00.000Z", "rawOb": "METAR RJOB 180700Z 13006KT 100V180 9999 FEW025 SCT040 32/26 Q1004"}, "RJOA": {"temp": 32, "dewp": 24, "wdir": 200, "wspd": 4, "wgst": null, "reportTime": "2026-07-18T07:00:00.000Z", "rawOb": "METAR RJOA 180700Z 20004KT 160V250 9999 FEW030 SCT/// 32/24 Q1004"}, "RJBE": {"temp": 30, "dewp": 26, "wdir": 230, "wspd": 15, "wgst": null, "reportTime": "2026-07-18T07:00:00.000Z", "rawOb": "METAR RJBE 180700Z 23015KT 9999 FEW035 BKN/// 30/26 Q1003"}, "RJOM": {"temp": 31, "dewp": 25, "wdir": 350, "wspd": 6, "wgst": null, "reportTime": "2026-07-18T07:00:00.000Z", "rawOb": "METAR RJOM 180700Z 35006KT 9999 FEW035 BKN/// 31/25 Q1002"}, "RJOO": {"temp": 33, "dewp": 24, "wdir": 240, "wspd": 8, "wgst": null, "reportTime": "2026-07-18T07:00:00.000Z", "rawOb": "METAR RJOO 180700Z 24008KT 180V280 9999 FEW020 FEW025CB BKN/// 33/24 Q1003"}, "RJSK": {"temp": 28, "dewp": 23, "wdir": 120, "wspd": 8, "wgst": null, "reportTime": "2026-07-18T07:00:00.000Z", "rawOb": "METAR RJSK 180700Z 12008KT 9999 FEW025 SCT040 BKN050 28/23 Q1005"}, "RJSS": {"temp": 24, "dewp": 23, "wdir": 140, "wspd": 11, "wgst": null, "reportTime": "2026-07-18T07:00:00.000Z", "rawOb": "METAR RJSS 180700Z 14011KT 9999 FEW006 SCT020 BKN040 24/23 Q1007"}, "_updated": "2026-07-18T09:41:33Z"}