{"RJCK": {"temp": 20, "dewp": 20, "wdir": "VRB", "wspd": 2, "wgst": null, "reportTime": "2026-07-21T22:00:00.000Z", "rawOb": "METAR RJCK 212200Z AUTO VRB02KT 7000 OVC001 20/20 Q1006"}, "RJTT": {"temp": 30, "dewp": 27, "wdir": 180, "wspd": 8, "wgst": null, "reportTime": "2026-07-21T21:30:00.000Z", "rawOb": "METAR RJTT 212130Z 18008KT 9999 FEW010 30/27 Q1008 NOSIG"}, "ROAH": {"temp": 28, "dewp": 27, "wdir": 270, "wspd": 2, "wgst": null, "reportTime": "2026-07-21T21:30:00.000Z", "rawOb": "METAR ROAH 212130Z 27002KT 9999 FEW007 28/27 Q1010"}, "RJBB": {"temp": 30, "dewp": 26, "wdir": 230, "wspd": 4, "wgst": null, "reportTime": "2026-07-21T21:30:00.000Z", "rawOb": "METAR RJBB 212130Z 23004KT CAVOK 30/26 Q1010 NOSIG"}, "RJBE": {"temp": 29, "dewp": 27, "wdir": 220, "wspd": 5, "wgst": null, "reportTime": "2026-07-21T22:00:00.000Z", "rawOb": "METAR RJBE 212200Z 22005KT CAVOK 29/27 Q1010"}, "RJCB": {"temp": 22, "dewp": 21, "wdir": 80, "wspd": 3, "wgst": null, "reportTime": "2026-07-21T23:00:00.000Z", "rawOb": "METAR RJCB 212300Z 08003KT 050V130 9999 FEW003 SCT004 BKN005 22/21 Q1006"}, "RJCO": {"temp": 23, "dewp": 21, "wdir": 70, "wspd": 1, "wgst": null, "reportTime": "2026-07-21T22:00:00.000Z", "rawOb": "METAR RJCO 212200Z 07001KT 9999 -SHRA FEW010 SCT030 BKN100 23/21 Q1006"}, "RJEC": {"temp": 22, "dewp": 20, "wdir": "VRB", "wspd": 1, "wgst": null, "reportTime": "2026-07-21T22:00:00.000Z", "rawOb": "METAR RJEC 212200Z AUTO VRB01KT 9999 FEW007 BKN015 BKN220 22/20 Q1007"}, "RJFF": {"temp": 28, "dewp": 25, "wdir": 150, "wspd": 5, "wgst": null, "reportTime": "2026-07-21T21:30:00.000Z", "rawOb": "METAR RJFF 212130Z 15005KT 9999 FEW020 28/25 Q1011 NOSIG"}, "RJAA": {"temp": 28, "dewp": 26, "wdir": "VRB", "wspd": 1, "wgst": null, "reportTime": "2026-07-21T21:30:00.000Z", "rawOb": "METAR RJAA 212130Z VRB01KT 8000 NSC 28/26 Q1008 NOSIG"}, "RJSS": {"temp": 28, "dewp": 25, "wdir": "VRB", "wspd": 2, "wgst": null, "reportTime": "2026-07-21T22:00:00.000Z", "rawOb": "METAR RJSS 212200Z AUTO VRB02KT 9999 NCD 28/25 Q1008"}, "RJOA": {"temp": 26, "dewp": 24, "wdir": 250, "wspd": 3, "wgst": null, "reportTime": "2026-07-21T22:00:00.000Z", "rawOb": "METAR RJOA 212200Z AUTO 25003KT 8000 BKN014 OVC042 26/24 Q1013"}, "RJOB": {"temp": 27, "dewp": 25, "wdir": 110, "wspd": 2, "wgst": null, "reportTime": "2026-07-21T22:00:00.000Z", "rawOb": "METAR RJOB 212200Z 11002KT 6000 PRFG FEW000 SCT025 27/25 Q1012"}, "RJGG": {"temp": 29, "dewp": 28, "wdir": "VRB", "wspd": 1, "wgst": null, "reportTime": "2026-07-21T21:30:00.000Z", "rawOb": "METAR RJGG 212130Z VRB01KT 8000 NSC 29/28 Q1009 NOSIG"}, "RJSK": {"temp": 25, "dewp": 24, "wdir": 130, "wspd": 3, "wgst": null, "reportTime": "2026-07-21T22:00:00.000Z", "rawOb": "METAR RJSK 212200Z 13003KT 090V170 9999 FEW002 BKN010 BKN025 25/24 Q1008"}, "RJOT": {"temp": 28, "dewp": 25, "wdir": 240, "wspd": 6, "wgst": null, "reportTime": "2026-07-21T22:00:00.000Z", "rawOb": "METAR RJOT 212200Z 24006KT 9999 FEW030 28/25 Q1012"}, "RJOO": {"temp": 30, "dewp": 26, "wdir": 260, "wspd": 6, "wgst": null, "reportTime": "2026-07-21T22:00:00.000Z", "rawOb": "METAR RJOO 212200Z 26006KT 9999 FEW030 30/26 Q1010"}, "RJOM": {"temp": 28, "dewp": 26, "wdir": "VRB", "wspd": 2, "wgst": null, "reportTime": "2026-07-21T22:00:00.000Z", "rawOb": "METAR RJOM 212200Z VRB02KT 9999 FEW030 BKN050 28/26 Q1011"}, "_updated": "2026-07-22T00:10:07Z"}