{"RJAA": {"temp": 26, "dewp": 24, "wdir": 90, "wspd": 6, "wgst": null, "reportTime": "2026-07-23T22:30:00.000Z", "rawOb": "METAR RJAA 232230Z 09006KT 9999 BKN006 26/24 Q1011 BECMG BKN020"}, "RJTT": {"temp": 27, "dewp": 25, "wdir": 70, "wspd": 8, "wgst": null, "reportTime": "2026-07-23T22:30:00.000Z", "rawOb": "METAR RJTT 232230Z 07008KT 8000 BKN010 27/25 Q1011 NOSIG"}, "RJBB": {"temp": 30, "dewp": 24, "wdir": 30, "wspd": 4, "wgst": null, "reportTime": "2026-07-23T22:30:00.000Z", "rawOb": "METAR RJBB 232230Z 03004KT CAVOK 30/24 Q1011 NOSIG"}, "ROAH": {"temp": 31, "dewp": 28, "wdir": 120, "wspd": 9, "wgst": null, "reportTime": "2026-07-23T22:30:00.000Z", "rawOb": "METAR ROAH 232230Z 12009KT 9999 FEW013 SCT020 31/28 Q1010"}, "RJEC": {"temp": 18, "dewp": 17, "wdir": 320, "wspd": 4, "wgst": null, "reportTime": "2026-07-23T23:00:00.000Z", "rawOb": "METAR RJEC 232300Z 32004KT 280V350 9999 FEW003 BKN006 BKN008 18/17 Q1013"}, "RJCO": {"temp": 24, "dewp": 21, "wdir": 90, "wspd": 7, "wgst": null, "reportTime": "2026-07-23T23:00:00.000Z", "rawOb": "METAR RJCO 232300Z 09007KT 050V120 9999 FEW015 SCT150 24/21 Q1012"}, "RJCK": {"temp": 17, "dewp": 16, "wdir": 60, "wspd": 6, "wgst": null, "reportTime": "2026-07-23T23:00:00.000Z", "rawOb": "METAR RJCK 232300Z 06006KT 4000 -DZ BR FEW002 SCT004 BKN005 17/16 Q1014"}, "RJCB": {"temp": 19, "dewp": 17, "wdir": 150, "wspd": 8, "wgst": null, "reportTime": "2026-07-23T23:00:00.000Z", "rawOb": "METAR RJCB 232300Z 15008KT 9999 FEW008 SCT012 BKN025 19/17 Q1014"}, "RJFF": {"temp": 30, "dewp": 24, "wdir": 110, "wspd": 4, "wgst": null, "reportTime": "2026-07-23T22:30:00.000Z", "rawOb": "METAR RJFF 232230Z 11004KT 070V150 9999 FEW025 30/24 Q1011 NOSIG"}, "RJGG": {"temp": 29, "dewp": 25, "wdir": 220, "wspd": 3, "wgst": null, "reportTime": "2026-07-23T22:30:00.000Z", "rawOb": "METAR RJGG 232230Z 22003KT 130V270 9999 FEW050 29/25 Q1010 NOSIG"}, "RJOA": {"temp": 27, "dewp": 24, "wdir": "VRB", "wspd": 2, "wgst": null, "reportTime": "2026-07-23T22:30:00.000Z", "rawOb": "METAR RJOA 232230Z VRB02KT CAVOK 27/24 Q1013"}, "RJOB": {"temp": 30, "dewp": 24, "wdir": "VRB", "wspd": 1, "wgst": null, "reportTime": "2026-07-23T23:00:00.000Z", "rawOb": "METAR RJOB 232300Z VRB01KT CAVOK 30/24 Q1012"}, "RJOM": {"temp": 30, "dewp": 25, "wdir": 240, "wspd": 4, "wgst": null, "reportTime": "2026-07-23T23:00:00.000Z", "rawOb": "METAR RJOM 232300Z 24004KT 9999 FEW025 30/25 Q1011"}, "RJOO": {"temp": 31, "dewp": 22, "wdir": "VRB", "wspd": 2, "wgst": null, "reportTime": "2026-07-23T23:00:00.000Z", "rawOb": "METAR RJOO 232300Z VRB02KT 9999 FEW040 SCT/// 31/22 Q1011"}, "RJOT": {"temp": 30, "dewp": 24, "wdir": 250, "wspd": 3, "wgst": null, "reportTime": "2026-07-23T23:00:00.000Z", "rawOb": "METAR RJOT 232300Z 25003KT 180V300 9999 FEW030 SCT/// 30/24 Q1012"}, "RJBE": {"temp": 31, "dewp": 23, "wdir": 80, "wspd": 6, "wgst": null, "reportTime": "2026-07-23T23:00:00.000Z", "rawOb": "METAR RJBE 232300Z 08006KT CAVOK 31/23 Q1010"}, "RJSK": {"temp": 24, "dewp": 23, "wdir": 140, "wspd": 4, "wgst": null, "reportTime": "2026-07-23T23:00:00.000Z", "rawOb": "METAR RJSK 232300Z 14004KT 3000 -SHRA BR FEW000 SCT001 BKN002 24/23 Q1011"}, "RJSS": {"temp": 25, "dewp": 23, "wdir": 130, "wspd": 4, "wgst": null, "reportTime": "2026-07-23T22:30:00.000Z", "rawOb": "METAR RJSS 232230Z 13004KT 100V200 9999 FEW006 SCT008 BKN010 25/23 Q1011"}, "_updated": "2026-07-24T01:11:50Z"}