{"RJFF": {"temp": 29, "dewp": 21, "wdir": 300, "wspd": 8, "wgst": null, "reportTime": "2026-07-03T04:00:00.000Z", "rawOb": "METAR RJFF 030400Z 30008KT 270V340 9999 FEW010 SCT040 BKN/// 29/21 Q1011 NOSIG"}, "RJTT": {"temp": 25, "dewp": 20, "wdir": 60, "wspd": 4, "wgst": null, "reportTime": "2026-07-03T04:00:00.000Z", "rawOb": "METAR RJTT 030400Z 06004KT 9999 FEW020 BKN040 25/20 Q1011 BECMG 08006KT"}, "ROAH": {"temp": 30, "dewp": 27, "wdir": 200, "wspd": 9, "wgst": null, "reportTime": "2026-07-03T04:00:00.000Z", "rawOb": "METAR ROAH 030400Z 20009KT 9999 FEW014 30/27 Q1014"}, "RJGG": {"temp": 28, "dewp": 22, "wdir": 240, "wspd": 7, "wgst": null, "reportTime": "2026-07-03T04:00:00.000Z", "rawOb": "METAR RJGG 030400Z 24007KT 9999 FEW030 SCT/// 28/22 Q1009 NOSIG"}, "RJBB": {"temp": 26, "dewp": 19, "wdir": 310, "wspd": 7, "wgst": null, "reportTime": "2026-07-03T04:00:00.000Z", "rawOb": "METAR RJBB 030400Z 31007KT 9999 FEW025 BKN/// 26/19 Q1011 NOSIG"}, "RJAA": {"temp": 25, "dewp": 20, "wdir": 40, "wspd": 10, "wgst": null, "reportTime": "2026-07-03T04:00:00.000Z", "rawOb": "METAR RJAA 030400Z 04010KT 9999 FEW015 SCT020 BKN/// 25/20 Q1011 NOSIG"}, "RJOM": {"temp": 25, "dewp": 21, "wdir": 240, "wspd": 5, "wgst": null, "reportTime": "2026-07-03T04:00:00.000Z", "rawOb": "METAR RJOM 030400Z 24005KT 9999 FEW020 SCT180 BKN/// 25/21 Q1011"}, "RJEC": {"temp": 24, "dewp": 13, "wdir": 40, "wspd": 5, "wgst": null, "reportTime": "2026-07-03T04:00:00.000Z", "rawOb": "METAR RJEC 030400Z 04005KT 330V090 9999 FEW025 SCT050 24/13 Q1011"}, "RJBE": {"temp": 27, "dewp": 19, "wdir": 240, "wspd": 8, "wgst": null, "reportTime": "2026-07-03T04:00:00.000Z", "rawOb": "METAR RJBE 030400Z 24008KT 9999 FEW030 BKN/// 27/19 Q1011"}, "RJCB": {"temp": 20, "dewp": 13, "wdir": 170, "wspd": 10, "wgst": null, "reportTime": "2026-07-03T04:00:00.000Z", "rawOb": "METAR RJCB 030400Z 17010KT 130V200 9999 FEW015 SCT/// 20/13 Q1012"}, "RJCK": {"temp": 14, "dewp": 11, "wdir": 180, "wspd": 12, "wgst": null, "reportTime": "2026-07-03T04:00:00.000Z", "rawOb": "METAR RJCK 030400Z 18012KT 9999 FEW003 14/11 Q1013"}, "RJOB": {"temp": 28, "dewp": 17, "wdir": "VRB", "wspd": 2, "wgst": null, "reportTime": "2026-07-03T04:00:00.000Z", "rawOb": "METAR RJOB 030400Z VRB02KT 9999 FEW015 BKN/// 28/17 Q1012"}, "RJCO": {"temp": 24, "dewp": 16, "wdir": 90, "wspd": 10, "wgst": null, "reportTime": "2026-07-03T04:00:00.000Z", "rawOb": "METAR RJCO 030400Z 09010KT 9999 FEW025 SCT040 24/16 Q1011"}, "RJSK": {"temp": 27, "dewp": 19, "wdir": 270, "wspd": 12, "wgst": null, "reportTime": "2026-07-03T04:00:00.000Z", "rawOb": "METAR RJSK 030400Z 27012KT 9999 FEW025 BKN/// 27/19 Q1011"}, "RJOT": {"temp": 28, "dewp": 19, "wdir": 30, "wspd": 4, "wgst": null, "reportTime": "2026-07-03T04:00:00.000Z", "rawOb": "METAR RJOT 030400Z 03004KT 330V080 9999 FEW030 BKN/// 28/19 Q1012"}, "RJSS": {"temp": 21, "dewp": 18, "wdir": 130, "wspd": 7, "wgst": null, "reportTime": "2026-07-03T04:00:00.000Z", "rawOb": "METAR RJSS 030400Z 13007KT 9999 FEW005 BKN015 BKN030 21/18 Q1012"}, "RJOO": {"temp": 30, "dewp": 18, "wdir": "VRB", "wspd": 4, "wgst": null, "reportTime": "2026-07-03T04:00:00.000Z", "rawOb": "METAR RJOO 030400Z VRB04KT 9999 FEW030 BKN/// 30/18 Q1010"}, "RJOA": {"temp": 25, "dewp": 19, "wdir": "VRB", "wspd": 4, "wgst": null, "reportTime": "2026-07-03T04:00:00.000Z", "rawOb": "METAR RJOA 030400Z VRB04KT 9999 FEW020 SCT025 BKN/// 25/19 Q1013"}, "_updated": "2026-07-03T06:51:09Z"}