{"RJSS": {"temp": 23, "dewp": 20, "wdir": 10, "wspd": 3, "wgst": null, "reportTime": "2026-07-09T21:00:00.000Z", "rawOb": "METAR RJSS 092100Z AUTO 01003KT 9999 NCD 23/20 Q1015"}, "RJTT": {"temp": 25, "dewp": 23, "wdir": 170, "wspd": 9, "wgst": null, "reportTime": "2026-07-09T21:00:00.000Z", "rawOb": "METAR RJTT 092100Z 17009KT 9999 SCT010 25/23 Q1016 TEMPO TL2200 FEW010 BKN012"}, "RJGG": {"temp": 24, "dewp": 22, "wdir": 20, "wspd": 4, "wgst": null, "reportTime": "2026-07-09T21:00:00.000Z", "rawOb": "METAR RJGG 092100Z 02004KT 9999 FEW010 24/22 Q1015 NOSIG"}, "RJBB": {"temp": 25, "dewp": 21, "wdir": 150, "wspd": 3, "wgst": null, "reportTime": "2026-07-09T21:00:00.000Z", "rawOb": "METAR RJBB 092100Z 15003KT 9999 FEW030 25/21 Q1015 NOSIG"}, "RJCK": {"temp": 16, "dewp": 16, "wdir": 190, "wspd": 3, "wgst": null, "reportTime": "2026-07-09T21:00:00.000Z", "rawOb": "METAR RJCK 092100Z AUTO 19003KT 5000 R17/P2000N RA BR FEW005 SCT008 BKN010 //////TCU 16/16 Q1014"}, "RJCO": {"temp": 21, "dewp": 20, "wdir": 150, "wspd": 9, "wgst": null, "reportTime": "2026-07-09T22:00:00.000Z", "rawOb": "METAR RJCO 092200Z 15009KT 9999 FEW005 BKN045 BKN150 21/20 Q1011"}, "RJCB": {"temp": 19, "dewp": 19, "wdir": "VRB", "wspd": 2, "wgst": null, "reportTime": "2026-07-09T23:00:00.000Z", "rawOb": "METAR RJCB 092300Z VRB02KT 9999 FEW002 SCT003 BKN004 19/19 Q1013"}, "RJEC": {"temp": 22, "dewp": 21, "wdir": "VRB", "wspd": 2, "wgst": null, "reportTime": "2026-07-09T21:00:00.000Z", "rawOb": "METAR RJEC 092100Z AUTO VRB02KT 9999 SCT016 BKN017 BKN019 //////TCU 22/21 Q1012"}, "RJBE": {"temp": 26, "dewp": 21, "wdir": 60, "wspd": 7, "wgst": null, "reportTime": "2026-07-09T22:00:00.000Z", "rawOb": "METAR RJBE 092200Z 06007KT 9999 FEW030 26/21 Q1015"}, "RJFF": {"temp": 26, "dewp": 23, "wdir": 130, "wspd": 4, "wgst": null, "reportTime": "2026-07-09T21:00:00.000Z", "rawOb": "METAR RJFF 092100Z 13004KT 070V150 CAVOK 26/23 Q1012 NOSIG"}, "ROAH": {"temp": 30, "dewp": 26, "wdir": 80, "wspd": 22, "wgst": null, "reportTime": "2026-07-09T21:00:00.000Z", "rawOb": "METAR ROAH 092100Z 08022KT 9999 -RA FEW018 SCT030 BKN040 30/26 Q1000"}, "RJOA": {"temp": 22, "dewp": 21, "wdir": 90, "wspd": 3, "wgst": null, "reportTime": "2026-07-09T21:00:00.000Z", "rawOb": "METAR RJOA 092100Z AUTO 09003KT 060V160 9999 NCD 22/21 Q1015"}, "RJOB": {"temp": 23, "dewp": 21, "wdir": 90, "wspd": 3, "wgst": null, "reportTime": "2026-07-09T22:00:00.000Z", "rawOb": "METAR RJOB 092200Z 09003KT 9999 FEW002 BKN007 23/21 Q1016"}, "RJOM": {"temp": 24, "dewp": 21, "wdir": 120, "wspd": 4, "wgst": null, "reportTime": "2026-07-09T21:00:00.000Z", "rawOb": "METAR RJOM 092100Z AUTO 12004KT 9999 NCD 24/21 Q1014"}, "RJOO": {"temp": 24, "dewp": 21, "wdir": 60, "wspd": 4, "wgst": null, "reportTime": "2026-07-09T21:00:00.000Z", "rawOb": "METAR RJOO 092100Z AUTO 06004KT 320V100 9999 NCD 24/21 Q1015"}, "RJAA": {"temp": 23, "dewp": 22, "wdir": 170, "wspd": 3, "wgst": null, "reportTime": "2026-07-09T21:00:00.000Z", "rawOb": "METAR RJAA 092100Z 17003KT 9999 FEW030 23/22 Q1016 NOSIG"}, "RJOT": {"temp": 21, "dewp": 21, "wdir": 140, "wspd": 4, "wgst": null, "reportTime": "2026-07-09T21:00:00.000Z", "rawOb": "METAR RJOT 092100Z AUTO 14004KT 9999 BKN029 21/21 Q1015"}, "RJSK": {"temp": 25, "dewp": 22, "wdir": 140, "wspd": 4, "wgst": null, "reportTime": "2026-07-09T22:00:00.000Z", "rawOb": "METAR RJSK 092200Z 14004KT 9999 FEW030 SCT060 BKN070 25/22 Q1015"}, "_updated": "2026-07-09T23:37:44Z"}