{"RJOA": {"temp": 27, "dewp": 23, "wdir": "VRB", "wspd": 1, "wgst": null, "reportTime": "2026-07-17T15:00:00.000Z", "rawOb": "METAR RJOA 171500Z AUTO VRB01KT 9999 NSC 27/23 Q1005"}, "RJBB": {"temp": 29, "dewp": 25, "wdir": 220, "wspd": 8, "wgst": null, "reportTime": "2026-07-17T14:30:00.000Z", "rawOb": "METAR RJBB 171430Z AUTO 22008KT 9999 NSC 29/25 Q1003 NOSIG"}, "RJCK": {"temp": 19, "dewp": 19, "wdir": 20, "wspd": 2, "wgst": null, "reportTime": "2026-07-17T15:00:00.000Z", "rawOb": "METAR RJCK 171500Z AUTO 02002KT 0100 R35/0650N FG OVC001 19/19 Q1011"}, "ROAH": {"temp": 28, "dewp": 27, "wdir": 210, "wspd": 8, "wgst": null, "reportTime": "2026-07-17T14:30:00.000Z", "rawOb": "METAR ROAH 171430Z AUTO 21008KT 9999 BKN004 28/27 Q1007"}, "RJGG": {"temp": 27, "dewp": 26, "wdir": 140, "wspd": 4, "wgst": null, "reportTime": "2026-07-17T14:30:00.000Z", "rawOb": "METAR RJGG 171430Z AUTO 14004KT 8000 SCT018 27/26 Q1005 NOSIG"}, "RJFF": {"temp": 29, "dewp": 25, "wdir": 140, "wspd": 9, "wgst": null, "reportTime": "2026-07-17T14:30:00.000Z", "rawOb": "METAR RJFF 171430Z AUTO 14009KT 9999 NCD 29/25 Q1003 NOSIG"}, "RJEC": {"temp": 23, "dewp": 21, "wdir": 160, "wspd": 9, "wgst": null, "reportTime": "2026-07-17T15:00:00.000Z", "rawOb": "METAR RJEC 171500Z AUTO 16009KT 9999 NSC 23/21 Q1009"}, "RJAA": {"temp": 24, "dewp": 23, "wdir": 150, "wspd": 4, "wgst": null, "reportTime": "2026-07-17T14:30:00.000Z", "rawOb": "METAR RJAA 171430Z AUTO 15004KT 9999 FEW020 BKN028 OVC080 24/23 Q1007 TEMPO FEW005 BKN008"}, "RJTT": {"temp": 26, "dewp": 25, "wdir": 140, "wspd": 9, "wgst": null, "reportTime": "2026-07-17T14:30:00.000Z", "rawOb": "METAR RJTT 171430Z 14009KT 9999 FEW013 SCT020 BKN100 26/25 Q1006 NOSIG"}, "RJSS": {"temp": 23, "dewp": 22, "wdir": 170, "wspd": 5, "wgst": null, "reportTime": "2026-07-17T15:00:00.000Z", "rawOb": "METAR RJSS 171500Z AUTO 17005KT 9999 OVC002 23/22 Q1007"}, "RJOT": {"temp": 26, "dewp": 23, "wdir": 140, "wspd": 6, "wgst": null, "reportTime": "2026-07-17T15:00:00.000Z", "rawOb": "METAR RJOT 171500Z AUTO 14006KT 9999 NCD 26/23 Q1004"}, "RJOO": {"temp": 30, "dewp": 23, "wdir": 260, "wspd": 4, "wgst": null, "reportTime": "2026-07-17T15:00:00.000Z", "rawOb": "METAR RJOO 171500Z AUTO 26004KT 210V310 9999 NCD 30/23 Q1003"}, "RJOM": {"temp": 27, "dewp": 26, "wdir": "VRB", "wspd": 1, "wgst": null, "reportTime": "2026-07-17T15:00:00.000Z", "rawOb": "METAR RJOM 171500Z AUTO VRB01KT 9999 NCD 27/26 Q1003"}, "_updated": "2026-07-17T17:18:50Z"}