{"RJSK": {"temp": 30, "dewp": 21, "wdir": "VRB", "wspd": 2, "wgst": null, "reportTime": "2026-07-08T04:00:00.000Z", "rawOb": "METAR RJSK 080400Z VRB02KT 9999 FEW030 SCT070 BKN/// 30/21 Q1013"}, "RJCB": {"temp": 23, "dewp": 18, "wdir": 130, "wspd": 6, "wgst": null, "reportTime": "2026-07-08T04:00:00.000Z", "rawOb": "METAR RJCB 080400Z 13006KT 100V170 9999 FEW016 BKN025 BKN/// 23/18 Q1015"}, "RJCO": {"temp": 27, "dewp": 19, "wdir": 140, "wspd": 13, "wgst": null, "reportTime": "2026-07-08T04:00:00.000Z", "rawOb": "METAR RJCO 080400Z 14013KT 110V170 9999 FEW030 SCT240 27/19 Q1013"}, "RJEC": {"temp": 27, "dewp": 17, "wdir": "VRB", "wspd": 4, "wgst": null, "reportTime": "2026-07-08T04:00:00.000Z", "rawOb": "METAR RJEC 080400Z VRB04KT 9999 FEW010 SCT050 BKN/// 27/17 Q1014"}, "RJOM": {"temp": 29, "dewp": 24, "wdir": 350, "wspd": 6, "wgst": null, "reportTime": "2026-07-08T04:00:00.000Z", "rawOb": "METAR RJOM 080400Z 35006KT 9999 FEW015 SCT035 BKN060 29/24 Q1011"}, "RJSS": {"temp": 25, "dewp": 20, "wdir": 140, "wspd": 13, "wgst": null, "reportTime": "2026-07-08T04:00:00.000Z", "rawOb": "METAR RJSS 080400Z 14013KT 9999 FEW030 BKN/// 25/20 Q1014"}, "RJOO": {"temp": 31, "dewp": 21, "wdir": 240, "wspd": 8, "wgst": null, "reportTime": "2026-07-08T04:00:00.000Z", "rawOb": "METAR RJOO 080400Z 24008KT 190V290 9999 FEW025 SCT040 BKN/// 31/21 Q1012"}, "RJOT": {"temp": 28, "dewp": 24, "wdir": 50, "wspd": 6, "wgst": null, "reportTime": "2026-07-08T04:00:00.000Z", "rawOb": "METAR RJOT 080400Z 05006KT 010V080 9999 -SHRA FEW015 SCT030 BKN/// 28/24 Q1013"}, "ROAH": {"temp": 33, "dewp": 24, "wdir": 70, "wspd": 12, "wgst": null, "reportTime": "2026-07-08T04:00:00.000Z", "rawOb": "METAR ROAH 080400Z 07012KT 040V100 9999 FEW030 33/24 Q1008"}, "RJFF": {"temp": 34, "dewp": 23, "wdir": 170, "wspd": 12, "wgst": null, "reportTime": "2026-07-08T04:00:00.000Z", "rawOb": "METAR RJFF 080400Z 17012KT 9999 FEW030 SCT040 BKN/// 34/23 Q1010 BECMG 33012KT"}, "RJGG": {"temp": 27, "dewp": 22, "wdir": 170, "wspd": 10, "wgst": null, "reportTime": "2026-07-08T04:00:00.000Z", "rawOb": "METAR RJGG 080400Z 17010KT 9999 FEW020 BKN/// 27/22 Q1014 NOSIG"}, "RJOA": {"temp": 27, "dewp": 23, "wdir": "VRB", "wspd": 3, "wgst": null, "reportTime": "2026-07-08T04:00:00.000Z", "rawOb": "METAR RJOA 080400Z VRB03KT 9999 FEW015 BKN040 27/23 Q1013"}, "RJOB": {"temp": 27, "dewp": 23, "wdir": 130, "wspd": 3, "wgst": null, "reportTime": "2026-07-08T04:00:00.000Z", "rawOb": "METAR RJOB 080400Z 13003KT 080V170 9999 FEW010 SCT020 BKN030 27/23 Q1013"}, "RJAA": {"temp": 26, "dewp": 20, "wdir": 100, "wspd": 7, "wgst": null, "reportTime": "2026-07-08T04:00:00.000Z", "rawOb": "METAR RJAA 080400Z 10007KT 050V150 9999 SCT035 BKN/// 26/20 Q1014 NOSIG"}, "RJBB": {"temp": 28, "dewp": 23, "wdir": 240, "wspd": 15, "wgst": null, "reportTime": "2026-07-08T04:00:00.000Z", "rawOb": "METAR RJBB 080400Z 24015KT 9999 FEW025 SCT100 BKN/// 28/23 Q1012 NOSIG"}, "RJBE": {"temp": 28, "dewp": 22, "wdir": 250, "wspd": 6, "wgst": null, "reportTime": "2026-07-08T04:00:00.000Z", "rawOb": "METAR RJBE 080400Z 25006KT 9999 FEW025 BKN060 BKN/// 28/22 Q1013"}, "RJTT": {"temp": 28, "dewp": 19, "wdir": 90, "wspd": 4, "wgst": null, "reportTime": "2026-07-08T04:00:00.000Z", "rawOb": "METAR RJTT 080400Z 09004KT 070V130 9999 FEW020 BKN/// 28/19 Q1014 NOSIG"}, "RJCK": {"temp": 18, "dewp": 17, "wdir": 190, "wspd": 11, "wgst": null, "reportTime": "2026-07-08T04:00:00.000Z", "rawOb": "METAR RJCK 080400Z 19011KT 9999 PRFG FEW001 SCT007 BKN090 18/17 Q1016"}, "_updated": "2026-07-08T06:31:31Z"}