{"RJGG": {"temp": 31, "dewp": 26, "wdir": 330, "wspd": 9, "wgst": null, "reportTime": "2026-07-16T10:00:00.000Z", "rawOb": "METAR RJGG 161000Z 33009KT 9999 FEW030 SCT/// 31/26 Q1000 NOSIG"}, "ROAH": {"temp": 28, "dewp": 27, "wdir": 230, "wspd": 9, "wgst": null, "reportTime": "2026-07-16T10:00:00.000Z", "rawOb": "METAR ROAH 161000Z 23009KT 9999 FEW004 SCT005 BKN/// 28/27 Q1007"}, "RJAA": {"temp": 27, "dewp": 26, "wdir": 150, "wspd": 7, "wgst": null, "reportTime": "2026-07-16T10:00:00.000Z", "rawOb": "METAR RJAA 161000Z 15007KT 8000 FEW006 SCT010 27/26 Q1001 TEMPO FEW005 BKN008"}, "RJTT": {"temp": 32, "dewp": 26, "wdir": 190, "wspd": 11, "wgst": null, "reportTime": "2026-07-16T10:00:00.000Z", "rawOb": "METAR RJTT 161000Z 19011KT 9999 FEW030 SCT110 BKN140 32/26 Q1001 NOSIG"}, "RJFF": {"temp": 30, "dewp": 26, "wdir": 340, "wspd": 10, "wgst": null, "reportTime": "2026-07-16T10:00:00.000Z", "rawOb": "METAR RJFF 161000Z 34010KT 9999 FEW025 SCT150 BKN/// 30/26 Q1002 BECMG 07004KT"}, "RJBB": {"temp": 30, "dewp": 23, "wdir": "VRB", "wspd": 1, "wgst": null, "reportTime": "2026-07-16T10:00:00.000Z", "rawOb": "METAR RJBB 161000Z VRB01KT 9999 FEW030 BKN/// 30/23 Q1001 BECMG 34005KT"}, "RJOB": {"temp": 29, "dewp": 23, "wdir": 250, "wspd": 3, "wgst": null, "reportTime": "2026-07-16T10:00:00.000Z", "rawOb": "METAR RJOB 161000Z 25003KT 9999 FEW030 SCT/// 29/23 Q1002"}, "RJEC": {"temp": 25, "dewp": 22, "wdir": 310, "wspd": 7, "wgst": null, "reportTime": "2026-07-16T10:00:00.000Z", "rawOb": "METAR RJEC 161000Z 31007KT 9999 FEW030 25/22 Q1002"}, "RJOA": {"temp": 29, "dewp": 21, "wdir": "VRB", "wspd": 2, "wgst": null, "reportTime": "2026-07-16T10:00:00.000Z", "rawOb": "METAR RJOA 161000Z VRB02KT 9999 FEW030 SCT/// 29/21 Q1004"}, "RJOT": {"temp": 30, "dewp": 22, "wdir": 230, "wspd": 5, "wgst": null, "reportTime": "2026-07-16T10:00:00.000Z", "rawOb": "METAR RJOT 161000Z 23005KT 9999 FEW035 BKN/// 30/22 Q1002"}, "RJOM": {"temp": 31, "dewp": 20, "wdir": 200, "wspd": 4, "wgst": null, "reportTime": "2026-07-16T10:00:00.000Z", "rawOb": "METAR RJOM 161000Z 20004KT 110V230 CAVOK 31/20 Q1001"}, "RJOO": {"temp": 32, "dewp": 23, "wdir": 360, "wspd": 10, "wgst": null, "reportTime": "2026-07-16T10:00:00.000Z", "rawOb": "METAR RJOO 161000Z 36010KT 9999 FEW030 BKN/// 32/23 Q1001"}, "RJSS": {"temp": 24, "dewp": 24, "wdir": 130, "wspd": 4, "wgst": null, "reportTime": "2026-07-16T10:00:00.000Z", "rawOb": "METAR RJSS 161000Z 13004KT 3500 -SHRA BR FEW003 BKN040 BKN080 24/24 Q1002"}, "RJSK": {"temp": 26, "dewp": 23, "wdir": 310, "wspd": 3, "wgst": null, "reportTime": "2026-07-16T10:00:00.000Z", "rawOb": "METAR RJSK 161000Z 31003KT 9999 FEW025 26/23 Q1003"}, "RJCK": {"temp": 18, "dewp": 18, "wdir": "VRB", "wspd": 2, "wgst": null, "reportTime": "2026-07-16T10:00:00.000Z", "rawOb": "METAR RJCK 161000Z VRB02KT 0900 R17/0650VP2000U FG BKN001 BKN002 18/18 Q1001"}, "RJBE": {"temp": 30, "dewp": 23, "wdir": 260, "wspd": 8, "wgst": null, "reportTime": "2026-07-16T10:00:00.000Z", "rawOb": "METAR RJBE 161000Z 26008KT 9999 FEW030 SCT060 BKN/// 30/23 Q1001"}, "RJCB": {"temp": 26, "dewp": 24, "wdir": 170, "wspd": 6, "wgst": null, "reportTime": "2026-07-16T10:00:00.000Z", "rawOb": "METAR RJCB 161000Z 17006KT 9999 FEW015 26/24 Q1001"}, "RJCO": {"temp": 25, "dewp": 21, "wdir": 330, "wspd": 5, "wgst": null, "reportTime": "2026-07-16T10:00:00.000Z", "rawOb": "METAR RJCO 161000Z 33005KT 9999 FEW020 BKN030 25/21 Q1002"}, "_updated": "2026-07-16T12:53:07Z"}