{"RJGG": {"temp": 31, "dewp": 25, "wdir": 130, "wspd": 6, "wgst": null, "reportTime": "2026-07-20T10:00:00.000Z", "rawOb": "METAR RJGG 201000Z 13006KT 9999 FEW020 SCT050 31/25 Q1007 NOSIG"}, "ROAH": {"temp": 29, "dewp": 27, "wdir": 220, "wspd": 6, "wgst": null, "reportTime": "2026-07-20T10:00:00.000Z", "rawOb": "METAR ROAH 201000Z 22006KT 9999 FEW010 29/27 Q1008"}, "RJFF": {"temp": 31, "dewp": 23, "wdir": 330, "wspd": 10, "wgst": null, "reportTime": "2026-07-20T10:00:00.000Z", "rawOb": "METAR RJFF 201000Z 33010KT 9999 FEW030 SCT/// 31/23 Q1008 NOSIG"}, "RJBB": {"temp": 30, "dewp": 24, "wdir": 230, "wspd": 10, "wgst": null, "reportTime": "2026-07-20T10:00:00.000Z", "rawOb": "METAR RJBB 201000Z 23010KT 9999 FEW025 30/24 Q1008 NOSIG"}, "RJTT": {"temp": 31, "dewp": 24, "wdir": 190, "wspd": 11, "wgst": null, "reportTime": "2026-07-20T10:00:00.000Z", "rawOb": "METAR RJTT 201000Z 19011KT 9999 FEW030 SCT/// 31/24 Q1007 NOSIG"}, "RJAA": {"temp": 30, "dewp": 24, "wdir": 220, "wspd": 2, "wgst": null, "reportTime": "2026-07-20T10:00:00.000Z", "rawOb": "METAR RJAA 201000Z 22002KT 9999 FEW030 SCT/// 30/24 Q1007 NOSIG"}, "RJSS": {"temp": 28, "dewp": 25, "wdir": 120, "wspd": 3, "wgst": null, "reportTime": "2026-07-20T10:00:00.000Z", "rawOb": "METAR RJSS 201000Z 12003KT 9999 FEW040 SCT100 28/25 Q1006"}, "RJSK": {"temp": 25, "dewp": 24, "wdir": 340, "wspd": 1, "wgst": null, "reportTime": "2026-07-20T10:00:00.000Z", "rawOb": "METAR RJSK 201000Z 34001KT 8000 FEW000 SCT003 BKN006 25/24 Q1008"}, "RJOO": {"temp": 31, "dewp": 24, "wdir": 230, "wspd": 6, "wgst": null, "reportTime": "2026-07-20T10:00:00.000Z", "rawOb": "METAR RJOO 201000Z 23006KT 170V310 9999 FEW020 31/24 Q1007"}, "RJOB": {"temp": 31, "dewp": 24, "wdir": 230, "wspd": 3, "wgst": null, "reportTime": "2026-07-20T10:00:00.000Z", "rawOb": "METAR RJOB 201000Z 23003KT 9999 FEW030 SCT/// 31/24 Q1009"}, "RJCK": {"temp": 20, "dewp": 20, "wdir": 210, "wspd": 3, "wgst": null, "reportTime": "2026-07-20T10:00:00.000Z", "rawOb": "METAR RJCK 201000Z 21003KT 160V230 9999 PRFG FEW001 SCT020 BKN/// 20/20 Q1005"}, "RJBE": {"temp": 28, "dewp": 26, "wdir": 240, "wspd": 8, "wgst": null, "reportTime": "2026-07-20T10:00:00.000Z", "rawOb": "METAR RJBE 201000Z 24008KT 9999 FEW025 28/26 Q1008"}, "RJEC": {"temp": 21, "dewp": 20, "wdir": 340, "wspd": 7, "wgst": null, "reportTime": "2026-07-20T10:00:00.000Z", "rawOb": "METAR RJEC 201000Z 34007KT 9999 FEW008 SCT025 BKN/// 21/20 Q1007"}, "RJOM": {"temp": 29, "dewp": 26, "wdir": 280, "wspd": 4, "wgst": null, "reportTime": "2026-07-20T10:00:00.000Z", "rawOb": "METAR RJOM 201000Z 28004KT 240V330 9999 FEW025 FEW030CB BKN/// 29/26 Q1008"}, "RJOT": {"temp": 31, "dewp": 24, "wdir": 260, "wspd": 4, "wgst": null, "reportTime": "2026-07-20T10:00:00.000Z", "rawOb": "METAR RJOT 201000Z 26004KT 200V300 9999 FEW035 SCT/// 31/24 Q1009"}, "RJOA": {"temp": 28, "dewp": 25, "wdir": 190, "wspd": 3, "wgst": null, "reportTime": "2026-07-20T10:00:00.000Z", "rawOb": "METAR RJOA 201000Z 19003KT 9999 FEW025 SCT/// 28/25 Q1010"}, "RJCO": {"temp": 22, "dewp": 20, "wdir": 330, "wspd": 6, "wgst": null, "reportTime": "2026-07-20T10:00:00.000Z", "rawOb": "METAR RJCO 201000Z 33006KT 9999 FEW010 BKN015 BKN025 22/20 Q1007"}, "RJCB": {"temp": 25, "dewp": 23, "wdir": 120, "wspd": 3, "wgst": null, "reportTime": "2026-07-20T10:00:00.000Z", "rawOb": "METAR RJCB 201000Z 12003KT 080V180 9999 FEW015 SCT060 BKN/// 25/23 Q1005"}, "_updated": "2026-07-20T12:55:23Z"}