{"RJBE": {"temp": 23, "dewp": 22, "wdir": 50, "wspd": 13, "wgst": null, "reportTime": "2026-07-04T08:00:00.000Z", "rawOb": "METAR RJBE 040800Z 05013KT 5000 RA BR FEW004 SCT006 BKN025 23/22 Q1008"}, "RJSK": {"temp": 28, "dewp": 18, "wdir": 290, "wspd": 6, "wgst": null, "reportTime": "2026-07-04T08:00:00.000Z", "rawOb": "METAR RJSK 040800Z 29006KT 9999 FEW030 28/18 Q1010"}, "RJCB": {"temp": 23, "dewp": 15, "wdir": 130, "wspd": 6, "wgst": null, "reportTime": "2026-07-04T08:00:00.000Z", "rawOb": "METAR RJCB 040800Z 13006KT 100V160 9999 FEW030 23/15 Q1012"}, "RJCK": {"temp": 16, "dewp": 13, "wdir": 190, "wspd": 9, "wgst": null, "reportTime": "2026-07-04T08:00:00.000Z", "rawOb": "METAR RJCK 040800Z 19009KT 9999 FEW010 16/13 Q1013"}, "RJCO": {"temp": 23, "dewp": 15, "wdir": 150, "wspd": 13, "wgst": null, "reportTime": "2026-07-04T08:00:00.000Z", "rawOb": "METAR RJCO 040800Z 15013KT 9999 FEW040 23/15 Q1011"}, "RJOM": {"temp": 22, "dewp": 22, "wdir": 360, "wspd": 6, "wgst": null, "reportTime": "2026-07-04T08:00:00.000Z", "rawOb": "METAR RJOM 040800Z 36006KT 9999 FEW005 BKN035 22/22 Q1007"}, "RJOO": {"temp": 23, "dewp": 22, "wdir": 60, "wspd": 5, "wgst": null, "reportTime": "2026-07-04T08:00:00.000Z", "rawOb": "METAR RJOO 040800Z 06005KT 350V090 4000 RA BR FEW005 SCT010 BKN035 23/22 Q1008"}, "RJTT": {"temp": 26, "dewp": 21, "wdir": 200, "wspd": 12, "wgst": null, "reportTime": "2026-07-04T07:30:00.000Z", "rawOb": "METAR RJTT 040730Z 20012KT 9999 FEW020 BKN/// 26/21 Q1011 NOSIG"}, "ROAH": {"temp": 31, "dewp": 27, "wdir": 220, "wspd": 6, "wgst": null, "reportTime": "2026-07-04T07:30:00.000Z", "rawOb": "METAR ROAH 040730Z 22006KT 9999 FEW015 31/27 Q1012"}, "RJFF": {"temp": 29, "dewp": 23, "wdir": 290, "wspd": 9, "wgst": null, "reportTime": "2026-07-04T07:30:00.000Z", "rawOb": "METAR RJFF 040730Z 29009KT 250V320 9999 FEW020 BKN035 29/23 Q1007 NOSIG"}, "RJBB": {"temp": 23, "dewp": 22, "wdir": 50, "wspd": 10, "wgst": null, "reportTime": "2026-07-04T07:30:00.000Z", "rawOb": "METAR RJBB 040730Z 05010KT 3000 SHRA BR FEW002 SCT003 BKN005 23/22 Q1008 BECMG FEW003 SCT005 BKN008"}, "RJEC": {"temp": 26, "dewp": 16, "wdir": 270, "wspd": 7, "wgst": null, "reportTime": "2026-07-04T08:00:00.000Z", "rawOb": "METAR RJEC 040800Z 27007KT 240V300 9999 FEW030 26/16 Q1010"}, "RJSS": {"temp": 21, "dewp": 18, "wdir": 140, "wspd": 9, "wgst": null, "reportTime": "2026-07-04T08:00:00.000Z", "rawOb": "METAR RJSS 040800Z 14009KT 9999 FEW008 SCT010 BKN015 21/18 Q1012"}, "RJOA": {"temp": 20, "dewp": 20, "wdir": 120, "wspd": 3, "wgst": null, "reportTime": "2026-07-04T08:00:00.000Z", "rawOb": "METAR RJOA 040800Z 12003KT 080V160 0400 R10/0300VP2000D FG VV001 20/20 Q1009"}, "RJOB": {"temp": 22, "dewp": 21, "wdir": "VRB", "wspd": 1, "wgst": null, "reportTime": "2026-07-04T08:00:00.000Z", "rawOb": "METAR RJOB 040800Z VRB01KT 2500 -SHRA BR BCFG FEW000 SCT001 BKN002 22/21 Q1009"}, "RJAA": {"temp": 24, "dewp": 21, "wdir": 150, "wspd": 9, "wgst": null, "reportTime": "2026-07-04T07:30:00.000Z", "rawOb": "METAR RJAA 040730Z 15009KT 9999 FEW012 SCT035 BKN050 24/21 Q1011 TEMPO FEW008 BKN012"}, "RJGG": {"temp": 25, "dewp": 22, "wdir": 140, "wspd": 12, "wgst": null, "reportTime": "2026-07-04T07:30:00.000Z", "rawOb": "METAR RJGG 040730Z 14012KT 9999 VCSH FEW010 BKN080 BKN150 25/22 Q1010 NOSIG"}, "RJOT": {"temp": 21, "dewp": 21, "wdir": 260, "wspd": 3, "wgst": null, "reportTime": "2026-07-04T08:00:00.000Z", "rawOb": "METAR RJOT 040800Z 26003KT 5000 -SHRA BR FEW000 SCT002 BKN004 21/21 Q1009"}, "_updated": "2026-07-04T10:26:40Z"}