{"RJBB": {"temp": 24, "dewp": 22, "wdir": 100, "wspd": 3, "wgst": null, "reportTime": "2026-06-30T18:00:00.000Z", "rawOb": "METAR RJBB 301800Z AUTO 10003KT 060V120 9999 NSC 24/22 Q1011 NOSIG"}, "RJOO": {"temp": 22, "dewp": 20, "wdir": 300, "wspd": 2, "wgst": null, "reportTime": "2026-06-30T18:00:00.000Z", "rawOb": "METAR RJOO 301800Z AUTO 30002KT 9999 NCD 22/20 Q1011"}, "RJAA": {"temp": 21, "dewp": 20, "wdir": 360, "wspd": 2, "wgst": null, "reportTime": "2026-06-30T18:00:00.000Z", "rawOb": "METAR RJAA 301800Z AUTO 36002KT 1300 R16R/0600N R16L/0450N BR OVC001 21/20 Q1011 TEMPO 0300 FG"}, "RJOT": {"temp": 21, "dewp": 20, "wdir": 150, "wspd": 5, "wgst": null, "reportTime": "2026-06-30T18:00:00.000Z", "rawOb": "METAR RJOT 301800Z AUTO 15005KT 9999 NSC 21/20 Q1011"}, "RJSS": {"temp": 22, "dewp": 20, "wdir": 50, "wspd": 2, "wgst": null, "reportTime": "2026-06-30T18:00:00.000Z", "rawOb": "METAR RJSS 301800Z AUTO 05002KT 9999 OVC012 22/20 Q1012"}, "RJGG": {"temp": 22, "dewp": 21, "wdir": 50, "wspd": 4, "wgst": null, "reportTime": "2026-06-30T18:00:00.000Z", "rawOb": "METAR RJGG 301800Z AUTO 05004KT 8000 NCD 22/21 Q1011 TEMPO FM1900 4000 BR"}, "RJFF": {"temp": 23, "dewp": 22, "wdir": 130, "wspd": 3, "wgst": null, "reportTime": "2026-06-30T18:00:00.000Z", "rawOb": "METAR RJFF 301800Z AUTO 13003KT 080V170 9999 FEW005 SCT007 BKN044 23/22 Q1010 TEMPO 4000 -SHRA BR"}, "RJCK": {"temp": 11, "dewp": 11, "wdir": 20, "wspd": 3, "wgst": null, "reportTime": "2026-06-30T18:00:00.000Z", "rawOb": "METAR RJCK 301800Z AUTO 02003KT 0100 R35/0325V0500U FG OVC000 11/11 Q1011"}, "RJEC": {"temp": 11, "dewp": 11, "wdir": 160, "wspd": 4, "wgst": null, "reportTime": "2026-06-30T18:00:00.000Z", "rawOb": "METAR RJEC 301800Z AUTO 16004KT 9999 NSC 11/11 Q1012"}, "ROAH": {"temp": 27, "dewp": 26, "wdir": 170, "wspd": 7, "wgst": null, "reportTime": "2026-06-30T18:00:00.000Z", "rawOb": "METAR ROAH 301800Z AUTO 17007KT 9999 NCD 27/26 Q1012"}, "RJOA": {"temp": 21, "dewp": 20, "wdir": "VRB", "wspd": 1, "wgst": null, "reportTime": "2026-06-30T18:00:00.000Z", "rawOb": "METAR RJOA 301800Z AUTO VRB01KT 9999 OVC017 21/20 Q1012"}, "RJTT": {"temp": 23, "dewp": 21, "wdir": 320, "wspd": 4, "wgst": null, "reportTime": "2026-06-30T18:00:00.000Z", "rawOb": "METAR RJTT 301800Z 32004KT 9999 FEW010 BKN150 23/21 Q1011 NOSIG"}, "RJOM": {"temp": 23, "dewp": 22, "wdir": 140, "wspd": 4, "wgst": null, "reportTime": "2026-06-30T18:00:00.000Z", "rawOb": "METAR RJOM 301800Z AUTO 14004KT 8000 -RA NSC 23/22 Q1010"}, "_updated": "2026-06-30T20:30:11Z"}