{"RJFF": {"temp": 29, "dewp": 24, "wdir": 160, "wspd": 10, "wgst": null, "reportTime": "2026-07-14T19:30:00.000Z", "rawOb": "METAR RJFF 141930Z AUTO 16010KT 9999 FEW047 BKN049 OVC050 29/24 Q1005 NOSIG"}, "RJGG": {"temp": 26, "dewp": 23, "wdir": 50, "wspd": 3, "wgst": null, "reportTime": "2026-07-14T19:30:00.000Z", "rawOb": "METAR RJGG 141930Z AUTO 05003KT 010V110 9999 NCD 26/23 Q1005 NOSIG"}, "ROAH": {"temp": 27, "dewp": 25, "wdir": 220, "wspd": 12, "wgst": null, "reportTime": "2026-07-14T19:30:00.000Z", "rawOb": "METAR ROAH 141930Z AUTO 22012KT 9999 NCD 27/25 Q1010"}, "RJBB": {"temp": 26, "dewp": 25, "wdir": 320, "wspd": 3, "wgst": null, "reportTime": "2026-07-14T19:30:00.000Z", "rawOb": "METAR RJBB 141930Z AUTO 32003KT 9999 NCD 26/25 Q1006 NOSIG"}, "RJAA": {"temp": 25, "dewp": 24, "wdir": 220, "wspd": 3, "wgst": null, "reportTime": "2026-07-14T19:30:00.000Z", "rawOb": "METAR RJAA 141930Z AUTO 22003KT 200V260 9999 NSC 25/24 Q1005 NOSIG"}, "RJTT": {"temp": 27, "dewp": 25, "wdir": 210, "wspd": 8, "wgst": null, "reportTime": "2026-07-14T19:30:00.000Z", "rawOb": "METAR RJTT 141930Z 21008KT 8000 FEW008 SCT012 BKN070 27/25 Q1005 TEMPO FEW007 BKN011"}, "RJCK": {"temp": 17, "dewp": 17, "wdir": 60, "wspd": 4, "wgst": null, "reportTime": "2026-07-14T20:00:00.000Z", "rawOb": "METAR RJCK 142000Z AUTO 06004KT 0000 R35/0225N FG OVC000 17/17 Q1004"}, "RJEC": {"temp": 21, "dewp": 21, "wdir": 150, "wspd": 5, "wgst": null, "reportTime": "2026-07-14T20:00:00.000Z", "rawOb": "METAR RJEC 142000Z AUTO 15005KT 9999 NSC 21/21 Q1002"}, "RJOA": {"temp": 23, "dewp": 22, "wdir": 180, "wspd": 3, "wgst": null, "reportTime": "2026-07-14T20:00:00.000Z", "rawOb": "METAR RJOA 142000Z AUTO 18003KT 140V220 9999 FEW033 SCT036 23/22 Q1007"}, "RJOM": {"temp": 28, "dewp": 23, "wdir": 110, "wspd": 8, "wgst": null, "reportTime": "2026-07-14T20:00:00.000Z", "rawOb": "METAR RJOM 142000Z AUTO 11008KT 9999 NCD 28/23 Q1006"}, "RJOO": {"temp": 27, "dewp": 24, "wdir": 330, "wspd": 3, "wgst": null, "reportTime": "2026-07-14T20:00:00.000Z", "rawOb": "METAR RJOO 142000Z AUTO 33003KT 300V030 9999 NCD 27/24 Q1006"}, "RJOT": {"temp": 25, "dewp": 23, "wdir": 170, "wspd": 4, "wgst": null, "reportTime": "2026-07-14T20:00:00.000Z", "rawOb": "METAR RJOT 142000Z AUTO 17004KT 130V210 9999 BKN034 25/23 Q1007"}, "RJSS": {"temp": 24, "dewp": 22, "wdir": "VRB", "wspd": 1, "wgst": null, "reportTime": "2026-07-14T20:00:00.000Z", "rawOb": "METAR RJSS 142000Z AUTO VRB01KT 9999 NSC 24/22 Q1004"}, "_updated": "2026-07-14T22:01:44Z"}