{"RJAA": {"temp": 23, "dewp": 21, "wdir": 180, "wspd": 3, "wgst": null, "reportTime": "2026-07-09T14:00:00.000Z", "rawOb": "METAR RJAA 091400Z AUTO 18003KT 9999 FEW007 23/21 Q1016 NOSIG"}, "RJGG": {"temp": 24, "dewp": 22, "wdir": 130, "wspd": 10, "wgst": null, "reportTime": "2026-07-09T14:00:00.000Z", "rawOb": "METAR RJGG 091400Z AUTO 13010KT 9999 NCD 24/22 Q1016 NOSIG"}, "RJBB": {"temp": 25, "dewp": 22, "wdir": 220, "wspd": 9, "wgst": null, "reportTime": "2026-07-09T14:00:00.000Z", "rawOb": "METAR RJBB 091400Z AUTO 22009KT 9999 FEW044 SCT049 25/22 Q1015 NOSIG"}, "ROAH": {"temp": 30, "dewp": 26, "wdir": 80, "wspd": 20, "wgst": null, "reportTime": "2026-07-09T14:00:00.000Z", "rawOb": "METAR ROAH 091400Z AUTO 08020KT 9999 FEW019 SCT022 BKN033 30/26 Q1004"}, "RJTT": {"temp": 25, "dewp": 22, "wdir": 200, "wspd": 12, "wgst": null, "reportTime": "2026-07-09T14:00:00.000Z", "rawOb": "METAR RJTT 091400Z 20012KT 9999 FEW015 25/22 Q1016 NOSIG"}, "RJFF": {"temp": 29, "dewp": 23, "wdir": 340, "wspd": 2, "wgst": null, "reportTime": "2026-07-09T14:00:00.000Z", "rawOb": "METAR RJFF 091400Z AUTO 34002KT 9999 SCT044 BKN050 OVC060 29/23 Q1012 NOSIG"}, "RJSS": {"temp": 22, "dewp": 21, "wdir": 10, "wspd": 3, "wgst": null, "reportTime": "2026-07-09T14:00:00.000Z", "rawOb": "METAR RJSS 091400Z AUTO 01003KT 9999 FEW038 22/21 Q1015"}, "RJCK": {"temp": 17, "dewp": 17, "wdir": 190, "wspd": 3, "wgst": null, "reportTime": "2026-07-09T14:00:00.000Z", "rawOb": "METAR RJCK 091400Z AUTO 19003KT 160V250 0500 R17/1100VP2000D -RA FG FEW000 OVC003 17/17 Q1014"}, "RJOA": {"temp": 24, "dewp": 22, "wdir": 0, "wspd": 0, "wgst": null, "reportTime": "2026-07-09T14:00:00.000Z", "rawOb": "METAR RJOA 091400Z AUTO 00000KT 9999 FEW019 SCT028 BKN031 24/22 Q1016"}, "RJOM": {"temp": 24, "dewp": 23, "wdir": 350, "wspd": 5, "wgst": null, "reportTime": "2026-07-09T14:00:00.000Z", "rawOb": "METAR RJOM 091400Z AUTO 35005KT 330V030 9999 NCD 24/23 Q1014"}, "RJOO": {"temp": 26, "dewp": 21, "wdir": 250, "wspd": 6, "wgst": null, "reportTime": "2026-07-09T14:00:00.000Z", "rawOb": "METAR RJOO 091400Z AUTO 25006KT 210V290 9999 NSC 26/21 Q1015"}, "RJOT": {"temp": 24, "dewp": 23, "wdir": 140, "wspd": 5, "wgst": null, "reportTime": "2026-07-09T14:00:00.000Z", "rawOb": "METAR RJOT 091400Z AUTO 14005KT 9999 FEW050 24/23 Q1015"}, "RJEC": {"temp": 21, "dewp": 20, "wdir": 170, "wspd": 8, "wgst": null, "reportTime": "2026-07-09T14:00:00.000Z", "rawOb": "METAR RJEC 091400Z AUTO 17008KT 9999 -RA SCT044 BKN047 BKN050 21/20 Q1013"}, "_updated": "2026-07-09T16:42:32Z"}