{"ROAH": {"temp": 30, "dewp": 27, "wdir": 230, "wspd": 7, "wgst": null, "reportTime": "2026-07-03T08:00:00.000Z", "rawOb": "METAR ROAH 030800Z 23007KT 9999 FEW011 SCT020 30/27 Q1013"}, "RJOO": {"temp": 30, "dewp": 17, "wdir": 350, "wspd": 6, "wgst": null, "reportTime": "2026-07-03T08:00:00.000Z", "rawOb": "METAR RJOO 030800Z 35006KT 280V020 9999 FEW035 BKN/// 30/17 Q1010"}, "RJBE": {"temp": 27, "dewp": 19, "wdir": 280, "wspd": 12, "wgst": null, "reportTime": "2026-07-03T08:00:00.000Z", "rawOb": "METAR RJBE 030800Z 28012KT 9999 FEW035 BKN/// 27/19 Q1010"}, "RJTT": {"temp": 24, "dewp": 21, "wdir": 60, "wspd": 11, "wgst": null, "reportTime": "2026-07-03T08:00:00.000Z", "rawOb": "METAR RJTT 030800Z 06011KT 9999 FEW015 BKN060 24/21 Q1011 BECMG TL0900 09010KT"}, "RJCB": {"temp": 16, "dewp": 13, "wdir": 140, "wspd": 10, "wgst": null, "reportTime": "2026-07-03T08:00:00.000Z", "rawOb": "METAR RJCB 030800Z 14010KT 9999 FEW015 SCT045 BKN070 16/13 Q1012"}, "RJOA": {"temp": 24, "dewp": 18, "wdir": 180, "wspd": 3, "wgst": null, "reportTime": "2026-07-03T08:00:00.000Z", "rawOb": "METAR RJOA 030800Z 18003KT 140V220 9999 FEW020 BKN/// 24/18 Q1012"}, "RJBB": {"temp": 26, "dewp": 22, "wdir": 300, "wspd": 8, "wgst": null, "reportTime": "2026-07-03T08:00:00.000Z", "rawOb": "METAR RJBB 030800Z 30008KT 9999 FEW020 BKN/// 26/22 Q1010 NOSIG"}, "RJOT": {"temp": 27, "dewp": 19, "wdir": 280, "wspd": 4, "wgst": null, "reportTime": "2026-07-03T08:00:00.000Z", "rawOb": "METAR RJOT 030800Z 28004KT 230V330 9999 FEW035 SCT180 BKN/// 27/19 Q1011"}, "RJOM": {"temp": 25, "dewp": 20, "wdir": 250, "wspd": 3, "wgst": null, "reportTime": "2026-07-03T08:00:00.000Z", "rawOb": "METAR RJOM 030800Z 25003KT 160V290 9999 FEW025 SCT180 BKN/// 25/20 Q1011"}, "RJSK": {"temp": 25, "dewp": 19, "wdir": 280, "wspd": 12, "wgst": null, "reportTime": "2026-07-03T08:00:00.000Z", "rawOb": "METAR RJSK 030800Z 28012KT 9999 FEW015 25/19 Q1011"}, "RJAA": {"temp": 22, "dewp": 19, "wdir": 40, "wspd": 8, "wgst": null, "reportTime": "2026-07-03T08:00:00.000Z", "rawOb": "METAR RJAA 030800Z 04008KT 9999 FEW007 SCT008 BKN010 22/19 Q1012 TEMPO FEW005 BKN008"}, "RJCO": {"temp": 23, "dewp": 16, "wdir": "VRB", "wspd": 3, "wgst": null, "reportTime": "2026-07-03T08:00:00.000Z", "rawOb": "METAR RJCO 030800Z VRB03KT 9999 FEW030 23/16 Q1011"}, "RJEC": {"temp": 24, "dewp": 13, "wdir": 300, "wspd": 8, "wgst": null, "reportTime": "2026-07-03T08:00:00.000Z", "rawOb": "METAR RJEC 030800Z 30008KT 9999 FEW030 SCT050 24/13 Q1011"}, "RJFF": {"temp": 26, "dewp": 20, "wdir": 320, "wspd": 4, "wgst": null, "reportTime": "2026-07-03T08:00:00.000Z", "rawOb": "METAR RJFF 030800Z 32004KT 250V020 9999 VCSH FEW015 SCT025 BKN030 26/20 Q1011 NOSIG"}, "RJOB": {"temp": 27, "dewp": 18, "wdir": 190, "wspd": 3, "wgst": null, "reportTime": "2026-07-03T08:00:00.000Z", "rawOb": "METAR RJOB 030800Z 19003KT 9999 FEW030 BKN/// 27/18 Q1011"}, "RJSS": {"temp": 20, "dewp": 17, "wdir": 130, "wspd": 10, "wgst": null, "reportTime": "2026-07-03T08:00:00.000Z", "rawOb": "METAR RJSS 030800Z 13010KT 9999 FEW010 BKN013 20/17 Q1012"}, "RJGG": {"temp": 27, "dewp": 21, "wdir": 130, "wspd": 12, "wgst": null, "reportTime": "2026-07-03T08:00:00.000Z", "rawOb": "METAR RJGG 030800Z 13012KT 9999 FEW030 BKN/// 27/21 Q1010 NOSIG"}, "RJCK": {"temp": 14, "dewp": 11, "wdir": 190, "wspd": 8, "wgst": null, "reportTime": "2026-07-03T08:00:00.000Z", "rawOb": "METAR RJCK 030800Z 19008KT 9999 FEW010 14/11 Q1013"}, "_updated": "2026-07-03T10:30:48Z"}