{"RJOM": {"temp": 26, "dewp": 25, "wdir": 10, "wspd": 6, "wgst": null, "reportTime": "2026-07-17T21:00:00.000Z", "rawOb": "METAR RJOM 172100Z AUTO 01006KT 9999 NSC 26/25 Q1002"}, "RJAA": {"temp": 24, "dewp": 24, "wdir": 130, "wspd": 4, "wgst": null, "reportTime": "2026-07-17T20:30:00.000Z", "rawOb": "METAR RJAA 172030Z AUTO 13004KT 9999 FEW012 SCT013 BKN020 24/24 Q1007 TEMPO FEW005 BKN008"}, "RJOT": {"temp": 26, "dewp": 23, "wdir": 140, "wspd": 4, "wgst": null, "reportTime": "2026-07-17T21:00:00.000Z", "rawOb": "METAR RJOT 172100Z AUTO 14004KT 100V190 9999 NCD 26/23 Q1004"}, "RJOA": {"temp": 25, "dewp": 23, "wdir": 110, "wspd": 4, "wgst": null, "reportTime": "2026-07-17T21:00:00.000Z", "rawOb": "METAR RJOA 172100Z AUTO 11004KT 9999 NCD 25/23 Q1005"}, "RJCO": {"temp": 23, "dewp": 21, "wdir": 150, "wspd": 14, "wgst": null, "reportTime": "2026-07-17T22:00:00.000Z", "rawOb": "METAR RJCO 172200Z 15014KT 9999 FEW007 SCT010 BKN080 23/21 Q1008"}, "RJCK": {"temp": 19, "dewp": 19, "wdir": "VRB", "wspd": 1, "wgst": null, "reportTime": "2026-07-17T21:00:00.000Z", "rawOb": "METAR RJCK 172100Z AUTO VRB01KT 0200 R35/0550N FG OVC001 19/19 Q1012"}, "RJEC": {"temp": 23, "dewp": 20, "wdir": 150, "wspd": 8, "wgst": null, "reportTime": "2026-07-17T21:00:00.000Z", "rawOb": "METAR RJEC 172100Z AUTO 15008KT 9999 BKN060 23/20 Q1009"}, "RJFF": {"temp": 28, "dewp": 25, "wdir": 140, "wspd": 9, "wgst": null, "reportTime": "2026-07-17T20:30:00.000Z", "rawOb": "METAR RJFF 172030Z AUTO 14009KT 9999 FEW026 28/25 Q1002 NOSIG"}, "RJSK": {"temp": 26, "dewp": 22, "wdir": 120, "wspd": 7, "wgst": null, "reportTime": "2026-07-17T22:00:00.000Z", "rawOb": "METAR RJSK 172200Z 12007KT 9999 FEW030 SCT080 BKN100 26/22 Q1006"}, "RJOO": {"temp": 29, "dewp": 24, "wdir": 70, "wspd": 4, "wgst": null, "reportTime": "2026-07-17T21:00:00.000Z", "rawOb": "METAR RJOO 172100Z AUTO 07004KT 9999 NSC 29/24 Q1004"}, "RJBB": {"temp": 28, "dewp": 25, "wdir": 190, "wspd": 2, "wgst": null, "reportTime": "2026-07-17T20:30:00.000Z", "rawOb": "METAR RJBB 172030Z AUTO 19002KT 9999 FEW050 28/25 Q1004 NOSIG"}, "RJSS": {"temp": 23, "dewp": 22, "wdir": 170, "wspd": 7, "wgst": null, "reportTime": "2026-07-17T21:00:00.000Z", "rawOb": "METAR RJSS 172100Z AUTO 17007KT 9999 OVC003 23/22 Q1008"}, "RJTT": {"temp": 26, "dewp": 24, "wdir": 120, "wspd": 4, "wgst": null, "reportTime": "2026-07-17T20:30:00.000Z", "rawOb": "METAR RJTT 172030Z 12004KT 9999 FEW014 SCT110 BKN/// 26/24 Q1007 NOSIG"}, "RJBE": {"temp": 28, "dewp": 26, "wdir": 210, "wspd": 3, "wgst": null, "reportTime": "2026-07-17T22:00:00.000Z", "rawOb": "METAR RJBE 172200Z 21003KT 9999 FEW008 SCT/// 28/26 Q1004"}, "ROAH": {"temp": 28, "dewp": 27, "wdir": 210, "wspd": 7, "wgst": null, "reportTime": "2026-07-17T20:30:00.000Z", "rawOb": "METAR ROAH 172030Z AUTO 21007KT 160V240 9999 FEW006 OVC010 28/27 Q1005"}, "RJGG": {"temp": 27, "dewp": 26, "wdir": 160, "wspd": 4, "wgst": null, "reportTime": "2026-07-17T20:30:00.000Z", "rawOb": "METAR RJGG 172030Z AUTO 16004KT 090V190 6000 FEW020 SCT034 BKN042 //////TCU 27/26 Q1005 NOSIG"}, "RJOB": {"temp": 26, "dewp": 23, "wdir": 90, "wspd": 4, "wgst": null, "reportTime": "2026-07-17T22:00:00.000Z", "rawOb": "METAR RJOB 172200Z 09004KT 050V110 9999 FEW020 BKN100 26/23 Q1004"}, "RJCB": {"temp": 20, "dewp": 20, "wdir": "VRB", "wspd": 2, "wgst": null, "reportTime": "2026-07-17T23:00:00.000Z", "rawOb": "METAR RJCB 172300Z VRB02KT 1500 R35/2000U BR FEW001 SCT002 BKN003 20/20 Q1012"}, "_updated": "2026-07-17T23:09:29Z"}