{"RJSK": {"temp": 24, "dewp": 23, "wdir": 250, "wspd": 6, "wgst": null, "reportTime": "2026-07-22T22:00:00.000Z", "rawOb": "METAR RJSK 222200Z 25006KT 8000 -SHRA FEW001 SCT009 BKN030 24/23 Q1008"}, "RJTT": {"temp": 27, "dewp": 26, "wdir": 110, "wspd": 1, "wgst": null, "reportTime": "2026-07-22T19:30:00.000Z", "rawOb": "METAR RJTT 221930Z 11001KT 9000 FEW030 27/26 Q1006 NOSIG"}, "RJFF": {"temp": 27, "dewp": 24, "wdir": 150, "wspd": 6, "wgst": null, "reportTime": "2026-07-22T19:30:00.000Z", "rawOb": "METAR RJFF 221930Z AUTO 15006KT 9999 NCD 27/24 Q1009 NOSIG"}, "RJEC": {"temp": 18, "dewp": 18, "wdir": "VRB", "wspd": 2, "wgst": null, "reportTime": "2026-07-22T20:00:00.000Z", "rawOb": "METAR RJEC 222000Z AUTO VRB02KT 6000 FEW001 OVC004 18/18 Q1009"}, "RJCO": {"temp": 23, "dewp": 21, "wdir": 290, "wspd": 4, "wgst": null, "reportTime": "2026-07-22T22:00:00.000Z", "rawOb": "METAR RJCO 222200Z 29004KT 9999 FEW015 23/21 Q1009"}, "RJAA": {"temp": 28, "dewp": 26, "wdir": 310, "wspd": 3, "wgst": null, "reportTime": "2026-07-22T19:30:00.000Z", "rawOb": "METAR RJAA 221930Z AUTO 31003KT 7000 NCD 28/26 Q1006 NOSIG"}, "RJCK": {"temp": 18, "dewp": 18, "wdir": 320, "wspd": 3, "wgst": null, "reportTime": "2026-07-22T20:00:00.000Z", "rawOb": "METAR RJCK 222000Z AUTO 32003KT 9999 NCD 18/18 Q1008"}, "RJSS": {"temp": 25, "dewp": 23, "wdir": "VRB", "wspd": 2, "wgst": null, "reportTime": "2026-07-22T20:00:00.000Z", "rawOb": "METAR RJSS 222000Z AUTO VRB02KT 9999 FEW060 25/23 Q1006"}, "ROAH": {"temp": 28, "dewp": 26, "wdir": 110, "wspd": 4, "wgst": null, "reportTime": "2026-07-22T19:30:00.000Z", "rawOb": "METAR ROAH 221930Z AUTO 11004KT 9999 NCD 28/26 Q1009"}, "RJGG": {"temp": 30, "dewp": 25, "wdir": 300, "wspd": 9, "wgst": null, "reportTime": "2026-07-22T19:30:00.000Z", "rawOb": "METAR RJGG 221930Z AUTO 30009KT 9999 FEW043 30/25 Q1008 NOSIG"}, "RJOA": {"temp": 25, "dewp": 23, "wdir": 70, "wspd": 2, "wgst": null, "reportTime": "2026-07-22T20:00:00.000Z", "rawOb": "METAR RJOA 222000Z AUTO 07002KT 9999 NCD 25/23 Q1011"}, "RJOB": {"temp": 28, "dewp": 24, "wdir": "VRB", "wspd": 1, "wgst": null, "reportTime": "2026-07-22T22:00:00.000Z", "rawOb": "METAR RJOB 222200Z VRB01KT 9999 FEW008 SCT050 28/24 Q1011"}, "RJOM": {"temp": 27, "dewp": 22, "wdir": 120, "wspd": 6, "wgst": null, "reportTime": "2026-07-22T20:00:00.000Z", "rawOb": "METAR RJOM 222000Z AUTO 12006KT 9999 NCD 27/22 Q1009"}, "RJOO": {"temp": 29, "dewp": 24, "wdir": 310, "wspd": 6, "wgst": null, "reportTime": "2026-07-22T20:00:00.000Z", "rawOb": "METAR RJOO 222000Z AUTO 31006KT 9999 BKN038 BKN042 29/24 Q1009"}, "RJOT": {"temp": 26, "dewp": 23, "wdir": 210, "wspd": 5, "wgst": null, "reportTime": "2026-07-22T20:00:00.000Z", "rawOb": "METAR RJOT 222000Z AUTO 21005KT 9999 FEW029 26/23 Q1010"}, "RJBB": {"temp": 28, "dewp": 26, "wdir": 260, "wspd": 4, "wgst": null, "reportTime": "2026-07-22T19:30:00.000Z", "rawOb": "METAR RJBB 221930Z AUTO 26004KT 9999 NCD 28/26 Q1009 NOSIG"}, "RJBE": {"temp": 30, "dewp": 26, "wdir": 190, "wspd": 4, "wgst": null, "reportTime": "2026-07-22T22:00:00.000Z", "rawOb": "METAR RJBE 222200Z 19004KT 9999 FEW030 SCT040 30/26 Q1009"}, "_updated": "2026-07-22T22:18:04Z"}