{"RJAA": {"temp": 26, "dewp": 25, "wdir": "VRB", "wspd": 2, "wgst": null, "reportTime": "2026-07-21T18:00:00.000Z", "rawOb": "METAR RJAA 211800Z AUTO VRB02KT 9000 NSC 26/25 Q1007 NOSIG"}, "ROAH": {"temp": 28, "dewp": 27, "wdir": 270, "wspd": 4, "wgst": null, "reportTime": "2026-07-21T18:00:00.000Z", "rawOb": "METAR ROAH 211800Z AUTO 27004KT 9999 FEW005 SCT008 28/27 Q1009"}, "RJTT": {"temp": 28, "dewp": 26, "wdir": 180, "wspd": 6, "wgst": null, "reportTime": "2026-07-21T18:00:00.000Z", "rawOb": "METAR RJTT 211800Z 18006KT 9000 NSC 28/26 Q1007 NOSIG"}, "RJGG": {"temp": 29, "dewp": 27, "wdir": 120, "wspd": 8, "wgst": null, "reportTime": "2026-07-21T18:00:00.000Z", "rawOb": "METAR RJGG 211800Z AUTO 12008KT 9999 NCD 29/27 Q1008 NOSIG"}, "RJFF": {"temp": 28, "dewp": 25, "wdir": 100, "wspd": 4, "wgst": null, "reportTime": "2026-07-21T18:00:00.000Z", "rawOb": "METAR RJFF 211800Z AUTO 10004KT 070V140 9999 BKN022 BKN025 28/25 Q1010 NOSIG"}, "RJBB": {"temp": 28, "dewp": 26, "wdir": 230, "wspd": 8, "wgst": null, "reportTime": "2026-07-21T18:00:00.000Z", "rawOb": "METAR RJBB 211800Z AUTO 23008KT 9999 NCD 28/26 Q1009 NOSIG"}, "RJOA": {"temp": 26, "dewp": 24, "wdir": 300, "wspd": 4, "wgst": null, "reportTime": "2026-07-21T18:00:00.000Z", "rawOb": "METAR RJOA 211800Z AUTO 30004KT 8000 NCD 26/24 Q1011"}, "RJOM": {"temp": 27, "dewp": 25, "wdir": 30, "wspd": 3, "wgst": null, "reportTime": "2026-07-21T18:00:00.000Z", "rawOb": "METAR RJOM 211800Z AUTO 03003KT 9999 NCD 27/25 Q1009"}, "RJOO": {"temp": 29, "dewp": 25, "wdir": 260, "wspd": 4, "wgst": null, "reportTime": "2026-07-21T18:00:00.000Z", "rawOb": "METAR RJOO 211800Z AUTO 26004KT 220V310 9999 NCD 29/25 Q1009"}, "RJOT": {"temp": 27, "dewp": 25, "wdir": 210, "wspd": 5, "wgst": null, "reportTime": "2026-07-21T18:00:00.000Z", "rawOb": "METAR RJOT 211800Z AUTO 21005KT 9999 SCT037 27/25 Q1010"}, "RJSS": {"temp": 26, "dewp": 24, "wdir": 340, "wspd": 4, "wgst": null, "reportTime": "2026-07-21T18:00:00.000Z", "rawOb": "METAR RJSS 211800Z AUTO 34004KT 9999 NCD 26/24 Q1007"}, "RJCK": {"temp": 19, "dewp": 19, "wdir": 320, "wspd": 2, "wgst": null, "reportTime": "2026-07-21T18:00:00.000Z", "rawOb": "METAR RJCK 211800Z AUTO 32002KT 0200 R35/0450N FG OVC001 19/19 Q1006"}, "RJEC": {"temp": 19, "dewp": 19, "wdir": 250, "wspd": 3, "wgst": null, "reportTime": "2026-07-21T18:00:00.000Z", "rawOb": "METAR RJEC 211800Z AUTO 25003KT 9999 FEW007 19/19 Q1007"}, "_updated": "2026-07-21T20:49:03Z"}