{"RJFF": {"temp": 28, "dewp": 25, "wdir": 30, "wspd": 3, "wgst": null, "reportTime": "2026-07-21T13:30:00.000Z", "rawOb": "METAR RJFF 211330Z 03003KT 9999 FEW040 28/25 Q1009 NOSIG"}, "RJBB": {"temp": 29, "dewp": 26, "wdir": 230, "wspd": 9, "wgst": null, "reportTime": "2026-07-21T13:30:00.000Z", "rawOb": "METAR RJBB 211330Z 23009KT 200V290 CAVOK 29/26 Q1009 NOSIG"}, "ROAH": {"temp": 29, "dewp": 27, "wdir": 230, "wspd": 5, "wgst": null, "reportTime": "2026-07-21T13:30:00.000Z", "rawOb": "METAR ROAH 211330Z 23005KT 9999 VCSH FEW007 SCT027 29/27 Q1010"}, "RJGG": {"temp": 30, "dewp": 26, "wdir": 120, "wspd": 9, "wgst": null, "reportTime": "2026-07-21T13:30:00.000Z", "rawOb": "METAR RJGG 211330Z 12009KT 9999 FEW020 30/26 Q1008 NOSIG"}, "RJTT": {"temp": 28, "dewp": 26, "wdir": 180, "wspd": 9, "wgst": null, "reportTime": "2026-07-21T13:30:00.000Z", "rawOb": "METAR RJTT 211330Z 18009KT CAVOK 28/26 Q1008 NOSIG"}, "RJAA": {"temp": 27, "dewp": 25, "wdir": 190, "wspd": 2, "wgst": null, "reportTime": "2026-07-21T13:30:00.000Z", "rawOb": "METAR RJAA 211330Z 19002KT 9999 FEW030 SCT/// 27/25 Q1008 NOSIG"}, "RJEC": {"temp": 21, "dewp": 20, "wdir": 10, "wspd": 3, "wgst": null, "reportTime": "2026-07-21T14:00:00.000Z", "rawOb": "METAR RJEC 211400Z AUTO 01003KT 9999 NCD 21/20 Q1008"}, "RJOM": {"temp": 26, "dewp": 25, "wdir": 310, "wspd": 5, "wgst": null, "reportTime": "2026-07-21T14:00:00.000Z", "rawOb": "METAR RJOM 211400Z AUTO 31005KT 9999 NCD 26/25 Q1009"}, "RJOO": {"temp": 31, "dewp": 24, "wdir": 240, "wspd": 4, "wgst": null, "reportTime": "2026-07-21T14:00:00.000Z", "rawOb": "METAR RJOO 211400Z AUTO 24004KT 180V280 9999 NCD 31/24 Q1008"}, "RJOT": {"temp": 27, "dewp": 26, "wdir": 140, "wspd": 6, "wgst": null, "reportTime": "2026-07-21T14:00:00.000Z", "rawOb": "METAR RJOT 211400Z AUTO 14006KT 9999 NCD 27/26 Q1010"}, "RJSS": {"temp": 27, "dewp": 25, "wdir": 10, "wspd": 3, "wgst": null, "reportTime": "2026-07-21T14:00:00.000Z", "rawOb": "METAR RJSS 211400Z AUTO 01003KT 320V060 9999 NCD 27/25 Q1008"}, "RJOA": {"temp": 27, "dewp": 23, "wdir": 300, "wspd": 3, "wgst": null, "reportTime": "2026-07-21T14:00:00.000Z", "rawOb": "METAR RJOA 211400Z AUTO 30003KT 9999 NCD 27/23 Q1011"}, "RJCK": {"temp": 18, "dewp": 18, "wdir": 190, "wspd": 5, "wgst": null, "reportTime": "2026-07-21T14:00:00.000Z", "rawOb": "METAR RJCK 211400Z AUTO 19005KT 0600 R35/0800VP2000U FG OVC001 18/18 Q1006"}, "_updated": "2026-07-21T16:03:17Z"}