{"RJBB": {"temp": 28, "dewp": 23, "wdir": 70, "wspd": 5, "wgst": null, "reportTime": "2026-07-24T20:00:00.000Z", "rawOb": "METAR RJBB 242000Z AUTO 07005KT 9999 NCD 28/23 Q1011 NOSIG"}, "RJTT": {"temp": 27, "dewp": 25, "wdir": 30, "wspd": 8, "wgst": null, "reportTime": "2026-07-24T20:00:00.000Z", "rawOb": "METAR RJTT 242000Z 03008KT 9999 FEW007 BKN013 27/25 Q1009 TEMPO TL2100 FEW005 BKN008"}, "RJAA": {"temp": 25, "dewp": 24, "wdir": 40, "wspd": 5, "wgst": null, "reportTime": "2026-07-24T20:00:00.000Z", "rawOb": "METAR RJAA 242000Z AUTO 04005KT 8000 OVC004 25/24 Q1009 TEMPO 4000 BR"}, "ROAH": {"temp": 29, "dewp": 27, "wdir": 120, "wspd": 4, "wgst": null, "reportTime": "2026-07-24T20:00:00.000Z", "rawOb": "METAR ROAH 242000Z AUTO 12004KT 9999 NCD 29/27 Q1010"}, "RJSS": {"temp": 23, "dewp": 22, "wdir": 110, "wspd": 6, "wgst": null, "reportTime": "2026-07-24T20:00:00.000Z", "rawOb": "METAR RJSS 242000Z AUTO 11006KT 2600 R27/2000N RA BR FEW002 SCT005 BKN011 //////TCU 23/22 Q1010"}, "RJOA": {"temp": 25, "dewp": 19, "wdir": 290, "wspd": 6, "wgst": null, "reportTime": "2026-07-24T20:00:00.000Z", "rawOb": "METAR RJOA 242000Z AUTO 29006KT 9999 FEW036 25/19 Q1013"}, "RJGG": {"temp": 29, "dewp": 25, "wdir": 290, "wspd": 10, "wgst": null, "reportTime": "2026-07-24T20:00:00.000Z", "rawOb": "METAR RJGG 242000Z AUTO 29010KT 9999 NCD 29/25 Q1009 NOSIG"}, "RJFF": {"temp": 27, "dewp": 24, "wdir": 70, "wspd": 2, "wgst": null, "reportTime": "2026-07-24T20:00:00.000Z", "rawOb": "METAR RJFF 242000Z AUTO 07002KT 9999 NSC 27/24 Q1012 NOSIG"}, "RJBE": {"temp": 30, "dewp": 25, "wdir": "VRB", "wspd": 2, "wgst": null, "reportTime": "2026-07-24T22:00:00.000Z", "rawOb": "METAR RJBE 242200Z VRB02KT 9999 FEW030 SCT050 30/25 Q1011"}, "RJCK": {"temp": 13, "dewp": 12, "wdir": 10, "wspd": 3, "wgst": null, "reportTime": "2026-07-24T20:00:00.000Z", "rawOb": "METAR RJCK 242000Z AUTO 01003KT 8000 FEW000 OVC011 13/12 Q1016"}, "RJCO": {"temp": 20, "dewp": 17, "wdir": 140, "wspd": 9, "wgst": null, "reportTime": "2026-07-24T22:00:00.000Z", "rawOb": "METAR RJCO 242200Z 14009KT 9999 FEW010 BKN017 BKN100 20/17 Q1013"}, "RJEC": {"temp": 15, "dewp": 15, "wdir": 320, "wspd": 3, "wgst": null, "reportTime": "2026-07-24T20:00:00.000Z", "rawOb": "METAR RJEC 242000Z AUTO 32003KT 9000 OVC001 15/15 Q1015"}, "RJSK": {"temp": 22, "dewp": 21, "wdir": 140, "wspd": 4, "wgst": null, "reportTime": "2026-07-24T22:00:00.000Z", "rawOb": "METAR RJSK 242200Z 14004KT 110V190 9999 -SHRA PRFG FEW000 SCT002 BKN011 22/21 Q1010"}, "RJOB": {"temp": 28, "dewp": 22, "wdir": "VRB", "wspd": 2, "wgst": null, "reportTime": "2026-07-24T22:00:00.000Z", "rawOb": "METAR RJOB 242200Z VRB02KT CAVOK 28/22 Q1013"}, "RJOM": {"temp": 27, "dewp": 23, "wdir": 110, "wspd": 4, "wgst": null, "reportTime": "2026-07-24T20:00:00.000Z", "rawOb": "METAR RJOM 242000Z AUTO 11004KT 9999 FEW013 27/23 Q1011"}, "RJOO": {"temp": 28, "dewp": 23, "wdir": 320, "wspd": 7, "wgst": null, "reportTime": "2026-07-24T20:00:00.000Z", "rawOb": "METAR RJOO 242000Z AUTO 32007KT 9999 NCD 28/23 Q1011"}, "RJOT": {"temp": 26, "dewp": 23, "wdir": 200, "wspd": 4, "wgst": null, "reportTime": "2026-07-24T20:00:00.000Z", "rawOb": "METAR RJOT 242000Z AUTO 20004KT 160V230 9999 NCD 26/23 Q1012"}, "_updated": "2026-07-24T22:43:01Z"}