{"RJFF": {"temp": 28, "dewp": 24, "wdir": 180, "wspd": 9, "wgst": null, "reportTime": "2026-07-14T18:00:00.000Z", "rawOb": "METAR RJFF 141800Z AUTO 18009KT 9999 FEW034 SCT047 OVC050 28/24 Q1006 NOSIG"}, "ROAH": {"temp": 26, "dewp": 26, "wdir": 200, "wspd": 11, "wgst": null, "reportTime": "2026-07-14T18:00:00.000Z", "rawOb": "METAR ROAH 141800Z AUTO 20011KT 9999 FEW007 26/26 Q1011"}, "RJTT": {"temp": 27, "dewp": 25, "wdir": 200, "wspd": 8, "wgst": null, "reportTime": "2026-07-14T18:00:00.000Z", "rawOb": "METAR RJTT 141800Z 20008KT 9999 FEW008 BKN070 BKN/// 27/25 Q1005 TEMPO FEW007 BKN011"}, "RJBB": {"temp": 27, "dewp": 24, "wdir": 250, "wspd": 2, "wgst": null, "reportTime": "2026-07-14T18:00:00.000Z", "rawOb": "METAR RJBB 141800Z AUTO 25002KT 9999 NCD 27/24 Q1005 NOSIG"}, "RJAA": {"temp": 24, "dewp": 23, "wdir": 170, "wspd": 3, "wgst": null, "reportTime": "2026-07-14T18:00:00.000Z", "rawOb": "METAR RJAA 141800Z AUTO 17003KT 9999 NSC 24/23 Q1005 NOSIG"}, "RJGG": {"temp": 26, "dewp": 24, "wdir": 260, "wspd": 4, "wgst": null, "reportTime": "2026-07-14T18:00:00.000Z", "rawOb": "METAR RJGG 141800Z AUTO 26004KT 9999 NCD 26/24 Q1005 NOSIG"}, "RJSS": {"temp": 24, "dewp": 22, "wdir": 270, "wspd": 1, "wgst": null, "reportTime": "2026-07-14T18:00:00.000Z", "rawOb": "METAR RJSS 141800Z AUTO 27001KT 9999 NCD 24/22 Q1004"}, "RJOA": {"temp": 25, "dewp": 22, "wdir": 270, "wspd": 5, "wgst": null, "reportTime": "2026-07-14T18:00:00.000Z", "rawOb": "METAR RJOA 141800Z AUTO 27005KT 9999 NCD 25/22 Q1007"}, "RJCK": {"temp": 18, "dewp": 18, "wdir": 10, "wspd": 2, "wgst": null, "reportTime": "2026-07-14T18:00:00.000Z", "rawOb": "METAR RJCK 141800Z AUTO 01002KT 1000 R35/0550V1000N BR OVC001 18/18 Q1004"}, "RJEC": {"temp": 22, "dewp": 21, "wdir": 150, "wspd": 4, "wgst": null, "reportTime": "2026-07-14T18:00:00.000Z", "rawOb": "METAR RJEC 141800Z AUTO 15004KT 9999 FEW036 SCT038 OVC040 22/21 Q1003"}, "RJOM": {"temp": 27, "dewp": 24, "wdir": 130, "wspd": 6, "wgst": null, "reportTime": "2026-07-14T18:00:00.000Z", "rawOb": "METAR RJOM 141800Z AUTO 13006KT 9999 SCT041 OVC048 27/24 Q1006"}, "RJOO": {"temp": 28, "dewp": 24, "wdir": 150, "wspd": 1, "wgst": null, "reportTime": "2026-07-14T18:00:00.000Z", "rawOb": "METAR RJOO 141800Z AUTO 15001KT 9999 NCD 28/24 Q1005"}, "RJOT": {"temp": 24, "dewp": 22, "wdir": "VRB", "wspd": 2, "wgst": null, "reportTime": "2026-07-14T18:00:00.000Z", "rawOb": "METAR RJOT 141800Z AUTO VRB02KT 9999 NCD 24/22 Q1006"}, "_updated": "2026-07-14T20:45:25Z"}