{"RJCK": {"temp": 13, "dewp": 12, "wdir": 40, "wspd": 2, "wgst": null, "reportTime": "2026-07-24T18:00:00.000Z", "rawOb": "METAR RJCK 241800Z AUTO 04002KT 9999 OVC015 13/12 Q1015"}, "RJFF": {"temp": 28, "dewp": 23, "wdir": 10, "wspd": 4, "wgst": null, "reportTime": "2026-07-24T17:30:00.000Z", "rawOb": "METAR RJFF 241730Z AUTO 01004KT 320V070 9999 NCD 28/23 Q1012 NOSIG"}, "RJSS": {"temp": 23, "dewp": 22, "wdir": 110, "wspd": 4, "wgst": null, "reportTime": "2026-07-24T18:00:00.000Z", "rawOb": "METAR RJSS 241800Z AUTO 11004KT 9999 -RA SCT005 SCT007 OVC016 //////TCU 23/22 Q1010"}, "RJOM": {"temp": 27, "dewp": 24, "wdir": 340, "wspd": 5, "wgst": null, "reportTime": "2026-07-24T18:00:00.000Z", "rawOb": "METAR RJOM 241800Z AUTO 34005KT 9999 NCD 27/24 Q1011"}, "RJOO": {"temp": 28, "dewp": 23, "wdir": 350, "wspd": 3, "wgst": null, "reportTime": "2026-07-24T18:00:00.000Z", "rawOb": "METAR RJOO 241800Z AUTO 35003KT 9999 NCD 28/23 Q1010"}, "ROAH": {"temp": 29, "dewp": 26, "wdir": 140, "wspd": 5, "wgst": null, "reportTime": "2026-07-24T17:30:00.000Z", "rawOb": "METAR ROAH 241730Z AUTO 14005KT 9999 NCD 29/26 Q1010"}, "RJOT": {"temp": 26, "dewp": 23, "wdir": 160, "wspd": 5, "wgst": null, "reportTime": "2026-07-24T18:00:00.000Z", "rawOb": "METAR RJOT 241800Z AUTO 16005KT 140V200 9999 NCD 26/23 Q1011"}, "RJBB": {"temp": 30, "dewp": 23, "wdir": 70, "wspd": 9, "wgst": null, "reportTime": "2026-07-24T17:30:00.000Z", "rawOb": "METAR RJBB 241730Z AUTO 07009KT 9999 NCD 30/23 Q1009 NOSIG"}, "RJEC": {"temp": 15, "dewp": 15, "wdir": 330, "wspd": 4, "wgst": null, "reportTime": "2026-07-24T18:00:00.000Z", "rawOb": "METAR RJEC 241800Z AUTO 33004KT 9999 FEW002 OVC004 15/15 Q1014"}, "RJOA": {"temp": 27, "dewp": 19, "wdir": 330, "wspd": 5, "wgst": null, "reportTime": "2026-07-24T18:00:00.000Z", "rawOb": "METAR RJOA 241800Z AUTO 33005KT 9999 NCD 27/19 Q1013"}, "RJAA": {"temp": 25, "dewp": 24, "wdir": 30, "wspd": 3, "wgst": null, "reportTime": "2026-07-24T17:30:00.000Z", "rawOb": "METAR RJAA 241730Z AUTO 03003KT 9999 FEW004 BKN005 OVC007 25/24 Q1008 NOSIG"}, "RJGG": {"temp": 29, "dewp": 25, "wdir": 300, "wspd": 12, "wgst": null, "reportTime": "2026-07-24T17:30:00.000Z", "rawOb": "METAR RJGG 241730Z AUTO 30012KT 9999 NCD 29/25 Q1008 NOSIG"}, "RJTT": {"temp": 29, "dewp": 26, "wdir": 200, "wspd": 9, "wgst": null, "reportTime": "2026-07-24T17:30:00.000Z", "rawOb": "METAR RJTT 241730Z 20009KT 9999 FEW008 BKN015 29/26 Q1008 BECMG 35006KT TEMPO FEW008 BKN012"}, "_updated": "2026-07-24T20:22:50Z"}