{"RJOT": {"temp": 22, "dewp": 21, "wdir": 140, "wspd": 6, "wgst": null, "reportTime": "2026-06-30T16:00:00.000Z", "rawOb": "METAR RJOT 301600Z AUTO 14006KT 9999 NCD 22/21 Q1012"}, "RJSS": {"temp": 21, "dewp": 20, "wdir": 80, "wspd": 4, "wgst": null, "reportTime": "2026-06-30T16:00:00.000Z", "rawOb": "METAR RJSS 301600Z AUTO 08004KT 9999 FEW005 OVC011 21/20 Q1012"}, "RJTT": {"temp": 24, "dewp": 22, "wdir": 180, "wspd": 7, "wgst": null, "reportTime": "2026-06-30T15:30:00.000Z", "rawOb": "METAR RJTT 301530Z 18007KT 9999 FEW010 SCT015 BKN/// 24/22 Q1011 NOSIG"}, "RJGG": {"temp": 23, "dewp": 21, "wdir": 110, "wspd": 4, "wgst": null, "reportTime": "2026-06-30T15:30:00.000Z", "rawOb": "METAR RJGG 301530Z AUTO 11004KT 080V160 9999 NCD 23/21 Q1011 NOSIG"}, "RJFF": {"temp": 24, "dewp": 21, "wdir": 140, "wspd": 8, "wgst": null, "reportTime": "2026-06-30T15:30:00.000Z", "rawOb": "METAR RJFF 301530Z AUTO 14008KT 9999 -RA BKN034 BKN036 OVC050 24/21 Q1011 TEMPO 3000 SHRA BR"}, "RJAA": {"temp": 21, "dewp": 20, "wdir": 240, "wspd": 1, "wgst": null, "reportTime": "2026-06-30T15:30:00.000Z", "rawOb": "METAR RJAA 301530Z AUTO 24001KT 6000 FEW000 BKN003 21/20 Q1012 TEMPO 0300 FG VV001"}, "RJBB": {"temp": 24, "dewp": 21, "wdir": 200, "wspd": 4, "wgst": null, "reportTime": "2026-06-30T15:30:00.000Z", "rawOb": "METAR RJBB 301530Z AUTO 20004KT 130V230 9999 NCD 24/21 Q1012 NOSIG"}, "RJEC": {"temp": 14, "dewp": 13, "wdir": "VRB", "wspd": 1, "wgst": null, "reportTime": "2026-06-30T16:00:00.000Z", "rawOb": "METAR RJEC 301600Z AUTO VRB01KT 9999 NSC 14/13 Q1012"}, "RJOA": {"temp": 22, "dewp": 19, "wdir": 320, "wspd": 4, "wgst": null, "reportTime": "2026-06-30T16:00:00.000Z", "rawOb": "METAR RJOA 301600Z AUTO 32004KT 9999 NSC 22/19 Q1012"}, "RJCK": {"temp": 11, "dewp": 11, "wdir": 20, "wspd": 4, "wgst": null, "reportTime": "2026-06-30T16:00:00.000Z", "rawOb": "METAR RJCK 301600Z AUTO 02004KT 350V060 0100 R35/0325N FG OVC000 11/11 Q1011"}, "RJOM": {"temp": 23, "dewp": 22, "wdir": 30, "wspd": 3, "wgst": null, "reportTime": "2026-06-30T16:00:00.000Z", "rawOb": "METAR RJOM 301600Z AUTO 03003KT 9999 FEW050 SCT120 BKN130 23/22 Q1011"}, "ROAH": {"temp": 28, "dewp": 26, "wdir": 180, "wspd": 6, "wgst": null, "reportTime": "2026-06-30T15:30:00.000Z", "rawOb": "METAR ROAH 301530Z AUTO 18006KT 9999 NCD 28/26 Q1013"}, "RJOO": {"temp": 24, "dewp": 22, "wdir": "VRB", "wspd": 2, "wgst": null, "reportTime": "2026-06-30T16:00:00.000Z", "rawOb": "METAR RJOO 301600Z AUTO VRB02KT 9999 SCT018 24/22 Q1012"}, "_updated": "2026-06-30T18:15:39Z"}