{"RJFF": {"temp": 30, "dewp": 26, "wdir": 320, "wspd": 6, "wgst": null, "reportTime": "2026-07-19T11:30:00.000Z", "rawOb": "METAR RJFF 191130Z 32006KT 270V350 9999 FEW025 30/26 Q1006 BECMG 14005KT"}, "RJCK": {"temp": 19, "dewp": 19, "wdir": 130, "wspd": 12, "wgst": null, "reportTime": "2026-07-19T12:00:00.000Z", "rawOb": "METAR RJCK 191200Z AUTO 13012KT 2100 R35/0750V1500N RA BR OVC001 19/19 Q1008"}, "RJOT": {"temp": 29, "dewp": 27, "wdir": 160, "wspd": 2, "wgst": null, "reportTime": "2026-07-19T12:00:00.000Z", "rawOb": "METAR RJOT 191200Z 16002KT 9999 FEW025 BKN080 29/27 Q1008"}, "RJAA": {"temp": 27, "dewp": 24, "wdir": 170, "wspd": 4, "wgst": null, "reportTime": "2026-07-19T11:30:00.000Z", "rawOb": "METAR RJAA 191130Z 17004KT 9999 FEW025 BKN/// 27/24 Q1008 NOSIG"}, "RJSS": {"temp": 24, "dewp": 23, "wdir": 40, "wspd": 3, "wgst": null, "reportTime": "2026-07-19T12:00:00.000Z", "rawOb": "METAR RJSS 191200Z 04003KT 010V090 9999 FEW030 24/23 Q1007"}, "RJTT": {"temp": 29, "dewp": 24, "wdir": 190, "wspd": 11, "wgst": null, "reportTime": "2026-07-19T11:30:00.000Z", "rawOb": "METAR RJTT 191130Z 19011KT CAVOK 29/24 Q1008 NOSIG"}, "RJEC": {"temp": 21, "dewp": 19, "wdir": 170, "wspd": 13, "wgst": null, "reportTime": "2026-07-19T12:00:00.000Z", "rawOb": "METAR RJEC 191200Z AUTO 17013KT 9999 OVC030 21/19 Q1005"}, "RJBB": {"temp": 29, "dewp": 25, "wdir": 210, "wspd": 11, "wgst": null, "reportTime": "2026-07-19T11:30:00.000Z", "rawOb": "METAR RJBB 191130Z 21011KT 9999 FEW020 29/25 Q1007 NOSIG"}, "RJGG": {"temp": 27, "dewp": 25, "wdir": 130, "wspd": 9, "wgst": null, "reportTime": "2026-07-19T11:30:00.000Z", "rawOb": "METAR RJGG 191130Z 13009KT 9999 FEW020 27/25 Q1007 NOSIG"}, "ROAH": {"temp": 29, "dewp": 27, "wdir": 220, "wspd": 4, "wgst": null, "reportTime": "2026-07-19T11:30:00.000Z", "rawOb": "METAR ROAH 191130Z 22004KT 9999 VCSH FEW030 29/27 Q1007"}, "RJOA": {"temp": 28, "dewp": 23, "wdir": 130, "wspd": 1, "wgst": null, "reportTime": "2026-07-19T12:00:00.000Z", "rawOb": "METAR RJOA 191200Z 13001KT 9999 FEW025 SCT/// 28/23 Q1009"}, "RJOM": {"temp": 27, "dewp": 25, "wdir": 250, "wspd": 2, "wgst": null, "reportTime": "2026-07-19T12:00:00.000Z", "rawOb": "METAR RJOM 191200Z 25002KT 9999 FEW030 SCT040 BKN050 27/25 Q1007"}, "RJOO": {"temp": 30, "dewp": 24, "wdir": 250, "wspd": 7, "wgst": null, "reportTime": "2026-07-19T12:00:00.000Z", "rawOb": "METAR RJOO 191200Z AUTO 25007KT 210V300 9999 NCD 30/24 Q1007"}, "RJBE": {"temp": 27, "dewp": 26, "wdir": 260, "wspd": 7, "wgst": null, "reportTime": "2026-07-19T12:00:00.000Z", "rawOb": "METAR RJBE 191200Z 26007KT 9999 FEW020 SCT040 27/26 Q1008"}, "RJOB": {"temp": 27, "dewp": 24, "wdir": 80, "wspd": 6, "wgst": null, "reportTime": "2026-07-19T12:00:00.000Z", "rawOb": "METAR RJOB 191200Z 08006KT 9999 FEW020 SCT070 27/24 Q1008"}, "RJSK": {"temp": 26, "dewp": 25, "wdir": 250, "wspd": 3, "wgst": null, "reportTime": "2026-07-19T12:00:00.000Z", "rawOb": "METAR RJSK 191200Z 25003KT 220V290 9999 -SHRA FEW005 BKN009 26/25 Q1007"}, "_updated": "2026-07-19T14:13:03Z"}