{"RJOA": {"temp": 26, "dewp": 22, "wdir": 290, "wspd": 4, "wgst": null, "reportTime": "2026-07-18T16:00:00.000Z", "rawOb": "METAR RJOA 181600Z AUTO 29004KT 9999 NCD 26/22 Q1006"}, "RJGG": {"temp": 27, "dewp": 25, "wdir": 110, "wspd": 11, "wgst": null, "reportTime": "2026-07-18T16:00:00.000Z", "rawOb": "METAR RJGG 181600Z AUTO 11011KT 9999 FEW017 BKN021 BKN029 27/25 Q1006 NOSIG"}, "RJOM": {"temp": 26, "dewp": 24, "wdir": 340, "wspd": 5, "wgst": null, "reportTime": "2026-07-18T16:00:00.000Z", "rawOb": "METAR RJOM 181600Z AUTO 34005KT 9999 NCD 26/24 Q1004"}, "RJOO": {"temp": 29, "dewp": 23, "wdir": 80, "wspd": 6, "wgst": null, "reportTime": "2026-07-18T16:00:00.000Z", "rawOb": "METAR RJOO 181600Z AUTO 08006KT 9999 NSC 29/23 Q1005"}, "RJOT": {"temp": 26, "dewp": 25, "wdir": 140, "wspd": 6, "wgst": null, "reportTime": "2026-07-18T16:00:00.000Z", "rawOb": "METAR RJOT 181600Z AUTO 14006KT 9999 FEW060 BKN070 26/25 Q1006"}, "RJSS": {"temp": 22, "dewp": 21, "wdir": 160, "wspd": 9, "wgst": null, "reportTime": "2026-07-18T16:00:00.000Z", "rawOb": "METAR RJSS 181600Z AUTO 16009KT 5000 BR OVC001 22/21 Q1007"}, "RJTT": {"temp": 26, "dewp": 23, "wdir": 180, "wspd": 8, "wgst": null, "reportTime": "2026-07-18T16:00:00.000Z", "rawOb": "METAR RJTT 181600Z 18008KT 9999 FEW015 BKN040 26/23 Q1007 NOSIG"}, "RJAA": {"temp": 23, "dewp": 23, "wdir": 150, "wspd": 3, "wgst": null, "reportTime": "2026-07-18T16:00:00.000Z", "rawOb": "METAR RJAA 181600Z AUTO 15003KT 9999 BKN042 BKN046 23/23 Q1008 NOSIG"}, "ROAH": {"temp": 28, "dewp": 27, "wdir": 200, "wspd": 7, "wgst": null, "reportTime": "2026-07-18T16:00:00.000Z", "rawOb": "METAR ROAH 181600Z AUTO 20007KT 9000 BKN005 OVC007 28/27 Q1006"}, "RJBB": {"temp": 28, "dewp": 26, "wdir": 320, "wspd": 3, "wgst": null, "reportTime": "2026-07-18T16:00:00.000Z", "rawOb": "METAR RJBB 181600Z AUTO 32003KT 9999 NCD 28/26 Q1006 NOSIG"}, "RJCK": {"temp": 19, "dewp": 19, "wdir": 150, "wspd": 10, "wgst": null, "reportTime": "2026-07-18T16:00:00.000Z", "rawOb": "METAR RJCK 181600Z AUTO 15010KT 0200 R17/0650N FG OVC001 19/19 Q1010"}, "RJEC": {"temp": 20, "dewp": 19, "wdir": "VRB", "wspd": 2, "wgst": null, "reportTime": "2026-07-18T16:00:00.000Z", "rawOb": "METAR RJEC 181600Z AUTO VRB02KT 9999 -RA FEW060 BKN070 OVC080 20/19 Q1006"}, "RJFF": {"temp": 29, "dewp": 25, "wdir": 150, "wspd": 11, "wgst": null, "reportTime": "2026-07-18T16:00:00.000Z", "rawOb": "METAR RJFF 181600Z AUTO 15011KT 9999 FEW039 BKN048 29/25 Q1004 NOSIG"}, "_updated": "2026-07-18T18:38:40Z"}