{"RJAA": {"temp": 25, "dewp": 23, "wdir": 220, "wspd": 6, "wgst": null, "reportTime": "2026-07-12T16:00:00.000Z", "rawOb": "METAR RJAA 121600Z AUTO 22006KT 9999 -RA NSC 25/23 Q1007 NOSIG"}, "ROAH": {"temp": 27, "dewp": 26, "wdir": 150, "wspd": 19, "wgst": null, "reportTime": "2026-07-12T16:00:00.000Z", "rawOb": "METAR ROAH 121600Z AUTO 15019KT 9999 SCT008 BKN010 OVC021 27/26 Q1011"}, "RJTT": {"temp": 26, "dewp": 24, "wdir": 190, "wspd": 8, "wgst": null, "reportTime": "2026-07-12T16:00:00.000Z", "rawOb": "METAR RJTT 121600Z 19008KT 9999 -SHRA FEW010 BKN140 26/24 Q1007 NOSIG"}, "RJGG": {"temp": 28, "dewp": 25, "wdir": 290, "wspd": 9, "wgst": null, "reportTime": "2026-07-12T16:00:00.000Z", "rawOb": "METAR RJGG 121600Z AUTO 29009KT 9999 NSC 28/25 Q1010 NOSIG"}, "RJFF": {"temp": 29, "dewp": 23, "wdir": 150, "wspd": 7, "wgst": null, "reportTime": "2026-07-12T16:00:00.000Z", "rawOb": "METAR RJFF 121600Z AUTO 15007KT 9999 NCD 29/23 Q1012 NOSIG"}, "RJBB": {"temp": 26, "dewp": 25, "wdir": 240, "wspd": 5, "wgst": null, "reportTime": "2026-07-12T16:00:00.000Z", "rawOb": "METAR RJBB 121600Z AUTO 24005KT 9999 NSC 26/25 Q1012 NOSIG"}, "RJEC": {"temp": 21, "dewp": 21, "wdir": 160, "wspd": 2, "wgst": null, "reportTime": "2026-07-12T16:00:00.000Z", "rawOb": "METAR RJEC 121600Z AUTO 16002KT 2400 BR BKN007 OVC029 21/21 Q1005"}, "RJOM": {"temp": 25, "dewp": 25, "wdir": 340, "wspd": 2, "wgst": null, "reportTime": "2026-07-12T16:00:00.000Z", "rawOb": "METAR RJOM 121600Z AUTO 34002KT 9999 NCD 25/25 Q1012"}, "RJOA": {"temp": 25, "dewp": 24, "wdir": 300, "wspd": 6, "wgst": null, "reportTime": "2026-07-12T16:00:00.000Z", "rawOb": "METAR RJOA 121600Z AUTO 30006KT 9999 NCD 25/24 Q1014"}, "RJSS": {"temp": 24, "dewp": 21, "wdir": 210, "wspd": 5, "wgst": null, "reportTime": "2026-07-12T16:00:00.000Z", "rawOb": "METAR RJSS 121600Z AUTO 21005KT 9999 NSC 24/21 Q1005"}, "RJOT": {"temp": 26, "dewp": 24, "wdir": 220, "wspd": 6, "wgst": null, "reportTime": "2026-07-12T16:00:00.000Z", "rawOb": "METAR RJOT 121600Z AUTO 22006KT 9999 NCD 26/24 Q1013"}, "RJOO": {"temp": 28, "dewp": 23, "wdir": 240, "wspd": 3, "wgst": null, "reportTime": "2026-07-12T16:00:00.000Z", "rawOb": "METAR RJOO 121600Z AUTO 24003KT 170V290 9999 NSC 28/23 Q1011"}, "RJCK": {"temp": 18, "dewp": 18, "wdir": "VRB", "wspd": 1, "wgst": null, "reportTime": "2026-07-12T16:00:00.000Z", "rawOb": "METAR RJCK 121600Z AUTO VRB01KT 0100 R17/0450N FG OVC000 18/18 Q1005"}, "_updated": "2026-07-12T18:40:18Z"}