{"RJFF": {"temp": 36, "dewp": 24, "wdir": "VRB", "wspd": 6, "wgst": 17, "reportTime": "2026-07-12T06:00:00.000Z", "rawOb": "METAR RJFF 120600Z VRB06G17KT 9999 FEW030 SCT045 36/24 Q1011 BECMG 29008KT TEMPO -TSRA"}, "RJBB": {"temp": 31, "dewp": 24, "wdir": 210, "wspd": 4, "wgst": null, "reportTime": "2026-07-12T06:00:00.000Z", "rawOb": "METAR RJBB 120600Z 21004KT 170V250 9999 FEW020 BKN/// 31/24 Q1012 NOSIG"}, "RJTT": {"temp": 28, "dewp": 24, "wdir": 180, "wspd": 14, "wgst": null, "reportTime": "2026-07-12T06:00:00.000Z", "rawOb": "METAR RJTT 120600Z 18014KT 9999 -RA FEW020 BKN130 BKN/// 28/24 Q1009 NOSIG"}, "RJGG": {"temp": 30, "dewp": 26, "wdir": 230, "wspd": 4, "wgst": null, "reportTime": "2026-07-12T06:00:00.000Z", "rawOb": "METAR RJGG 120600Z 23004KT 9999 FEW020 BKN/// 30/26 Q1010 NOSIG"}, "RJAA": {"temp": 28, "dewp": 23, "wdir": 200, "wspd": 7, "wgst": null, "reportTime": "2026-07-12T06:00:00.000Z", "rawOb": "METAR RJAA 120600Z 20007KT 170V230 9999 VCSH FEW020 SCT070 BKN120 28/23 Q1010 NOSIG"}, "ROAH": {"temp": 29, "dewp": 26, "wdir": 160, "wspd": 22, "wgst": null, "reportTime": "2026-07-12T06:00:00.000Z", "rawOb": "METAR ROAH 120600Z 16022KT 9999 FEW009 BKN011 BKN/// 29/26 Q1009"}, "RJOO": {"temp": 32, "dewp": 23, "wdir": 190, "wspd": 6, "wgst": null, "reportTime": "2026-07-12T06:00:00.000Z", "rawOb": "METAR RJOO 120600Z 19006KT 130V300 9999 FEW030 BKN/// 32/23 Q1011"}, "RJBE": {"temp": 29, "dewp": 25, "wdir": 220, "wspd": 8, "wgst": null, "reportTime": "2026-07-12T06:00:00.000Z", "rawOb": "METAR RJBE 120600Z 22008KT 9999 FEW030 BKN/// 29/25 Q1012"}, "RJCB": {"temp": 27, "dewp": 23, "wdir": 150, "wspd": 3, "wgst": null, "reportTime": "2026-07-12T06:00:00.000Z", "rawOb": "METAR RJCB 120600Z 15003KT 100V190 9999 -SHRA FEW010 SCT030 BKN120 27/23 Q1004"}, "RJCK": {"temp": 18, "dewp": 18, "wdir": 160, "wspd": 7, "wgst": null, "reportTime": "2026-07-12T06:00:00.000Z", "rawOb": "METAR RJCK 120600Z 16007KT 0200 R17/0300V1000N FG VV001 18/18 Q1005"}, "RJCO": {"temp": 25, "dewp": 23, "wdir": 340, "wspd": 7, "wgst": null, "reportTime": "2026-07-12T06:00:00.000Z", "rawOb": "METAR RJCO 120600Z 34007KT 9999 FEW020 BKN025 BKN060 25/23 Q1004"}, "RJEC": {"temp": 22, "dewp": 22, "wdir": 300, "wspd": 5, "wgst": null, "reportTime": "2026-07-12T06:00:00.000Z", "rawOb": "METAR RJEC 120600Z 30005KT 5000 TSRA BR FEW003 SCT013 BKN025 FEW025CB 22/22 Q1005"}, "RJOB": {"temp": 32, "dewp": 25, "wdir": 180, "wspd": 7, "wgst": null, "reportTime": "2026-07-12T06:00:00.000Z", "rawOb": "METAR RJOB 120600Z 18007KT 140V240 9999 FEW025 BKN/// 32/25 Q1013"}, "RJOM": {"temp": 29, "dewp": 26, "wdir": 240, "wspd": 4, "wgst": null, "reportTime": "2026-07-12T06:00:00.000Z", "rawOb": "METAR RJOM 120600Z 24004KT 9999 FEW030 BKN/// 29/26 Q1012"}, "RJOT": {"temp": 32, "dewp": 23, "wdir": 270, "wspd": 10, "wgst": null, "reportTime": "2026-07-12T06:00:00.000Z", "rawOb": "METAR RJOT 120600Z 27010KT 9999 FEW030 BKN/// 32/23 Q1013"}, "RJOA": {"temp": 30, "dewp": 24, "wdir": 180, "wspd": 5, "wgst": null, "reportTime": "2026-07-12T06:00:00.000Z", "rawOb": "METAR RJOA 120600Z 18005KT 130V230 9999 FEW020 BKN/// 30/24 Q1014"}, "RJSK": {"temp": 24, "dewp": 23, "wdir": 290, "wspd": 17, "wgst": null, "reportTime": "2026-07-12T06:00:00.000Z", "rawOb": "METAR RJSK 120600Z 29017KT 3500 R28/1400VP2000U -SHRA BR FEW000 SCT003 BKN004 24/23 Q1007"}, "RJSS": {"temp": 27, "dewp": 24, "wdir": 190, "wspd": 7, "wgst": null, "reportTime": "2026-07-12T06:00:00.000Z", "rawOb": "METAR RJSS 120600Z 19007KT 9999 -SHRA FEW010 SCT050 BKN120 27/24 Q1006"}, "_updated": "2026-07-12T08:54:42Z"}