{"RJBB": {"temp": 25, "dewp": 22, "wdir": 170, "wspd": 5, "wgst": null, "reportTime": "2026-07-07T15:30:00.000Z", "rawOb": "METAR RJBB 071530Z AUTO 17005KT 120V190 9999 SCT029 BKN033 OVC042 25/22 Q1013 BECMG 05004KT"}, "RJOT": {"temp": 23, "dewp": 23, "wdir": "VRB", "wspd": 1, "wgst": null, "reportTime": "2026-07-07T16:00:00.000Z", "rawOb": "METAR RJOT 071600Z AUTO VRB01KT 9999 FEW027 SCT029 BKN034 23/23 Q1012"}, "RJCK": {"temp": 16, "dewp": 16, "wdir": 170, "wspd": 2, "wgst": null, "reportTime": "2026-07-07T16:00:00.000Z", "rawOb": "METAR RJCK 071600Z AUTO 17002KT 0200 R35/0375N FG OVC001 16/16 Q1015"}, "RJOO": {"temp": 25, "dewp": 20, "wdir": 80, "wspd": 5, "wgst": null, "reportTime": "2026-07-07T16:00:00.000Z", "rawOb": "METAR RJOO 071600Z AUTO 08005KT 9999 OVC019 25/20 Q1013"}, "RJEC": {"temp": 19, "dewp": 16, "wdir": 180, "wspd": 3, "wgst": null, "reportTime": "2026-07-07T16:00:00.000Z", "rawOb": "METAR RJEC 071600Z AUTO 18003KT 9999 NSC 19/16 Q1014"}, "RJOM": {"temp": 25, "dewp": 24, "wdir": 10, "wspd": 3, "wgst": null, "reportTime": "2026-07-07T16:00:00.000Z", "rawOb": "METAR RJOM 071600Z AUTO 01003KT 9999 FEW050 SCT070 OVC080 25/24 Q1011"}, "RJOA": {"temp": 23, "dewp": 23, "wdir": "VRB", "wspd": 2, "wgst": null, "reportTime": "2026-07-07T16:00:00.000Z", "rawOb": "METAR RJOA 071600Z AUTO VRB02KT 3800 -RA BR FEW007 OVC011 23/23 Q1013"}, "RJFF": {"temp": 27, "dewp": 25, "wdir": 140, "wspd": 8, "wgst": null, "reportTime": "2026-07-07T15:30:00.000Z", "rawOb": "METAR RJFF 071530Z AUTO 14008KT 9999 NCD 27/25 Q1010 NOSIG"}, "RJGG": {"temp": 23, "dewp": 21, "wdir": 170, "wspd": 9, "wgst": null, "reportTime": "2026-07-07T15:30:00.000Z", "rawOb": "METAR RJGG 071530Z AUTO 17009KT 9999 OVC045 23/21 Q1013 NOSIG"}, "RJTT": {"temp": 23, "dewp": 20, "wdir": 70, "wspd": 6, "wgst": null, "reportTime": "2026-07-07T15:30:00.000Z", "rawOb": "METAR RJTT 071530Z 07006KT 9999 FEW015 BKN060 23/20 Q1014 NOSIG"}, "ROAH": {"temp": 28, "dewp": 25, "wdir": 70, "wspd": 7, "wgst": null, "reportTime": "2026-07-07T15:30:00.000Z", "rawOb": "METAR ROAH 071530Z AUTO 07007KT 9999 FEW019 28/25 Q1009"}, "RJAA": {"temp": 21, "dewp": 19, "wdir": 40, "wspd": 5, "wgst": null, "reportTime": "2026-07-07T15:30:00.000Z", "rawOb": "METAR RJAA 071530Z AUTO 04005KT 9999 NCD 21/19 Q1014 NOSIG"}, "RJSS": {"temp": 21, "dewp": 20, "wdir": 170, "wspd": 6, "wgst": null, "reportTime": "2026-07-07T16:00:00.000Z", "rawOb": "METAR RJSS 071600Z AUTO 17006KT 9999 FEW008 BKN050 21/20 Q1014"}, "_updated": "2026-07-07T18:22:35Z"}