{"RJTT": {"temp": 26, "dewp": 23, "wdir": 180, "wspd": 6, "wgst": null, "reportTime": "2026-07-11T21:00:00.000Z", "rawOb": "METAR RJTT 112100Z 18006KT 9999 FEW015 BKN180 BKN/// 26/23 Q1011 NOSIG"}, "RJFF": {"temp": 28, "dewp": 23, "wdir": 160, "wspd": 7, "wgst": null, "reportTime": "2026-07-11T21:00:00.000Z", "rawOb": "METAR RJFF 112100Z 16007KT 9999 FEW035 SCT/// 28/23 Q1012 NOSIG"}, "RJBB": {"temp": 25, "dewp": 23, "wdir": 210, "wspd": 6, "wgst": null, "reportTime": "2026-07-11T21:00:00.000Z", "rawOb": "METAR RJBB 112100Z 21006KT 9999 FEW020 SCT180 BKN/// 25/23 Q1014 NOSIG"}, "RJAA": {"temp": 24, "dewp": 22, "wdir": 160, "wspd": 4, "wgst": null, "reportTime": "2026-07-11T21:00:00.000Z", "rawOb": "METAR RJAA 112100Z 16004KT CAVOK 24/22 Q1011 NOSIG"}, "ROAH": {"temp": 27, "dewp": 26, "wdir": 150, "wspd": 22, "wgst": null, "reportTime": "2026-07-11T21:00:00.000Z", "rawOb": "METAR ROAH 112100Z 15022KT 8000 FEW009 BKN011 BKN020 27/26 Q1007"}, "RJGG": {"temp": 26, "dewp": 24, "wdir": 300, "wspd": 4, "wgst": null, "reportTime": "2026-07-11T21:00:00.000Z", "rawOb": "METAR RJGG 112100Z 30004KT CAVOK 26/24 Q1012 NOSIG"}, "RJEC": {"temp": 23, "dewp": 21, "wdir": 170, "wspd": 10, "wgst": null, "reportTime": "2026-07-11T21:00:00.000Z", "rawOb": "METAR RJEC 112100Z AUTO 17010KT 9999 BKN033 OVC038 23/21 Q1007"}, "RJOM": {"temp": 26, "dewp": 24, "wdir": 120, "wspd": 5, "wgst": null, "reportTime": "2026-07-11T21:00:00.000Z", "rawOb": "METAR RJOM 112100Z AUTO 12005KT 9999 NCD 26/24 Q1013"}, "RJSK": {"temp": 24, "dewp": 23, "wdir": 250, "wspd": 8, "wgst": null, "reportTime": "2026-07-11T22:00:00.000Z", "rawOb": "METAR RJSK 112200Z 25008KT 6000 -SHRA FEW000 BKN005 BKN007 24/23 Q1010"}, "RJSS": {"temp": 22, "dewp": 22, "wdir": "VRB", "wspd": 2, "wgst": null, "reportTime": "2026-07-11T21:00:00.000Z", "rawOb": "METAR RJSS 112100Z AUTO VRB02KT 9999 -RA OVC004 //////TCU 22/22 Q1011"}, "RJBE": {"temp": 25, "dewp": 24, "wdir": 250, "wspd": 5, "wgst": null, "reportTime": "2026-07-11T22:00:00.000Z", "rawOb": "METAR RJBE 112200Z 25005KT 9999 FEW010 BKN035 BKN/// 25/24 Q1014"}, "RJCB": {"temp": 23, "dewp": 23, "wdir": "VRB", "wspd": 2, "wgst": null, "reportTime": "2026-07-11T23:00:00.000Z", "rawOb": "METAR RJCB 112300Z VRB02KT 9999 FEW005 SCT007 BKN010 23/23 Q1007"}, "RJCK": {"temp": 18, "dewp": 18, "wdir": "VRB", "wspd": 2, "wgst": null, "reportTime": "2026-07-11T21:00:00.000Z", "rawOb": "METAR RJCK 112100Z AUTO VRB02KT 0400 R17/0225V0550N FG OVC000 18/18 Q1008"}, "RJOT": {"temp": 24, "dewp": 23, "wdir": 150, "wspd": 4, "wgst": null, "reportTime": "2026-07-11T21:00:00.000Z", "rawOb": "METAR RJOT 112100Z AUTO 15004KT 9999 NCD 24/23 Q1014"}, "RJCO": {"temp": 23, "dewp": 21, "wdir": 140, "wspd": 5, "wgst": null, "reportTime": "2026-07-11T22:00:00.000Z", "rawOb": "METAR RJCO 112200Z 14005KT 9999 FEW008 SCT080 BKN170 23/21 Q1006"}, "RJOA": {"temp": 24, "dewp": 22, "wdir": 300, "wspd": 5, "wgst": null, "reportTime": "2026-07-11T21:00:00.000Z", "rawOb": "METAR RJOA 112100Z AUTO 30005KT 9999 NCD 24/22 Q1015"}, "RJOB": {"temp": 25, "dewp": 23, "wdir": "VRB", "wspd": 1, "wgst": null, "reportTime": "2026-07-11T22:00:00.000Z", "rawOb": "METAR RJOB 112200Z VRB01KT 9999 PRFG FEW000 25/23 Q1015"}, "RJOO": {"temp": 26, "dewp": 23, "wdir": 250, "wspd": 3, "wgst": null, "reportTime": "2026-07-11T21:00:00.000Z", "rawOb": "METAR RJOO 112100Z AUTO 25003KT 210V280 9999 FEW023 BKN240 26/23 Q1014"}, "_updated": "2026-07-11T23:59:22Z"}