{"RJFF": {"temp": 29, "dewp": 25, "wdir": 90, "wspd": 3, "wgst": null, "reportTime": "2026-07-13T13:00:00.000Z", "rawOb": "METAR RJFF 131300Z 09003KT 010V130 9999 FEW040 29/25 Q1011 NOSIG"}, "RJTT": {"temp": 28, "dewp": 23, "wdir": 200, "wspd": 4, "wgst": null, "reportTime": "2026-07-13T13:00:00.000Z", "rawOb": "METAR RJTT 131300Z 20004KT 160V300 CAVOK 28/23 Q1007 NOSIG"}, "RJBB": {"temp": 28, "dewp": 25, "wdir": 240, "wspd": 4, "wgst": null, "reportTime": "2026-07-13T13:00:00.000Z", "rawOb": "METAR RJBB 131300Z 24004KT 9999 FEW030 SCT040 BKN/// 28/25 Q1010 NOSIG"}, "RJAA": {"temp": 26, "dewp": 25, "wdir": 240, "wspd": 3, "wgst": null, "reportTime": "2026-07-13T13:00:00.000Z", "rawOb": "METAR RJAA 131300Z 24003KT 9999 -SHRA NSC 26/25 Q1008 NOSIG"}, "RJGG": {"temp": 27, "dewp": 23, "wdir": 310, "wspd": 19, "wgst": null, "reportTime": "2026-07-13T13:00:00.000Z", "rawOb": "METAR RJGG 131300Z 31019KT 9999 FEW020 BKN/// 27/23 Q1009 NOSIG"}, "ROAH": {"temp": 27, "dewp": 25, "wdir": 160, "wspd": 13, "wgst": null, "reportTime": "2026-07-13T13:00:00.000Z", "rawOb": "METAR ROAH 131300Z 16013KT 9999 FEW010 27/25 Q1012"}, "RJOO": {"temp": null, "dewp": null, "wdir": 320, "wspd": 5, "wgst": null, "reportTime": "2026-07-13T13:00:00.000Z", "rawOb": "METAR RJOO 131300Z AUTO 32005KT 290V360 //// // ////// ///// Q////"}, "RJSS": {"temp": 23, "dewp": 22, "wdir": 160, "wspd": 5, "wgst": null, "reportTime": "2026-07-13T13:00:00.000Z", "rawOb": "METAR RJSS 131300Z AUTO 16005KT 9999 OVC070 23/22 Q1007"}, "RJOT": {"temp": 27, "dewp": 23, "wdir": 180, "wspd": 4, "wgst": null, "reportTime": "2026-07-13T13:00:00.000Z", "rawOb": "METAR RJOT 131300Z AUTO 18004KT 9999 NCD 27/23 Q1011"}, "RJOM": {"temp": 29, "dewp": 25, "wdir": 170, "wspd": 3, "wgst": null, "reportTime": "2026-07-13T13:00:00.000Z", "rawOb": "METAR RJOM 131300Z AUTO 17003KT 130V210 9999 NCD 29/25 Q1011"}, "RJOA": {"temp": 28, "dewp": 24, "wdir": 0, "wspd": 0, "wgst": null, "reportTime": "2026-07-13T13:00:00.000Z", "rawOb": "METAR RJOA 131300Z 00000KT 9999 FEW015 SCT/// 28/24 Q1013"}, "RJEC": {"temp": 22, "dewp": 20, "wdir": 20, "wspd": 3, "wgst": null, "reportTime": "2026-07-13T13:00:00.000Z", "rawOb": "METAR RJEC 131300Z AUTO 02003KT 9999 FEW016 SCT023 BKN030 22/20 Q1006"}, "RJCK": {"temp": 19, "dewp": 18, "wdir": 90, "wspd": 3, "wgst": null, "reportTime": "2026-07-13T13:00:00.000Z", "rawOb": "METAR RJCK 131300Z AUTO 09003KT 050V130 9999 OVC023 19/18 Q1005"}, "RJBE": {"temp": 30, "dewp": 25, "wdir": "VRB", "wspd": 2, "wgst": null, "reportTime": "2026-07-13T13:00:00.000Z", "rawOb": "METAR RJBE 131300Z VRB02KT 9999 FEW025 BKN/// 30/25 Q1010"}, "_updated": "2026-07-13T15:57:59Z"}