{"ROAH": {"temp": 31, "dewp": 25, "wdir": 50, "wspd": 9, "wgst": null, "reportTime": "2026-07-08T01:00:00.000Z", "rawOb": "METAR ROAH 080100Z 05009KT 9999 FEW025 31/25 Q1009"}, "RJAA": {"temp": 26, "dewp": 18, "wdir": 50, "wspd": 5, "wgst": null, "reportTime": "2026-07-08T01:00:00.000Z", "rawOb": "METAR RJAA 080100Z 05005KT 350V100 9999 SCT030 BKN/// 26/18 Q1014 BECMG 08006KT"}, "RJFF": {"temp": 31, "dewp": 25, "wdir": 130, "wspd": 10, "wgst": null, "reportTime": "2026-07-08T01:00:00.000Z", "rawOb": "METAR RJFF 080100Z 13010KT 9999 FEW020 SCT040 BKN050 31/25 Q1011 NOSIG"}, "RJTT": {"temp": 25, "dewp": 19, "wdir": 70, "wspd": 3, "wgst": null, "reportTime": "2026-07-08T01:00:00.000Z", "rawOb": "METAR RJTT 080100Z 07003KT 030V100 9999 FEW010 BKN/// 25/19 Q1015 NOSIG"}, "RJBB": {"temp": 26, "dewp": 23, "wdir": 340, "wspd": 6, "wgst": null, "reportTime": "2026-07-08T01:00:00.000Z", "rawOb": "METAR RJBB 080100Z 34006KT 9999 FEW020 SCT035 BKN/// 26/23 Q1013 BECMG 30005KT"}, "RJGG": {"temp": 25, "dewp": 22, "wdir": 260, "wspd": 4, "wgst": null, "reportTime": "2026-07-08T01:00:00.000Z", "rawOb": "METAR RJGG 080100Z 26004KT 9999 FEW015 BKN/// 25/22 Q1014 BECMG TL0130 21006KT"}, "RJBE": {"temp": 28, "dewp": 21, "wdir": 140, "wspd": 4, "wgst": null, "reportTime": "2026-07-08T01:00:00.000Z", "rawOb": "METAR RJBE 080100Z 14004KT 020V180 9999 FEW020 BKN/// 28/21 Q1013"}, "RJCB": {"temp": 21, "dewp": 18, "wdir": "VRB", "wspd": 3, "wgst": null, "reportTime": "2026-07-08T01:00:00.000Z", "rawOb": "METAR RJCB 080100Z VRB03KT 9999 FEW007 SCT010 BKN015 21/18 Q1016"}, "RJEC": {"temp": 24, "dewp": 17, "wdir": "VRB", "wspd": 4, "wgst": null, "reportTime": "2026-07-08T01:00:00.000Z", "rawOb": "METAR RJEC 080100Z VRB04KT 9999 FEW030 BKN/// 24/17 Q1015"}, "RJSS": {"temp": 24, "dewp": 19, "wdir": 120, "wspd": 10, "wgst": null, "reportTime": "2026-07-08T01:00:00.000Z", "rawOb": "METAR RJSS 080100Z 12010KT 9999 FEW010 BKN/// 24/19 Q1015"}, "RJOT": {"temp": 27, "dewp": 23, "wdir": "VRB", "wspd": 3, "wgst": null, "reportTime": "2026-07-08T01:00:00.000Z", "rawOb": "METAR RJOT 080100Z VRB03KT 9999 VCSH FEW010 SCT035 BKN050 27/23 Q1013"}, "RJOB": {"temp": 25, "dewp": 23, "wdir": 110, "wspd": 3, "wgst": null, "reportTime": "2026-07-08T01:00:00.000Z", "rawOb": "METAR RJOB 080100Z 11003KT 030V180 9999 FEW008 SCT009 BKN010 25/23 Q1013"}, "RJOM": {"temp": 28, "dewp": 25, "wdir": 350, "wspd": 7, "wgst": null, "reportTime": "2026-07-08T01:00:00.000Z", "rawOb": "METAR RJOM 080100Z 35007KT 9999 FEW008 SCT/// 28/25 Q1012"}, "RJSK": {"temp": 27, "dewp": 19, "wdir": 140, "wspd": 4, "wgst": null, "reportTime": "2026-07-08T01:00:00.000Z", "rawOb": "METAR RJSK 080100Z 14004KT 090V190 9999 FEW030 BKN070 27/19 Q1014"}, "RJOO": {"temp": 28, "dewp": 20, "wdir": "VRB", "wspd": 4, "wgst": null, "reportTime": "2026-07-08T01:00:00.000Z", "rawOb": "METAR RJOO 080100Z VRB04KT 9999 FEW025 SCT035 BKN/// 28/20 Q1013"}, "RJCK": {"temp": 18, "dewp": 18, "wdir": 180, "wspd": 8, "wgst": null, "reportTime": "2026-07-08T01:00:00.000Z", "rawOb": "METAR RJCK 080100Z 18008KT 9999 PRFG FEW001 SCT006 BKN100 18/18 Q1016"}, "RJCO": {"temp": 24, "dewp": 17, "wdir": 140, "wspd": 13, "wgst": null, "reportTime": "2026-07-08T01:00:00.000Z", "rawOb": "METAR RJCO 080100Z 14013KT 9999 FEW030 SCT230 24/17 Q1014"}, "RJOA": {"temp": 25, "dewp": 23, "wdir": 120, "wspd": 3, "wgst": null, "reportTime": "2026-07-08T01:00:00.000Z", "rawOb": "METAR RJOA 080100Z 12003KT 070V200 9999 FEW008 BKN010 BKN035 25/23 Q1014"}, "_updated": "2026-07-08T03:48:05Z"}