{"RJTT": {"temp": 30, "dewp": 26, "wdir": 160, "wspd": 6, "wgst": null, "reportTime": "2026-07-20T00:00:00.000Z", "rawOb": "METAR RJTT 200000Z 16006KT 130V200 9999 FEW020 30/26 Q1008 NOSIG"}, "ROAH": {"temp": 30, "dewp": 28, "wdir": 190, "wspd": 7, "wgst": null, "reportTime": "2026-07-20T00:00:00.000Z", "rawOb": "METAR ROAH 200000Z 19007KT 9999 VCSH FEW007 SCT027 30/28 Q1008"}, "RJAA": {"temp": 31, "dewp": 25, "wdir": "VRB", "wspd": 3, "wgst": null, "reportTime": "2026-07-20T00:00:00.000Z", "rawOb": "METAR RJAA 200000Z VRB03KT 9999 FEW020 31/25 Q1008 NOSIG"}, "RJBB": {"temp": 29, "dewp": 25, "wdir": 320, "wspd": 4, "wgst": null, "reportTime": "2026-07-20T00:00:00.000Z", "rawOb": "METAR RJBB 200000Z 32004KT 9999 FEW020 SCT100 29/25 Q1009 NOSIG"}, "RJFF": {"temp": 31, "dewp": 26, "wdir": 120, "wspd": 11, "wgst": null, "reportTime": "2026-07-20T00:00:00.000Z", "rawOb": "METAR RJFF 200000Z 12011KT 9999 FEW015 BKN035 31/26 Q1008 NOSIG"}, "RJGG": {"temp": 29, "dewp": 26, "wdir": 290, "wspd": 5, "wgst": null, "reportTime": "2026-07-20T00:00:00.000Z", "rawOb": "METAR RJGG 200000Z 29005KT 9999 FEW015 29/26 Q1009 BECMG FM0130 24008KT"}, "RJOM": {"temp": 31, "dewp": 26, "wdir": 350, "wspd": 8, "wgst": null, "reportTime": "2026-07-20T00:00:00.000Z", "rawOb": "METAR RJOM 200000Z 35008KT 9999 FEW030 31/26 Q1008"}, "RJCB": {"temp": 22, "dewp": 21, "wdir": 310, "wspd": 3, "wgst": null, "reportTime": "2026-07-20T00:00:00.000Z", "rawOb": "METAR RJCB 200000Z 31003KT 220V360 9999 FEW005 SCT006 BKN008 22/21 Q1006"}, "RJBE": {"temp": 30, "dewp": 25, "wdir": 290, "wspd": 3, "wgst": null, "reportTime": "2026-07-20T00:00:00.000Z", "rawOb": "METAR RJBE 200000Z 29003KT 230V330 9999 FEW015 BKN090 30/25 Q1009"}, "RJCK": {"temp": 21, "dewp": 21, "wdir": 40, "wspd": 4, "wgst": null, "reportTime": "2026-07-20T00:00:00.000Z", "rawOb": "METAR RJCK 200000Z 04004KT 360V090 9999 PRFG FEW001 SCT005 BKN006 21/21 Q1005"}, "RJCO": {"temp": 22, "dewp": 21, "wdir": 320, "wspd": 5, "wgst": null, "reportTime": "2026-07-20T00:00:00.000Z", "rawOb": "METAR RJCO 200000Z 32005KT 6000 FEW003 BKN005 BKN008 22/21 Q1006"}, "RJEC": {"temp": 24, "dewp": 22, "wdir": "VRB", "wspd": 1, "wgst": null, "reportTime": "2026-07-20T00:00:00.000Z", "rawOb": "METAR RJEC 200000Z VRB01KT 9999 FEW002 SCT007 BKN015 24/22 Q1006"}, "RJOA": {"temp": 29, "dewp": 24, "wdir": "VRB", "wspd": 2, "wgst": null, "reportTime": "2026-07-20T00:00:00.000Z", "rawOb": "METAR RJOA 200000Z VRB02KT 9999 FEW015 SCT020 BKN/// 29/24 Q1011"}, "RJOB": {"temp": 29, "dewp": 25, "wdir": "VRB", "wspd": 2, "wgst": null, "reportTime": "2026-07-20T00:00:00.000Z", "rawOb": "METAR RJOB 200000Z VRB02KT 9999 FEW009 SCT010 BKN015 29/25 Q1010"}, "RJOO": {"temp": 31, "dewp": 24, "wdir": 230, "wspd": 5, "wgst": null, "reportTime": "2026-07-20T00:00:00.000Z", "rawOb": "METAR RJOO 200000Z 23005KT 160V340 9999 FEW020 SCT030 31/24 Q1009"}, "RJOT": {"temp": 30, "dewp": 25, "wdir": 30, "wspd": 4, "wgst": null, "reportTime": "2026-07-20T00:00:00.000Z", "rawOb": "METAR RJOT 200000Z 03004KT 330V080 9999 FEW015 30/25 Q1010"}, "RJSK": {"temp": 24, "dewp": 24, "wdir": 260, "wspd": 5, "wgst": null, "reportTime": "2026-07-20T00:00:00.000Z", "rawOb": "METAR RJSK 200000Z 26005KT 3500 -SHRA BR FEW001 SCT002 BKN003 24/24 Q1008"}, "RJSS": {"temp": 28, "dewp": 25, "wdir": 120, "wspd": 7, "wgst": null, "reportTime": "2026-07-20T00:00:00.000Z", "rawOb": "METAR RJSS 200000Z 12007KT 9999 FEW050 28/25 Q1007"}, "_updated": "2026-07-20T02:54:02Z"}