{"ROAH": {"temp": 27, "dewp": 26, "wdir": 190, "wspd": 4, "wgst": null, "reportTime": "2026-07-02T18:30:00.000Z", "rawOb": "METAR ROAH 021830Z AUTO 19004KT 9999 NCD 27/26 Q1014"}, "RJOM": {"temp": 21, "dewp": 21, "wdir": 170, "wspd": 3, "wgst": null, "reportTime": "2026-07-02T19:00:00.000Z", "rawOb": "METAR RJOM 021900Z AUTO 17003KT 140V200 9999 NCD 21/21 Q1012"}, "RJOO": {"temp": 21, "dewp": 18, "wdir": 320, "wspd": 3, "wgst": null, "reportTime": "2026-07-02T19:00:00.000Z", "rawOb": "METAR RJOO 021900Z AUTO 32003KT 9999 FEW035 21/18 Q1011"}, "RJOT": {"temp": 20, "dewp": 19, "wdir": 180, "wspd": 3, "wgst": null, "reportTime": "2026-07-02T19:00:00.000Z", "rawOb": "METAR RJOT 021900Z AUTO 18003KT 9999 SCT050 20/19 Q1012"}, "RJSS": {"temp": 20, "dewp": 19, "wdir": 360, "wspd": 4, "wgst": null, "reportTime": "2026-07-02T19:00:00.000Z", "rawOb": "METAR RJSS 021900Z AUTO 36004KT 9000 -RA FEW002 SCT005 OVC012 20/19 Q1010"}, "RJAA": {"temp": 20, "dewp": 20, "wdir": 20, "wspd": 5, "wgst": null, "reportTime": "2026-07-02T18:30:00.000Z", "rawOb": "METAR RJAA 021830Z AUTO 02005KT 9999 BKN008 OVC010 20/20 Q1008 TEMPO FEW002 BKN005"}, "RJOA": {"temp": 19, "dewp": 17, "wdir": 20, "wspd": 1, "wgst": null, "reportTime": "2026-07-02T19:00:00.000Z", "rawOb": "METAR RJOA 021900Z AUTO 02001KT 9999 NCD 19/17 Q1013"}, "RJBB": {"temp": 22, "dewp": 18, "wdir": 60, "wspd": 8, "wgst": null, "reportTime": "2026-07-02T18:30:00.000Z", "rawOb": "METAR RJBB 021830Z AUTO 06008KT 9999 FEW026 SCT036 BKN038 22/18 Q1011 NOSIG"}, "RJCK": {"temp": 9, "dewp": 9, "wdir": 210, "wspd": 5, "wgst": null, "reportTime": "2026-07-02T19:00:00.000Z", "rawOb": "METAR RJCK 021900Z AUTO 21005KT 9999 BKN029 BKN036 09/09 Q1013"}, "RJEC": {"temp": 15, "dewp": 13, "wdir": 170, "wspd": 5, "wgst": null, "reportTime": "2026-07-02T19:00:00.000Z", "rawOb": "METAR RJEC 021900Z AUTO 17005KT 9999 FEW015 SCT018 BKN032 15/13 Q1013"}, "RJFF": {"temp": 21, "dewp": 20, "wdir": 100, "wspd": 2, "wgst": null, "reportTime": "2026-07-02T18:30:00.000Z", "rawOb": "METAR RJFF 021830Z AUTO 10002KT 9999 NSC 21/20 Q1013 NOSIG"}, "RJGG": {"temp": 23, "dewp": 20, "wdir": 290, "wspd": 10, "wgst": null, "reportTime": "2026-07-02T18:30:00.000Z", "rawOb": "METAR RJGG 021830Z AUTO 29010KT 9999 NCD 23/20 Q1008 NOSIG"}, "RJTT": {"temp": 21, "dewp": 20, "wdir": 40, "wspd": 10, "wgst": null, "reportTime": "2026-07-02T18:30:00.000Z", "rawOb": "METAR RJTT 021830Z 04010KT 7000 -RA FEW010 BKN035 21/20 Q1009 NOSIG"}, "_updated": "2026-07-02T21:18:08Z"}