{"RJAA": {"temp": 26, "dewp": 25, "wdir": 140, "wspd": 3, "wgst": null, "reportTime": "2026-07-15T16:00:00.000Z", "rawOb": "METAR RJAA 151600Z AUTO 14003KT 8000 FEW012 BKN015 OVC017 26/25 Q1001 TEMPO 4000 BR FEW008 BKN012"}, "RJFF": {"temp": 30, "dewp": 25, "wdir": 210, "wspd": 7, "wgst": null, "reportTime": "2026-07-15T16:00:00.000Z", "rawOb": "METAR RJFF 151600Z AUTO 21007KT 9999 OVC030 30/25 Q1003 NOSIG"}, "RJBB": {"temp": 27, "dewp": 24, "wdir": 250, "wspd": 6, "wgst": null, "reportTime": "2026-07-15T16:00:00.000Z", "rawOb": "METAR RJBB 151600Z AUTO 25006KT 9999 BKN050 27/24 Q1002 NOSIG"}, "RJTT": {"temp": 28, "dewp": 25, "wdir": 190, "wspd": 16, "wgst": null, "reportTime": "2026-07-15T16:00:00.000Z", "rawOb": "METAR RJTT 151600Z 19016KT 9999 FEW003 BKN010 BKN/// 28/25 Q1000 TEMPO FEW003 BKN008"}, "ROAH": {"temp": 27, "dewp": 27, "wdir": 240, "wspd": 11, "wgst": null, "reportTime": "2026-07-15T16:00:00.000Z", "rawOb": "METAR ROAH 151600Z AUTO 24011KT 9999 FEW005 SCT007 BKN008 27/27 Q1010"}, "RJGG": {"temp": 28, "dewp": 26, "wdir": 210, "wspd": 8, "wgst": null, "reportTime": "2026-07-15T16:00:00.000Z", "rawOb": "METAR RJGG 151600Z AUTO 21008KT 9999 NSC 28/26 Q1001 NOSIG"}, "RJCK": {"temp": 18, "dewp": 18, "wdir": 160, "wspd": 6, "wgst": null, "reportTime": "2026-07-15T16:00:00.000Z", "rawOb": "METAR RJCK 151600Z AUTO 16006KT 0100 R17/0400N FG OVC000 18/18 Q1000"}, "RJEC": {"temp": 23, "dewp": 21, "wdir": 160, "wspd": 14, "wgst": null, "reportTime": "2026-07-15T16:00:00.000Z", "rawOb": "METAR RJEC 151600Z AUTO 16014KT 9999 -RA FEW050 SCT100 BKN110 23/21 Q0994"}, "RJOA": {"temp": 26, "dewp": 23, "wdir": 240, "wspd": 2, "wgst": null, "reportTime": "2026-07-15T16:00:00.000Z", "rawOb": "METAR RJOA 151600Z AUTO 24002KT 9999 OVC018 26/23 Q1004"}, "RJOO": {"temp": 30, "dewp": 23, "wdir": 210, "wspd": 3, "wgst": null, "reportTime": "2026-07-15T16:00:00.000Z", "rawOb": "METAR RJOO 151600Z AUTO 21003KT 150V290 9999 NSC 30/23 Q1002"}, "RJOT": {"temp": 26, "dewp": 24, "wdir": 140, "wspd": 5, "wgst": null, "reportTime": "2026-07-15T16:00:00.000Z", "rawOb": "METAR RJOT 151600Z AUTO 14005KT 9999 FEW046 26/24 Q1003"}, "RJSS": {"temp": 25, "dewp": 24, "wdir": 150, "wspd": 2, "wgst": null, "reportTime": "2026-07-15T16:00:00.000Z", "rawOb": "METAR RJSS 151600Z AUTO 15002KT 6000 FEW070 SCT100 BKN140 25/24 Q1000"}, "RJOM": {"temp": 27, "dewp": 25, "wdir": "VRB", "wspd": 2, "wgst": null, "reportTime": "2026-07-15T16:00:00.000Z", "rawOb": "METAR RJOM 151600Z AUTO VRB02KT 9999 FEW041 27/25 Q1003"}, "_updated": "2026-07-15T18:38:34Z"}