{"RJSK": {"temp": 24, "dewp": 23, "wdir": 240, "wspd": 5, "wgst": null, "reportTime": "2026-07-13T22:00:00.000Z", "rawOb": "METAR RJSK 132200Z 24005KT 210V280 4500 -SHRA BR FEW004 BKN007 BKN012 24/23 Q1008"}, "RJOM": {"temp": 29, "dewp": 25, "wdir": "VRB", "wspd": 2, "wgst": null, "reportTime": "2026-07-13T22:00:00.000Z", "rawOb": "METAR RJOM 132200Z VRB02KT 9999 FEW010 29/25 Q1011"}, "RJOT": {"temp": 29, "dewp": 25, "wdir": 250, "wspd": 9, "wgst": null, "reportTime": "2026-07-13T22:00:00.000Z", "rawOb": "METAR RJOT 132200Z 25009KT 9999 FEW030 29/25 Q1011"}, "RJOB": {"temp": 28, "dewp": 24, "wdir": 260, "wspd": 3, "wgst": null, "reportTime": "2026-07-13T22:00:00.000Z", "rawOb": "METAR RJOB 132200Z 26003KT 240V310 CAVOK 28/24 Q1011"}, "RJGG": {"temp": 27, "dewp": 23, "wdir": 310, "wspd": 13, "wgst": null, "reportTime": "2026-07-13T21:30:00.000Z", "rawOb": "METAR RJGG 132130Z 31013KT 9999 FEW020 27/23 Q1009 NOSIG"}, "RJFF": {"temp": 28, "dewp": 23, "wdir": 140, "wspd": 5, "wgst": null, "reportTime": "2026-07-13T21:30:00.000Z", "rawOb": "METAR RJFF 132130Z 14005KT 9999 FEW015 SCT035 28/23 Q1011 NOSIG"}, "RJTT": {"temp": 28, "dewp": 23, "wdir": 180, "wspd": 7, "wgst": null, "reportTime": "2026-07-13T21:30:00.000Z", "rawOb": "METAR RJTT 132130Z 18007KT 9999 FEW020 BKN/// 28/23 Q1008 NOSIG"}, "RJEC": {"temp": 22, "dewp": 21, "wdir": "VRB", "wspd": 2, "wgst": null, "reportTime": "2026-07-13T22:00:00.000Z", "rawOb": "METAR RJEC 132200Z AUTO VRB02KT 9999 FEW006 BKN050 BKN070 22/21 Q1005"}, "RJCO": {"temp": 23, "dewp": 22, "wdir": 120, "wspd": 5, "wgst": null, "reportTime": "2026-07-13T22:00:00.000Z", "rawOb": "METAR RJCO 132200Z 12005KT 6000 -SHRA FEW015 BKN030 BKN060 23/22 Q1005"}, "RJCK": {"temp": 18, "dewp": 18, "wdir": 60, "wspd": 3, "wgst": null, "reportTime": "2026-07-13T22:00:00.000Z", "rawOb": "METAR RJCK 132200Z AUTO 06003KT 030V090 0200 R17/0225V0550N FG OVC000 18/18 Q1005"}, "RJCB": {"temp": 23, "dewp": 22, "wdir": "VRB", "wspd": 2, "wgst": null, "reportTime": "2026-07-13T23:00:00.000Z", "rawOb": "METAR RJCB 132300Z VRB02KT 9999 FEW005 SCT007 BKN080 23/22 Q1005"}, "RJBE": {"temp": 29, "dewp": 23, "wdir": 50, "wspd": 4, "wgst": null, "reportTime": "2026-07-13T22:00:00.000Z", "rawOb": "METAR RJBE 132200Z 05004KT 9999 FEW030 SCT050 BKN/// 29/23 Q1010"}, "RJOO": {"temp": 28, "dewp": 23, "wdir": 300, "wspd": 3, "wgst": null, "reportTime": "2026-07-13T22:00:00.000Z", "rawOb": "METAR RJOO 132200Z 30003KT 260V340 9999 FEW025 BKN045 28/23 Q1010"}, "RJBB": {"temp": 27, "dewp": 25, "wdir": "VRB", "wspd": 2, "wgst": null, "reportTime": "2026-07-13T21:30:00.000Z", "rawOb": "METAR RJBB 132130Z VRB02KT 9999 FEW020 27/25 Q1010 NOSIG"}, "RJAA": {"temp": 25, "dewp": 23, "wdir": 140, "wspd": 4, "wgst": null, "reportTime": "2026-07-13T21:30:00.000Z", "rawOb": "METAR RJAA 132130Z 14004KT CAVOK 25/23 Q1008 NOSIG"}, "RJSS": {"temp": 24, "dewp": 22, "wdir": 0, "wspd": 0, "wgst": null, "reportTime": "2026-07-13T22:00:00.000Z", "rawOb": "METAR RJSS 132200Z AUTO 00000KT 9999 NSC 24/22 Q1007"}, "RJOA": {"temp": 26, "dewp": 24, "wdir": "VRB", "wspd": 2, "wgst": null, "reportTime": "2026-07-13T22:00:00.000Z", "rawOb": "METAR RJOA 132200Z AUTO VRB02KT 9999 NCD 26/24 Q1012"}, "ROAH": {"temp": 27, "dewp": 25, "wdir": 160, "wspd": 12, "wgst": null, "reportTime": "2026-07-13T21:30:00.000Z", "rawOb": "METAR ROAH 132130Z 16012KT 9999 FEW007 BKN/// 27/25 Q1012"}, "_updated": "2026-07-14T00:10:00Z"}