{"RJCO": {"temp": 26, "dewp": 20, "wdir": 90, "wspd": 7, "wgst": null, "reportTime": "2026-07-24T02:00:00.000Z", "rawOb": "METAR RJCO 240200Z 09007KT 040V120 9999 FEW030 SCT150 BKN250 26/20 Q1012"}, "RJCB": {"temp": 19, "dewp": 16, "wdir": 130, "wspd": 7, "wgst": null, "reportTime": "2026-07-24T02:00:00.000Z", "rawOb": "METAR RJCB 240200Z 13007KT 9999 FEW005 SCT010 BKN012 19/16 Q1014"}, "RJBE": {"temp": 33, "dewp": 24, "wdir": 220, "wspd": 6, "wgst": null, "reportTime": "2026-07-24T02:00:00.000Z", "rawOb": "METAR RJBE 240200Z 22006KT 170V240 9999 FEW040 33/24 Q1010"}, "RJBB": {"temp": 31, "dewp": 25, "wdir": 300, "wspd": 6, "wgst": null, "reportTime": "2026-07-24T02:00:00.000Z", "rawOb": "METAR RJBB 240200Z 30006KT 9999 FEW030 31/25 Q1011 NOSIG"}, "RJOB": {"temp": 34, "dewp": 24, "wdir": 200, "wspd": 4, "wgst": null, "reportTime": "2026-07-24T02:00:00.000Z", "rawOb": "METAR RJOB 240200Z 20004KT 140V260 9999 FEW025 34/24 Q1012"}, "RJOA": {"temp": 32, "dewp": 24, "wdir": "VRB", "wspd": 4, "wgst": null, "reportTime": "2026-07-24T02:00:00.000Z", "rawOb": "METAR RJOA 240200Z VRB04KT 9999 FEW035 32/24 Q1013"}, "RJFF": {"temp": 33, "dewp": 22, "wdir": 310, "wspd": 7, "wgst": null, "reportTime": "2026-07-24T02:00:00.000Z", "rawOb": "METAR RJFF 240200Z 31007KT 290V360 9999 FEW020 33/22 Q1012 NOSIG"}, "RJGG": {"temp": 31, "dewp": 25, "wdir": 220, "wspd": 5, "wgst": null, "reportTime": "2026-07-24T02:00:00.000Z", "rawOb": "METAR RJGG 240200Z 22005KT 9999 FEW020 SCT/// 31/25 Q1010 NOSIG"}, "RJSS": {"temp": 25, "dewp": 23, "wdir": 150, "wspd": 7, "wgst": null, "reportTime": "2026-07-24T02:00:00.000Z", "rawOb": "METAR RJSS 240200Z 15007KT 9999 -SHRA FEW008 BKN010 BKN020 25/23 Q1011"}, "RJAA": {"temp": 30, "dewp": 26, "wdir": 120, "wspd": 6, "wgst": null, "reportTime": "2026-07-24T02:00:00.000Z", "rawOb": "METAR RJAA 240200Z 12006KT 070V190 9999 FEW015 BKN018 30/26 Q1011 NOSIG"}, "RJSK": {"temp": 27, "dewp": 24, "wdir": 180, "wspd": 3, "wgst": null, "reportTime": "2026-07-24T02:00:00.000Z", "rawOb": "METAR RJSK 240200Z 18003KT 140V230 9999 FEW004 SCT015 BKN110 27/24 Q1011"}, "RJOT": {"temp": 33, "dewp": 25, "wdir": 300, "wspd": 6, "wgst": null, "reportTime": "2026-07-24T02:00:00.000Z", "rawOb": "METAR RJOT 240200Z 30006KT 260V350 9999 FEW030 33/25 Q1012"}, "RJOO": {"temp": 35, "dewp": 23, "wdir": "VRB", "wspd": 4, "wgst": null, "reportTime": "2026-07-24T02:00:00.000Z", "rawOb": "METAR RJOO 240200Z VRB04KT 9999 FEW030 35/23 Q1010"}, "RJOM": {"temp": 31, "dewp": 26, "wdir": 270, "wspd": 6, "wgst": null, "reportTime": "2026-07-24T02:00:00.000Z", "rawOb": "METAR RJOM 240200Z 27006KT 9999 FEW030 31/26 Q1011"}, "RJTT": {"temp": 30, "dewp": 27, "wdir": 70, "wspd": 4, "wgst": null, "reportTime": "2026-07-24T02:00:00.000Z", "rawOb": "METAR RJTT 240200Z 07004KT 030V100 9999 FEW020 BKN050 30/27 Q1010 NOSIG"}, "ROAH": {"temp": 33, "dewp": 27, "wdir": 130, "wspd": 11, "wgst": null, "reportTime": "2026-07-24T02:00:00.000Z", "rawOb": "METAR ROAH 240200Z 13011KT 9999 FEW020 BKN/// 33/27 Q1010"}, "RJEC": {"temp": 23, "dewp": 19, "wdir": 30, "wspd": 4, "wgst": null, "reportTime": "2026-07-24T02:00:00.000Z", "rawOb": "METAR RJEC 240200Z 03004KT 330V070 9999 FEW013 SCT060 BKN150 23/19 Q1013"}, "RJCK": {"temp": 16, "dewp": 15, "wdir": 190, "wspd": 5, "wgst": null, "reportTime": "2026-07-24T02:00:00.000Z", "rawOb": "METAR RJCK 240200Z 19005KT 150V220 4000 -DZ BR FEW002 SCT005 BKN006 16/15 Q1014"}, "_updated": "2026-07-24T04:34:39Z"}