{"RJAA": {"temp": 23, "dewp": 23, "wdir": 150, "wspd": 3, "wgst": null, "reportTime": "2026-07-18T18:00:00.000Z", "rawOb": "METAR RJAA 181800Z AUTO 15003KT 9999 BKN033 23/23 Q1008 NOSIG"}, "ROAH": {"temp": 28, "dewp": 27, "wdir": 200, "wspd": 5, "wgst": null, "reportTime": "2026-07-18T18:00:00.000Z", "rawOb": "METAR ROAH 181800Z AUTO 20005KT 7000 BKN003 28/27 Q1006"}, "RJGG": {"temp": 27, "dewp": 25, "wdir": 120, "wspd": 11, "wgst": null, "reportTime": "2026-07-18T18:00:00.000Z", "rawOb": "METAR RJGG 181800Z AUTO 12011KT 9999 FEW026 SCT039 BKN050 27/25 Q1007 NOSIG"}, "RJBB": {"temp": 27, "dewp": 25, "wdir": 30, "wspd": 3, "wgst": null, "reportTime": "2026-07-18T18:00:00.000Z", "rawOb": "METAR RJBB 181800Z AUTO 03003KT 9999 NSC 27/25 Q1006 NOSIG"}, "RJTT": {"temp": 26, "dewp": 24, "wdir": 180, "wspd": 8, "wgst": null, "reportTime": "2026-07-18T18:00:00.000Z", "rawOb": "METAR RJTT 181800Z 18008KT 140V210 9999 FEW014 BKN016 BKN035 26/24 Q1007 NOSIG"}, "RJFF": {"temp": 28, "dewp": 25, "wdir": 130, "wspd": 11, "wgst": null, "reportTime": "2026-07-18T18:00:00.000Z", "rawOb": "METAR RJFF 181800Z AUTO 13011KT 9999 NSC 28/25 Q1004 NOSIG"}, "RJCK": {"temp": 19, "dewp": 19, "wdir": 140, "wspd": 14, "wgst": null, "reportTime": "2026-07-18T18:00:00.000Z", "rawOb": "METAR RJCK 181800Z AUTO 14014KT 0400 R17/1000N -RA FG OVC001 19/19 Q1009"}, "RJEC": {"temp": 20, "dewp": 19, "wdir": "VRB", "wspd": 1, "wgst": null, "reportTime": "2026-07-18T18:00:00.000Z", "rawOb": "METAR RJEC 181800Z AUTO VRB01KT 2600 RA BR OVC050 20/19 Q1006"}, "RJOA": {"temp": 26, "dewp": 22, "wdir": 310, "wspd": 5, "wgst": null, "reportTime": "2026-07-18T18:00:00.000Z", "rawOb": "METAR RJOA 181800Z AUTO 31005KT 9999 NCD 26/22 Q1007"}, "RJOM": {"temp": 26, "dewp": 24, "wdir": 350, "wspd": 6, "wgst": null, "reportTime": "2026-07-18T18:00:00.000Z", "rawOb": "METAR RJOM 181800Z AUTO 35006KT 7000 NCD 26/24 Q1005"}, "RJOO": {"temp": 28, "dewp": 23, "wdir": 80, "wspd": 7, "wgst": null, "reportTime": "2026-07-18T18:00:00.000Z", "rawOb": "METAR RJOO 181800Z AUTO 08007KT 9999 FEW036 28/23 Q1006"}, "RJOT": {"temp": 26, "dewp": 24, "wdir": 150, "wspd": 4, "wgst": null, "reportTime": "2026-07-18T18:00:00.000Z", "rawOb": "METAR RJOT 181800Z AUTO 15004KT 9999 SCT060 BKN070 26/24 Q1006"}, "RJSS": {"temp": 21, "dewp": 21, "wdir": 160, "wspd": 4, "wgst": null, "reportTime": "2026-07-18T18:00:00.000Z", "rawOb": "METAR RJSS 181800Z AUTO 16004KT 9999 OVC001 21/21 Q1007"}, "_updated": "2026-07-18T20:54:27Z"}