{"RJSS": {"temp": 19, "dewp": 17, "wdir": 110, "wspd": 4, "wgst": null, "reportTime": "2026-07-03T14:00:00.000Z", "rawOb": "METAR RJSS 031400Z AUTO 11004KT 9999 OVC014 19/17 Q1013"}, "RJOO": {"temp": 25, "dewp": 18, "wdir": 100, "wspd": 7, "wgst": null, "reportTime": "2026-07-03T14:00:00.000Z", "rawOb": "METAR RJOO 031400Z AUTO 10007KT 9999 NSC 25/18 Q1011"}, "RJOM": {"temp": 23, "dewp": 21, "wdir": 180, "wspd": 5, "wgst": null, "reportTime": "2026-07-03T14:00:00.000Z", "rawOb": "METAR RJOM 031400Z AUTO 18005KT 9999 FEW060 BKN160 OVC170 23/21 Q1012"}, "RJOA": {"temp": 22, "dewp": 19, "wdir": 210, "wspd": 3, "wgst": null, "reportTime": "2026-07-03T14:00:00.000Z", "rawOb": "METAR RJOA 031400Z AUTO 21003KT 9999 NSC 22/19 Q1013"}, "ROAH": {"temp": 28, "dewp": 26, "wdir": 240, "wspd": 2, "wgst": null, "reportTime": "2026-07-03T14:00:00.000Z", "rawOb": "METAR ROAH 031400Z AUTO 24002KT 9999 NCD 28/26 Q1015"}, "RJGG": {"temp": 23, "dewp": 21, "wdir": 140, "wspd": 8, "wgst": null, "reportTime": "2026-07-03T14:00:00.000Z", "rawOb": "METAR RJGG 031400Z AUTO 14008KT 9999 FEW020 SCT021 BKN024 23/21 Q1012 NOSIG"}, "RJFF": {"temp": 23, "dewp": 22, "wdir": 110, "wspd": 3, "wgst": null, "reportTime": "2026-07-03T14:00:00.000Z", "rawOb": "METAR RJFF 031400Z AUTO 11003KT 9999 FEW037 SCT100 BKN110 23/22 Q1012 NOSIG"}, "RJBB": {"temp": 25, "dewp": 19, "wdir": 210, "wspd": 3, "wgst": null, "reportTime": "2026-07-03T14:00:00.000Z", "rawOb": "METAR RJBB 031400Z AUTO 21003KT 130V240 9999 NSC 25/19 Q1011 BECMG 14005KT"}, "RJCK": {"temp": 11, "dewp": 11, "wdir": 230, "wspd": 3, "wgst": null, "reportTime": "2026-07-03T14:00:00.000Z", "rawOb": "METAR RJCK 031400Z AUTO 23003KT 9999 SCT050 11/11 Q1014"}, "RJEC": {"temp": 16, "dewp": 14, "wdir": "VRB", "wspd": 2, "wgst": null, "reportTime": "2026-07-03T14:00:00.000Z", "rawOb": "METAR RJEC 031400Z AUTO VRB02KT 9999 NCD 16/14 Q1013"}, "RJAA": {"temp": 20, "dewp": 19, "wdir": 40, "wspd": 4, "wgst": null, "reportTime": "2026-07-03T14:00:00.000Z", "rawOb": "METAR RJAA 031400Z AUTO 04004KT 360V090 5000 BR OVC003 20/19 Q1013 TEMPO 3000 BR"}, "RJTT": {"temp": 22, "dewp": 20, "wdir": 90, "wspd": 7, "wgst": null, "reportTime": "2026-07-03T14:00:00.000Z", "rawOb": "METAR RJTT 031400Z 09007KT 9999 SCT010 BKN015 22/20 Q1013 NOSIG"}, "RJOT": {"temp": 23, "dewp": 21, "wdir": 160, "wspd": 3, "wgst": null, "reportTime": "2026-07-03T14:00:00.000Z", "rawOb": "METAR RJOT 031400Z AUTO 16003KT 130V200 9999 NSC 23/21 Q1012"}, "_updated": "2026-07-03T16:37:48Z"}