{"RJFF": {"temp": 28, "dewp": 25, "wdir": 140, "wspd": 8, "wgst": null, "reportTime": "2026-07-18T19:00:00.000Z", "rawOb": "METAR RJFF 181900Z AUTO 14008KT 9999 NCD 28/25 Q1004 NOSIG"}, "RJBB": {"temp": 27, "dewp": 26, "wdir": 360, "wspd": 4, "wgst": null, "reportTime": "2026-07-18T19:00:00.000Z", "rawOb": "METAR RJBB 181900Z AUTO 36004KT 9999 NSC 27/26 Q1006 NOSIG"}, "RJAA": {"temp": 23, "dewp": 22, "wdir": 160, "wspd": 3, "wgst": null, "reportTime": "2026-07-18T19:00:00.000Z", "rawOb": "METAR RJAA 181900Z AUTO 16003KT 9999 NCD 23/22 Q1008 NOSIG"}, "RJTT": {"temp": 26, "dewp": 24, "wdir": 180, "wspd": 9, "wgst": null, "reportTime": "2026-07-18T19:00:00.000Z", "rawOb": "METAR RJTT 181900Z 18009KT 130V200 9999 SCT012 BKN045 26/24 Q1008 NOSIG"}, "RJGG": {"temp": 27, "dewp": 25, "wdir": 120, "wspd": 11, "wgst": null, "reportTime": "2026-07-18T19:00:00.000Z", "rawOb": "METAR RJGG 181900Z AUTO 12011KT 9999 FEW028 BKN029 BKN036 27/25 Q1007 NOSIG"}, "ROAH": {"temp": 28, "dewp": 27, "wdir": 210, "wspd": 6, "wgst": null, "reportTime": "2026-07-18T19:00:00.000Z", "rawOb": "METAR ROAH 181900Z AUTO 21006KT 8000 FEW003 28/27 Q1006"}, "RJOM": {"temp": 26, "dewp": 24, "wdir": "VRB", "wspd": 2, "wgst": null, "reportTime": "2026-07-18T19:00:00.000Z", "rawOb": "METAR RJOM 181900Z AUTO VRB02KT 9999 NCD 26/24 Q1005"}, "RJOO": {"temp": 28, "dewp": 23, "wdir": 80, "wspd": 5, "wgst": null, "reportTime": "2026-07-18T19:00:00.000Z", "rawOb": "METAR RJOO 181900Z AUTO 08005KT 040V110 9999 NSC 28/23 Q1006"}, "RJEC": {"temp": 20, "dewp": 19, "wdir": 140, "wspd": 6, "wgst": null, "reportTime": "2026-07-18T19:00:00.000Z", "rawOb": "METAR RJEC 181900Z AUTO 14006KT 9999 -RA FEW023 SCT046 BKN050 20/19 Q1006"}, "RJOA": {"temp": 26, "dewp": 23, "wdir": 310, "wspd": 4, "wgst": null, "reportTime": "2026-07-18T19:00:00.000Z", "rawOb": "METAR RJOA 181900Z AUTO 31004KT 9999 NSC 26/23 Q1007"}, "RJOT": {"temp": 25, "dewp": 24, "wdir": 130, "wspd": 3, "wgst": null, "reportTime": "2026-07-18T19:00:00.000Z", "rawOb": "METAR RJOT 181900Z AUTO 13003KT 100V170 9999 NSC 25/24 Q1006"}, "RJSS": {"temp": 21, "dewp": 21, "wdir": 170, "wspd": 4, "wgst": null, "reportTime": "2026-07-18T19:00:00.000Z", "rawOb": "METAR RJSS 181900Z AUTO 17004KT 9999 OVC001 21/21 Q1007"}, "RJCK": {"temp": 19, "dewp": 19, "wdir": 140, "wspd": 14, "wgst": null, "reportTime": "2026-07-18T19:00:00.000Z", "rawOb": "METAR RJCK 181900Z AUTO 14014KT 0400 R17/0800N -RA FG OVC001 19/19 Q1010"}, "_updated": "2026-07-18T21:54:51Z"}