{"RJOA": {"temp": 22, "dewp": 18, "wdir": 320, "wspd": 12, "wgst": null, "reportTime": "2026-07-02T12:00:00.000Z", "rawOb": "METAR RJOA 021200Z 32012KT 9999 FEW015 BKN/// 22/18 Q1012"}, "ROAH": {"temp": 28, "dewp": 26, "wdir": 200, "wspd": 4, "wgst": null, "reportTime": "2026-07-02T11:30:00.000Z", "rawOb": "METAR ROAH 021130Z 20004KT 9999 FEW010 28/26 Q1014"}, "RJGG": {"temp": 24, "dewp": 20, "wdir": 350, "wspd": 13, "wgst": null, "reportTime": "2026-07-02T11:30:00.000Z", "rawOb": "METAR RJGG 021130Z 35013KT 9999 FEW020 BKN/// 24/20 Q1007 NOSIG"}, "RJFF": {"temp": 24, "dewp": 20, "wdir": 300, "wspd": 4, "wgst": null, "reportTime": "2026-07-02T11:30:00.000Z", "rawOb": "METAR RJFF 021130Z 30004KT 220V330 9999 FEW020 SCT050 BKN/// 24/20 Q1012 NOSIG"}, "RJEC": {"temp": 17, "dewp": 13, "wdir": 170, "wspd": 8, "wgst": null, "reportTime": "2026-07-02T12:00:00.000Z", "rawOb": "METAR RJEC 021200Z AUTO 17008KT 9999 BKN023 BKN025 OVC038 17/13 Q1012"}, "RJAA": {"temp": 20, "dewp": 20, "wdir": 10, "wspd": 11, "wgst": null, "reportTime": "2026-07-02T11:30:00.000Z", "rawOb": "METAR RJAA 021130Z 01011KT 2000 -DZRA BR FEW002 BKN003 BKN004 20/20 Q1006 BECMG 8000 NSW"}, "RJCK": {"temp": 10, "dewp": 10, "wdir": 200, "wspd": 4, "wgst": null, "reportTime": "2026-07-02T12:00:00.000Z", "rawOb": "METAR RJCK 021200Z AUTO 20004KT 9999 SCT047 BKN048 BKN050 10/10 Q1014"}, "RJBB": {"temp": 25, "dewp": 21, "wdir": 340, "wspd": 12, "wgst": null, "reportTime": "2026-07-02T11:30:00.000Z", "rawOb": "METAR RJBB 021130Z 34012KT 9999 FEW020 BKN035 BKN/// 25/21 Q1009 NOSIG"}, "RJTT": {"temp": 22, "dewp": 20, "wdir": 40, "wspd": 9, "wgst": null, "reportTime": "2026-07-02T11:30:00.000Z", "rawOb": "METAR RJTT 021130Z 04009KT 9999 FEW007 SCT010 BKN017 22/20 Q1007 NOSIG"}, "RJSS": {"temp": 20, "dewp": 19, "wdir": 360, "wspd": 9, "wgst": null, "reportTime": "2026-07-02T12:00:00.000Z", "rawOb": "METAR RJSS 021200Z 36009KT 9999 SHRA FEW003 SCT010 BKN020 20/19 Q1008"}, "RJOT": {"temp": 24, "dewp": 22, "wdir": 260, "wspd": 6, "wgst": null, "reportTime": "2026-07-02T12:00:00.000Z", "rawOb": "METAR RJOT 021200Z 26006KT 9999 FEW015 BKN060 24/22 Q1011"}, "RJOO": {"temp": 24, "dewp": 19, "wdir": 330, "wspd": 6, "wgst": null, "reportTime": "2026-07-02T12:00:00.000Z", "rawOb": "METAR RJOO 021200Z AUTO 33006KT 290V360 9999 NCD 24/19 Q1009"}, "RJOM": {"temp": 23, "dewp": 21, "wdir": 220, "wspd": 7, "wgst": null, "reportTime": "2026-07-02T12:00:00.000Z", "rawOb": "METAR RJOM 021200Z 22007KT 9999 FEW030 SCT045 BKN/// 23/21 Q1011"}, "RJBE": {"temp": 26, "dewp": 19, "wdir": 340, "wspd": 11, "wgst": null, "reportTime": "2026-07-02T12:00:00.000Z", "rawOb": "METAR RJBE 021200Z 34011KT 9999 FEW025 SCT040 BKN/// 26/19 Q1009"}, "RJOB": {"temp": 21, "dewp": 18, "wdir": 310, "wspd": 4, "wgst": null, "reportTime": "2026-07-02T12:00:00.000Z", "rawOb": "METAR RJOB 021200Z 31004KT 260V350 9999 FEW020 BKN/// 21/18 Q1011"}, "RJCO": {"temp": 16, "dewp": 13, "wdir": 150, "wspd": 10, "wgst": null, "reportTime": "2026-07-02T12:00:00.000Z", "rawOb": "METAR RJCO 021200Z 15010KT 9999 FEW050 16/13 Q1012"}, "RJSK": {"temp": 21, "dewp": 19, "wdir": 110, "wspd": 4, "wgst": null, "reportTime": "2026-07-02T12:00:00.000Z", "rawOb": "METAR RJSK 021200Z 11004KT 9999 FEW030 SCT070 BKN160 21/19 Q1009"}, "_updated": "2026-07-02T14:24:03Z"}