{"RJGG": {"temp": 29, "dewp": 24, "wdir": 150, "wspd": 4, "wgst": null, "reportTime": "2026-07-23T21:00:00.000Z", "rawOb": "METAR RJGG 232100Z 15004KT 9999 FEW030 29/24 Q1010 NOSIG"}, "RJAA": {"temp": 25, "dewp": 24, "wdir": 80, "wspd": 6, "wgst": null, "reportTime": "2026-07-23T21:00:00.000Z", "rawOb": "METAR RJAA 232100Z 08006KT 5000 BR FEW003 BKN005 25/24 Q1010 BECMG BKN020"}, "RJFF": {"temp": 26, "dewp": 23, "wdir": 70, "wspd": 2, "wgst": null, "reportTime": "2026-07-23T21:00:00.000Z", "rawOb": "METAR RJFF 232100Z 07002KT 9999 FEW020 26/23 Q1011 NOSIG"}, "RJBB": {"temp": 28, "dewp": 26, "wdir": 0, "wspd": 0, "wgst": null, "reportTime": "2026-07-23T21:00:00.000Z", "rawOb": "METAR RJBB 232100Z 00000KT 9999 FEW030 28/26 Q1010 NOSIG"}, "ROAH": {"temp": 29, "dewp": 27, "wdir": 100, "wspd": 7, "wgst": null, "reportTime": "2026-07-23T21:00:00.000Z", "rawOb": "METAR ROAH 232100Z 10007KT 9999 -SHRA FEW014 FEW025TCU SCT034 29/27 Q1009"}, "RJTT": {"temp": 27, "dewp": 26, "wdir": 80, "wspd": 6, "wgst": null, "reportTime": "2026-07-23T21:00:00.000Z", "rawOb": "METAR RJTT 232100Z 08006KT 9999 BKN010 27/26 Q1010 NOSIG"}, "RJEC": {"temp": 17, "dewp": 17, "wdir": "VRB", "wspd": 2, "wgst": null, "reportTime": "2026-07-23T21:00:00.000Z", "rawOb": "METAR RJEC 232100Z AUTO VRB02KT 9999 SCT003 OVC005 17/17 Q1013"}, "RJOB": {"temp": 28, "dewp": 25, "wdir": "VRB", "wspd": 2, "wgst": null, "reportTime": "2026-07-23T22:00:00.000Z", "rawOb": "METAR RJOB 232200Z VRB02KT CAVOK 28/25 Q1012"}, "RJOM": {"temp": 28, "dewp": 24, "wdir": 110, "wspd": 5, "wgst": null, "reportTime": "2026-07-23T21:00:00.000Z", "rawOb": "METAR RJOM 232100Z AUTO 11005KT 9999 NCD 28/24 Q1010"}, "RJSK": {"temp": 24, "dewp": 23, "wdir": 140, "wspd": 2, "wgst": null, "reportTime": "2026-07-23T22:00:00.000Z", "rawOb": "METAR RJSK 232200Z 14002KT 1200 R28/P2000N -SHRA BCFG BR FEW000 SCT001 BKN002 24/23 Q1011"}, "RJSS": {"temp": 24, "dewp": 22, "wdir": 220, "wspd": 3, "wgst": null, "reportTime": "2026-07-23T21:00:00.000Z", "rawOb": "METAR RJSS 232100Z AUTO 22003KT 9999 FEW006 BKN008 BKN010 24/22 Q1011"}, "RJBE": {"temp": 31, "dewp": 23, "wdir": 60, "wspd": 5, "wgst": null, "reportTime": "2026-07-23T22:00:00.000Z", "rawOb": "METAR RJBE 232200Z 06005KT CAVOK 31/23 Q1010"}, "RJCK": {"temp": 17, "dewp": 16, "wdir": 60, "wspd": 5, "wgst": null, "reportTime": "2026-07-23T21:00:00.000Z", "rawOb": "METAR RJCK 232100Z AUTO 06005KT 9999 BKN006 OVC021 17/16 Q1014"}, "RJCO": {"temp": 23, "dewp": 20, "wdir": 110, "wspd": 4, "wgst": null, "reportTime": "2026-07-23T22:00:00.000Z", "rawOb": "METAR RJCO 232200Z 11004KT 070V140 9999 FEW020 BKN250 23/20 Q1011"}, "RJCB": {"temp": 19, "dewp": 17, "wdir": 150, "wspd": 8, "wgst": null, "reportTime": "2026-07-23T23:00:00.000Z", "rawOb": "METAR RJCB 232300Z 15008KT 9999 FEW008 SCT012 BKN025 19/17 Q1014"}, "RJOA": {"temp": 26, "dewp": 23, "wdir": 300, "wspd": 3, "wgst": null, "reportTime": "2026-07-23T21:00:00.000Z", "rawOb": "METAR RJOA 232100Z AUTO 30003KT 9999 NCD 26/23 Q1012"}, "RJOT": {"temp": 26, "dewp": 24, "wdir": 140, "wspd": 5, "wgst": null, "reportTime": "2026-07-23T21:00:00.000Z", "rawOb": "METAR RJOT 232100Z AUTO 14005KT 9999 NCD 26/24 Q1011"}, "RJOO": {"temp": 28, "dewp": 22, "wdir": 310, "wspd": 6, "wgst": null, "reportTime": "2026-07-23T21:00:00.000Z", "rawOb": "METAR RJOO 232100Z AUTO 31006KT 9999 NCD 28/22 Q1010"}, "_updated": "2026-07-23T23:41:38Z"}