{"RJFF": {"temp": 31, "dewp": 25, "wdir": 200, "wspd": 12, "wgst": null, "reportTime": "2026-07-15T09:30:00.000Z", "rawOb": "METAR RJFF 150930Z 20012KT 9999 FEW020 SCT045 BKN/// 31/25 Q1003 NOSIG"}, "RJBB": {"temp": 30, "dewp": 24, "wdir": 220, "wspd": 13, "wgst": null, "reportTime": "2026-07-15T09:30:00.000Z", "rawOb": "METAR RJBB 150930Z 22013KT 9999 FEW030 BKN/// 30/24 Q1002 NOSIG"}, "RJGG": {"temp": 30, "dewp": 24, "wdir": 160, "wspd": 8, "wgst": null, "reportTime": "2026-07-15T09:30:00.000Z", "rawOb": "METAR RJGG 150930Z 16008KT 9999 FEW020 BKN/// 30/24 Q1001 NOSIG"}, "RJTT": {"temp": 29, "dewp": 25, "wdir": 180, "wspd": 18, "wgst": null, "reportTime": "2026-07-15T09:30:00.000Z", "rawOb": "METAR RJTT 150930Z 18018KT CAVOK 29/25 Q1001 NOSIG"}, "ROAH": {"temp": 28, "dewp": 27, "wdir": 210, "wspd": 9, "wgst": null, "reportTime": "2026-07-15T09:30:00.000Z", "rawOb": "METAR ROAH 150930Z 21009KT 9999 FEW007 BKN015 BKN/// 28/27 Q1009"}, "RJAA": {"temp": 28, "dewp": 25, "wdir": 150, "wspd": 12, "wgst": null, "reportTime": "2026-07-15T09:30:00.000Z", "rawOb": "METAR RJAA 150930Z 15012KT 8000 FEW015 BKN/// 28/25 Q1001 NOSIG"}, "RJSK": {"temp": 28, "dewp": 25, "wdir": "VRB", "wspd": 3, "wgst": null, "reportTime": "2026-07-15T10:00:00.000Z", "rawOb": "METAR RJSK 151000Z VRB03KT 9999 -SHRA FEW030 SCT040 BKN050 28/25 Q0999"}, "RJSS": {"temp": 25, "dewp": 24, "wdir": 80, "wspd": 4, "wgst": null, "reportTime": "2026-07-15T10:00:00.000Z", "rawOb": "METAR RJSS 151000Z 08004KT 050V110 9999 FEW006 SCT130 BKN/// 25/24 Q0999"}, "RJOT": {"temp": 30, "dewp": 24, "wdir": 250, "wspd": 6, "wgst": null, "reportTime": "2026-07-15T10:00:00.000Z", "rawOb": "METAR RJOT 151000Z 25006KT 9999 FEW020 SCT180 BKN/// 30/24 Q1003"}, "RJCK": {"temp": 18, "dewp": 18, "wdir": 170, "wspd": 3, "wgst": null, "reportTime": "2026-07-15T10:00:00.000Z", "rawOb": "METAR RJCK 151000Z 17003KT 0200 R17/0400N FG VV001 18/18 Q1002"}, "RJOM": {"temp": 30, "dewp": 25, "wdir": 210, "wspd": 4, "wgst": null, "reportTime": "2026-07-15T10:00:00.000Z", "rawOb": "METAR RJOM 151000Z 21004KT 130V240 9999 FEW035 SCT/// 30/25 Q1002"}, "RJOA": {"temp": 27, "dewp": 23, "wdir": 220, "wspd": 3, "wgst": null, "reportTime": "2026-07-15T10:00:00.000Z", "rawOb": "METAR RJOA 151000Z 22003KT 160V270 9999 FEW030 BKN/// 27/23 Q1004"}, "RJOB": {"temp": 29, "dewp": 23, "wdir": 250, "wspd": 9, "wgst": null, "reportTime": "2026-07-15T10:00:00.000Z", "rawOb": "METAR RJOB 151000Z 25009KT 9999 FEW030 SCT080 BKN/// 29/23 Q1003"}, "RJOO": {"temp": 31, "dewp": 23, "wdir": 240, "wspd": 7, "wgst": null, "reportTime": "2026-07-15T10:00:00.000Z", "rawOb": "METAR RJOO 151000Z 24007KT 190V280 9999 FEW030 SCT060 BKN/// 31/23 Q1002"}, "RJBE": {"temp": 28, "dewp": 26, "wdir": 240, "wspd": 10, "wgst": null, "reportTime": "2026-07-15T10:00:00.000Z", "rawOb": "METAR RJBE 151000Z 24010KT 9999 FEW030 SCT070 BKN/// 28/26 Q1002"}, "RJCB": {"temp": 20, "dewp": 19, "wdir": 140, "wspd": 7, "wgst": null, "reportTime": "2026-07-15T10:00:00.000Z", "rawOb": "METAR RJCB 151000Z 14007KT 9999 FEW003 SCT060 BKN/// 20/19 Q1001"}, "RJCO": {"temp": 24, "dewp": 22, "wdir": 140, "wspd": 18, "wgst": null, "reportTime": "2026-07-15T10:00:00.000Z", "rawOb": "METAR RJCO 151000Z 14018KT 9000 FEW008 BKN010 BKN250 24/22 Q0997"}, "RJEC": {"temp": 26, "dewp": 22, "wdir": 200, "wspd": 4, "wgst": null, "reportTime": "2026-07-15T10:00:00.000Z", "rawOb": "METAR RJEC 151000Z 20004KT 150V230 9999 FEW020 SCT040 BKN070 26/22 Q0999"}, "_updated": "2026-07-15T12:03:28Z"}