{"RJSS": {"temp": 26, "dewp": 24, "wdir": 260, "wspd": 2, "wgst": null, "reportTime": "2026-07-20T18:00:00.000Z", "rawOb": "METAR RJSS 201800Z AUTO 26002KT 9999 NCD 26/24 Q1007"}, "RJOT": {"temp": 27, "dewp": 25, "wdir": 210, "wspd": 4, "wgst": null, "reportTime": "2026-07-20T18:00:00.000Z", "rawOb": "METAR RJOT 201800Z AUTO 21004KT 9999 NCD 27/25 Q1010"}, "RJOO": {"temp": 29, "dewp": 25, "wdir": 250, "wspd": 4, "wgst": null, "reportTime": "2026-07-20T18:00:00.000Z", "rawOb": "METAR RJOO 201800Z AUTO 25004KT 210V300 9999 NCD 29/25 Q1008"}, "RJOM": {"temp": 28, "dewp": 26, "wdir": 360, "wspd": 2, "wgst": null, "reportTime": "2026-07-20T18:00:00.000Z", "rawOb": "METAR RJOM 201800Z AUTO 36002KT 9999 FEW045 28/26 Q1008"}, "RJOA": {"temp": 26, "dewp": 25, "wdir": 300, "wspd": 4, "wgst": null, "reportTime": "2026-07-20T18:00:00.000Z", "rawOb": "METAR RJOA 201800Z AUTO 30004KT 7000 NCD 26/25 Q1010"}, "ROAH": {"temp": 28, "dewp": 27, "wdir": 220, "wspd": 7, "wgst": null, "reportTime": "2026-07-20T17:30:00.000Z", "rawOb": "METAR ROAH 201730Z AUTO 22007KT 9999 FEW011 28/27 Q1009"}, "RJGG": {"temp": 28, "dewp": 27, "wdir": 120, "wspd": 5, "wgst": null, "reportTime": "2026-07-20T17:30:00.000Z", "rawOb": "METAR RJGG 201730Z AUTO 12005KT 9999 NCD 28/27 Q1008 NOSIG"}, "RJBB": {"temp": 28, "dewp": 25, "wdir": 220, "wspd": 5, "wgst": null, "reportTime": "2026-07-20T17:30:00.000Z", "rawOb": "METAR RJBB 201730Z AUTO 22005KT 9999 NCD 28/25 Q1008 NOSIG"}, "RJEC": {"temp": 20, "dewp": 19, "wdir": 10, "wspd": 4, "wgst": null, "reportTime": "2026-07-20T18:00:00.000Z", "rawOb": "METAR RJEC 201800Z AUTO 01004KT 6000 FEW002 SCT003 OVC005 20/19 Q1007"}, "RJCK": {"temp": 20, "dewp": 19, "wdir": "VRB", "wspd": 1, "wgst": null, "reportTime": "2026-07-20T18:00:00.000Z", "rawOb": "METAR RJCK 201800Z AUTO VRB01KT 9999 FEW014 SCT017 OVC240 20/19 Q1005"}, "RJFF": {"temp": 27, "dewp": 24, "wdir": 0, "wspd": 0, "wgst": null, "reportTime": "2026-07-20T17:30:00.000Z", "rawOb": "METAR RJFF 201730Z AUTO 00000KT 9999 SCT029 BKN031 OVC033 27/24 Q1008 NOSIG"}, "RJAA": {"temp": 25, "dewp": 24, "wdir": "VRB", "wspd": 1, "wgst": null, "reportTime": "2026-07-20T17:30:00.000Z", "rawOb": "METAR RJAA 201730Z AUTO VRB01KT 9999 NCD 25/24 Q1008 NOSIG"}, "RJTT": {"temp": 27, "dewp": 26, "wdir": 180, "wspd": 7, "wgst": null, "reportTime": "2026-07-20T17:30:00.000Z", "rawOb": "METAR RJTT 201730Z 18007KT 150V220 CAVOK 27/26 Q1007 NOSIG"}, "_updated": "2026-07-20T20:24:32Z"}