{"RJGG": {"temp": 33, "dewp": 27, "wdir": 180, "wspd": 9, "wgst": null, "reportTime": "2026-07-24T07:00:00.000Z", "rawOb": "METAR RJGG 240700Z 18009KT 9999 FEW020 33/27 Q1008 NOSIG"}, "RJFF": {"temp": 33, "dewp": 23, "wdir": 330, "wspd": 11, "wgst": null, "reportTime": "2026-07-24T07:00:00.000Z", "rawOb": "METAR RJFF 240700Z 33011KT 9999 FEW030 33/23 Q1011 NOSIG"}, "RJAA": {"temp": 29, "dewp": 26, "wdir": 140, "wspd": 11, "wgst": null, "reportTime": "2026-07-24T07:00:00.000Z", "rawOb": "METAR RJAA 240700Z 14011KT 9999 SCT014 29/26 Q1009 TEMPO FM0830 -TSRA"}, "RJBB": {"temp": 34, "dewp": 26, "wdir": 240, "wspd": 7, "wgst": null, "reportTime": "2026-07-24T07:00:00.000Z", "rawOb": "METAR RJBB 240700Z 24007KT 9999 FEW035 34/26 Q1009 NOSIG"}, "ROAH": {"temp": 31, "dewp": 27, "wdir": 140, "wspd": 13, "wgst": null, "reportTime": "2026-07-24T07:00:00.000Z", "rawOb": "METAR ROAH 240700Z 14013KT 9999 SHRA BR FEW015 BKN025 BKN/// 31/27 Q1010"}, "RJTT": {"temp": 34, "dewp": 26, "wdir": 200, "wspd": 13, "wgst": null, "reportTime": "2026-07-24T07:00:00.000Z", "rawOb": "METAR RJTT 240700Z 20013KT 9999 FEW020 FEW030CB 34/26 Q1009 TEMPO 2000 +TSRA BR"}, "RJOO": {"temp": 37, "dewp": 23, "wdir": 230, "wspd": 5, "wgst": null, "reportTime": "2026-07-24T07:00:00.000Z", "rawOb": "METAR RJOO 240700Z 23005KT 180V280 9999 FEW035 37/23 Q1008"}, "RJOT": {"temp": 36, "dewp": 22, "wdir": 280, "wspd": 9, "wgst": null, "reportTime": "2026-07-24T07:00:00.000Z", "rawOb": "METAR RJOT 240700Z 28009KT 250V320 9999 FEW030 36/22 Q1011"}, "RJOA": {"temp": 33, "dewp": 23, "wdir": 180, "wspd": 5, "wgst": null, "reportTime": "2026-07-24T07:00:00.000Z", "rawOb": "METAR RJOA 240700Z 18005KT 120V220 9999 FEW030 33/23 Q1012"}, "RJSK": {"temp": 27, "dewp": 23, "wdir": 190, "wspd": 3, "wgst": null, "reportTime": "2026-07-24T07:00:00.000Z", "rawOb": "METAR RJSK 240700Z 19003KT 110V250 9999 VCSH FEW010 SCT080 BKN090 27/23 Q1010"}, "RJSS": {"temp": 24, "dewp": 23, "wdir": 120, "wspd": 6, "wgst": null, "reportTime": "2026-07-24T07:00:00.000Z", "rawOb": "METAR RJSS 240700Z 12006KT 8000 -SHRA SCT006 BKN020 BKN040 24/23 Q1011"}, "RJOB": {"temp": 35, "dewp": 25, "wdir": 230, "wspd": 8, "wgst": null, "reportTime": "2026-07-24T07:00:00.000Z", "rawOb": "METAR RJOB 240700Z 23008KT 200V260 9999 FEW030 SCT/// 35/25 Q1010"}, "RJOM": {"temp": 32, "dewp": 25, "wdir": 210, "wspd": 6, "wgst": null, "reportTime": "2026-07-24T07:00:00.000Z", "rawOb": "METAR RJOM 240700Z 21006KT 9999 FEW030 32/25 Q1010"}, "RJBE": {"temp": 34, "dewp": 25, "wdir": 250, "wspd": 10, "wgst": null, "reportTime": "2026-07-24T07:00:00.000Z", "rawOb": "METAR RJBE 240700Z 25010KT 9999 FEW040 34/25 Q1009"}, "RJCB": {"temp": 18, "dewp": 16, "wdir": 140, "wspd": 8, "wgst": null, "reportTime": "2026-07-24T07:00:00.000Z", "rawOb": "METAR RJCB 240700Z 14008KT 9999 FEW005 BKN010 18/16 Q1014"}, "RJCK": {"temp": 15, "dewp": 15, "wdir": 160, "wspd": 8, "wgst": null, "reportTime": "2026-07-24T07:00:00.000Z", "rawOb": "METAR RJCK 240700Z 16008KT 2500 R17/P2000N -SHRA BR FEW001 SCT002 BKN003 15/15 Q1015"}, "RJCO": {"temp": 27, "dewp": 21, "wdir": 130, "wspd": 4, "wgst": null, "reportTime": "2026-07-24T07:00:00.000Z", "rawOb": "METAR RJCO 240700Z 13004KT 090V170 9999 FEW020 SCT030 BKN230 27/21 Q1011"}, "RJEC": {"temp": 25, "dewp": 18, "wdir": 30, "wspd": 6, "wgst": null, "reportTime": "2026-07-24T07:00:00.000Z", "rawOb": "METAR RJEC 240700Z 03006KT 340V060 9999 FEW025 SCT040 BKN/// 25/18 Q1012"}, "_updated": "2026-07-24T09:56:40Z"}