{"RJAA": {"temp": 24, "dewp": 23, "wdir": 170, "wspd": 3, "wgst": null, "reportTime": "2026-07-18T17:00:00.000Z", "rawOb": "METAR RJAA 181700Z AUTO 17003KT 9999 BKN039 24/23 Q1008 NOSIG"}, "ROAH": {"temp": 28, "dewp": 27, "wdir": 190, "wspd": 6, "wgst": null, "reportTime": "2026-07-18T17:00:00.000Z", "rawOb": "METAR ROAH 181700Z AUTO 19006KT 9999 BKN005 28/27 Q1006"}, "RJTT": {"temp": 26, "dewp": 23, "wdir": 170, "wspd": 9, "wgst": null, "reportTime": "2026-07-18T17:00:00.000Z", "rawOb": "METAR RJTT 181700Z 17009KT 9999 SCT015 BKN040 26/23 Q1007 NOSIG"}, "RJGG": {"temp": 27, "dewp": 25, "wdir": 120, "wspd": 11, "wgst": null, "reportTime": "2026-07-18T17:00:00.000Z", "rawOb": "METAR RJGG 181700Z AUTO 12011KT 9999 FEW021 SCT023 27/25 Q1006 NOSIG"}, "RJFF": {"temp": 29, "dewp": 25, "wdir": 150, "wspd": 10, "wgst": null, "reportTime": "2026-07-18T17:00:00.000Z", "rawOb": "METAR RJFF 181700Z AUTO 15010KT 9999 NSC 29/25 Q1004 NOSIG"}, "RJBB": {"temp": 27, "dewp": 25, "wdir": 50, "wspd": 2, "wgst": null, "reportTime": "2026-07-18T17:00:00.000Z", "rawOb": "METAR RJBB 181700Z AUTO 05002KT 9999 NSC 27/25 Q1006 NOSIG"}, "RJOA": {"temp": 26, "dewp": 22, "wdir": 300, "wspd": 5, "wgst": null, "reportTime": "2026-07-18T17:00:00.000Z", "rawOb": "METAR RJOA 181700Z AUTO 30005KT 9999 NCD 26/22 Q1007"}, "RJOT": {"temp": 26, "dewp": 25, "wdir": 150, "wspd": 5, "wgst": null, "reportTime": "2026-07-18T17:00:00.000Z", "rawOb": "METAR RJOT 181700Z AUTO 15005KT 110V170 9999 SCT060 OVC070 26/25 Q1006"}, "RJSS": {"temp": 22, "dewp": 21, "wdir": 170, "wspd": 6, "wgst": null, "reportTime": "2026-07-18T17:00:00.000Z", "rawOb": "METAR RJSS 181700Z AUTO 17006KT 9999 OVC001 22/21 Q1007"}, "RJCK": {"temp": 19, "dewp": 19, "wdir": 140, "wspd": 12, "wgst": null, "reportTime": "2026-07-18T17:00:00.000Z", "rawOb": "METAR RJCK 181700Z AUTO 14012KT 0300 R17/0900N -RA FG OVC001 19/19 Q1010"}, "RJEC": {"temp": 20, "dewp": 19, "wdir": "VRB", "wspd": 1, "wgst": null, "reportTime": "2026-07-18T17:00:00.000Z", "rawOb": "METAR RJEC 181700Z AUTO VRB01KT 8000 RA FEW034 SCT050 BKN070 20/19 Q1006"}, "RJOM": {"temp": 26, "dewp": 24, "wdir": 10, "wspd": 4, "wgst": null, "reportTime": "2026-07-18T17:00:00.000Z", "rawOb": "METAR RJOM 181700Z AUTO 01004KT 9999 NCD 26/24 Q1004"}, "RJOO": {"temp": 29, "dewp": 23, "wdir": 80, "wspd": 8, "wgst": null, "reportTime": "2026-07-18T17:00:00.000Z", "rawOb": "METAR RJOO 181700Z AUTO 08008KT 9999 FEW024 29/23 Q1005"}, "_updated": "2026-07-18T19:52:32Z"}