{"RJCO": {"temp": 23, "dewp": 20, "wdir": 330, "wspd": 7, "wgst": null, "reportTime": "2026-07-20T02:00:00.000Z", "rawOb": "METAR RJCO 200200Z 33007KT 9999 FEW006 BKN012 BKN020 23/20 Q1006"}, "RJEC": {"temp": 22, "dewp": 22, "wdir": 330, "wspd": 7, "wgst": null, "reportTime": "2026-07-20T02:00:00.000Z", "rawOb": "METAR RJEC 200200Z 33007KT 9999 -SHRA BR FEW002 BKN006 BKN018 22/22 Q1006"}, "RJTT": {"temp": 31, "dewp": 26, "wdir": 160, "wspd": 7, "wgst": null, "reportTime": "2026-07-20T01:30:00.000Z", "rawOb": "METAR RJTT 200130Z 16007KT 9999 FEW015 31/26 Q1008 NOSIG"}, "RJAA": {"temp": 33, "dewp": 25, "wdir": "VRB", "wspd": 2, "wgst": null, "reportTime": "2026-07-20T01:30:00.000Z", "rawOb": "METAR RJAA 200130Z VRB02KT 9999 FEW025 33/25 Q1008 NOSIG"}, "RJSS": {"temp": 31, "dewp": 25, "wdir": 140, "wspd": 7, "wgst": null, "reportTime": "2026-07-20T02:00:00.000Z", "rawOb": "METAR RJSS 200200Z 14007KT 9999 FEW030 31/25 Q1006"}, "RJCK": {"temp": 23, "dewp": 21, "wdir": 50, "wspd": 3, "wgst": null, "reportTime": "2026-07-20T02:00:00.000Z", "rawOb": "METAR RJCK 200200Z 05003KT 360V120 9999 PRFG FEW001 SCT008 BKN012 23/21 Q1005"}, "RJCB": {"temp": 26, "dewp": 22, "wdir": "VRB", "wspd": 1, "wgst": null, "reportTime": "2026-07-20T02:00:00.000Z", "rawOb": "METAR RJCB 200200Z VRB01KT 9999 FEW010 SCT015 BKN/// 26/22 Q1005"}, "RJFF": {"temp": 31, "dewp": 25, "wdir": 130, "wspd": 9, "wgst": null, "reportTime": "2026-07-20T01:30:00.000Z", "rawOb": "METAR RJFF 200130Z 13009KT 090V150 9999 FEW020 SCT050 BKN060 31/25 Q1008 BECMG FM0230 31011KT TEMPO FM0300 4000 -TSRA BR"}, "RJBB": {"temp": 29, "dewp": 26, "wdir": 280, "wspd": 5, "wgst": null, "reportTime": "2026-07-20T01:30:00.000Z", "rawOb": "METAR RJBB 200130Z 28005KT 9999 FEW020 29/26 Q1009 NOSIG"}, "RJBE": {"temp": 31, "dewp": 27, "wdir": 230, "wspd": 7, "wgst": null, "reportTime": "2026-07-20T02:00:00.000Z", "rawOb": "METAR RJBE 200200Z 23007KT 9999 FEW020 31/27 Q1009"}, "ROAH": {"temp": 31, "dewp": 28, "wdir": 200, "wspd": 8, "wgst": null, "reportTime": "2026-07-20T01:30:00.000Z", "rawOb": "METAR ROAH 200130Z 20008KT 9999 FEW010 SCT040 31/28 Q1008"}, "RJGG": {"temp": 30, "dewp": 26, "wdir": 260, "wspd": 6, "wgst": null, "reportTime": "2026-07-20T01:30:00.000Z", "rawOb": "METAR RJGG 200130Z 26006KT 9999 FEW015 30/26 Q1009 BECMG TL0200 24008KT"}, "RJOA": {"temp": 29, "dewp": 23, "wdir": 210, "wspd": 4, "wgst": null, "reportTime": "2026-07-20T02:00:00.000Z", "rawOb": "METAR RJOA 200200Z 21004KT 130V270 9999 FEW020 SCT025 BKN/// 29/23 Q1011"}, "RJOB": {"temp": 32, "dewp": 25, "wdir": 170, "wspd": 3, "wgst": null, "reportTime": "2026-07-20T02:00:00.000Z", "rawOb": "METAR RJOB 200200Z 17003KT 140V210 9999 FEW015 SCT020 BKN030 32/25 Q1010"}, "RJOM": {"temp": 32, "dewp": 25, "wdir": 360, "wspd": 8, "wgst": null, "reportTime": "2026-07-20T02:00:00.000Z", "rawOb": "METAR RJOM 200200Z 36008KT 9999 FEW030 32/25 Q1008"}, "RJOO": {"temp": 33, "dewp": 25, "wdir": "VRB", "wspd": 5, "wgst": null, "reportTime": "2026-07-20T02:00:00.000Z", "rawOb": "METAR RJOO 200200Z VRB05KT 9999 FEW020 33/25 Q1008"}, "RJOT": {"temp": 31, "dewp": 25, "wdir": 10, "wspd": 5, "wgst": null, "reportTime": "2026-07-20T02:00:00.000Z", "rawOb": "METAR RJOT 200200Z 01005KT 340V050 9999 FEW020 SCT030 31/25 Q1010"}, "RJSK": {"temp": 25, "dewp": 24, "wdir": 300, "wspd": 4, "wgst": null, "reportTime": "2026-07-20T02:00:00.000Z", "rawOb": "METAR RJSK 200200Z 30004KT 4000 -DZ BR FEW001 BKN003 BKN004 25/24 Q1008"}, "_updated": "2026-07-20T04:07:54Z"}