{"RJAA": {"temp": 21, "dewp": 20, "wdir": 100, "wspd": 3, "wgst": null, "reportTime": "2026-07-05T21:00:00.000Z", "rawOb": "METAR RJAA 052100Z 10003KT 9999 FEW020 BKN090 21/20 Q1013 NOSIG"}, "ROAH": {"temp": 27, "dewp": 26, "wdir": 200, "wspd": 4, "wgst": null, "reportTime": "2026-07-05T21:00:00.000Z", "rawOb": "METAR ROAH 052100Z 20004KT 9999 FEW015 27/26 Q1011"}, "RJGG": {"temp": 22, "dewp": 21, "wdir": 110, "wspd": 10, "wgst": null, "reportTime": "2026-07-05T21:00:00.000Z", "rawOb": "METAR RJGG 052100Z 11010KT 6000 -RA FEW008 BKN010 BKN014 22/21 Q1010 TEMPO 4000 -RA BR"}, "RJOB": {"temp": 22, "dewp": 22, "wdir": 100, "wspd": 3, "wgst": null, "reportTime": "2026-07-05T22:00:00.000Z", "rawOb": "METAR RJOB 052200Z 10003KT 0800 R07/P2000N -SHRA FG FEW000 SCT001 BKN004 22/22 Q1009"}, "RJBB": {"temp": 24, "dewp": 23, "wdir": 40, "wspd": 5, "wgst": null, "reportTime": "2026-07-05T21:00:00.000Z", "rawOb": "METAR RJBB 052100Z 04005KT 6000 -SHRA BR FEW005 SCT020 BKN030 24/23 Q1009 TEMPO 3000 SHRA BR FEW001 SCT005 BKN008"}, "RJOM": {"temp": 24, "dewp": 24, "wdir": 120, "wspd": 8, "wgst": null, "reportTime": "2026-07-05T21:00:00.000Z", "rawOb": "METAR RJOM 052100Z AUTO 12008KT 2600 R14/2000N +RA BR FEW020 SCT024 BKN032 //////TCU 24/24 Q1007"}, "RJFF": {"temp": 24, "dewp": 23, "wdir": 110, "wspd": 3, "wgst": null, "reportTime": "2026-07-05T21:00:00.000Z", "rawOb": "METAR RJFF 052100Z 11003KT 9999 VCSH FEW001 SCT005 BKN015 24/23 Q1008 TEMPO BKN005 BKN014"}, "RJOO": {"temp": 23, "dewp": 22, "wdir": 60, "wspd": 4, "wgst": null, "reportTime": "2026-07-05T21:00:00.000Z", "rawOb": "METAR RJOO 052100Z AUTO 06004KT 9999 -RA FEW005 SCT027 BKN037 23/22 Q1009"}, "RJEC": {"temp": 17, "dewp": 14, "wdir": 170, "wspd": 7, "wgst": null, "reportTime": "2026-07-05T21:00:00.000Z", "rawOb": "METAR RJEC 052100Z AUTO 17007KT 9999 NSC 17/14 Q1015"}, "RJCO": {"temp": 19, "dewp": 16, "wdir": 150, "wspd": 16, "wgst": null, "reportTime": "2026-07-05T22:00:00.000Z", "rawOb": "METAR RJCO 052200Z 15016KT 9999 FEW030 SCT100 BKN130 19/16 Q1014"}, "RJOT": {"temp": 23, "dewp": 23, "wdir": 90, "wspd": 2, "wgst": null, "reportTime": "2026-07-05T21:00:00.000Z", "rawOb": "METAR RJOT 052100Z AUTO 09002KT 9999 FEW046 SCT048 BKN070 //////TCU 23/23 Q1008"}, "RJCK": {"temp": 15, "dewp": 15, "wdir": 170, "wspd": 3, "wgst": null, "reportTime": "2026-07-05T21:00:00.000Z", "rawOb": "METAR RJCK 052100Z AUTO 17003KT 4100 BR OVC001 15/15 Q1018"}, "RJSK": {"temp": 23, "dewp": 19, "wdir": 150, "wspd": 4, "wgst": null, "reportTime": "2026-07-05T22:00:00.000Z", "rawOb": "METAR RJSK 052200Z 15004KT 110V190 9999 FEW030 BKN190 23/19 Q1012"}, "RJCB": {"temp": 16, "dewp": 15, "wdir": "VRB", "wspd": 2, "wgst": null, "reportTime": "2026-07-05T23:00:00.000Z", "rawOb": "METAR RJCB 052300Z VRB02KT 9999 FEW004 SCT005 BKN006 16/15 Q1017"}, "RJOA": {"temp": 22, "dewp": 22, "wdir": 110, "wspd": 2, "wgst": null, "reportTime": "2026-07-05T21:00:00.000Z", "rawOb": "METAR RJOA 052100Z AUTO 11002KT 0100 R28/0125N -RA FG OVC000 //////TCU 22/22 Q1009"}, "RJSS": {"temp": 21, "dewp": 20, "wdir": 0, "wspd": 0, "wgst": null, "reportTime": "2026-07-05T21:00:00.000Z", "rawOb": "METAR RJSS 052100Z AUTO 00000KT 9999 -RA BKN005 BKN007 BKN044 21/20 Q1013"}, "RJBE": {"temp": 23, "dewp": 23, "wdir": 70, "wspd": 7, "wgst": null, "reportTime": "2026-07-05T22:00:00.000Z", "rawOb": "METAR RJBE 052200Z 07007KT 4000 -SHRA BR FEW002 SCT006 BKN008 23/23 Q1008"}, "RJTT": {"temp": 23, "dewp": 20, "wdir": 100, "wspd": 5, "wgst": null, "reportTime": "2026-07-05T21:00:00.000Z", "rawOb": "METAR RJTT 052100Z 10005KT 9999 FEW015 SCT090 BKN120 23/20 Q1012 NOSIG"}, "_updated": "2026-07-05T23:35:57Z"}