{"RJEC": {"temp": 18, "dewp": 17, "wdir": 330, "wspd": 2, "wgst": null, "reportTime": "2026-07-22T16:00:00.000Z", "rawOb": "METAR RJEC 221600Z AUTO 33002KT 9999 BKN003 18/17 Q1008"}, "RJBB": {"temp": 30, "dewp": 25, "wdir": 230, "wspd": 7, "wgst": null, "reportTime": "2026-07-22T15:30:00.000Z", "rawOb": "METAR RJBB 221530Z AUTO 23007KT 9999 NCD 30/25 Q1009 NOSIG"}, "RJFF": {"temp": 29, "dewp": 24, "wdir": 60, "wspd": 3, "wgst": null, "reportTime": "2026-07-22T15:30:00.000Z", "rawOb": "METAR RJFF 221530Z AUTO 06003KT 9999 SCT019 29/24 Q1010 NOSIG"}, "ROAH": {"temp": 29, "dewp": 26, "wdir": 130, "wspd": 4, "wgst": null, "reportTime": "2026-07-22T15:30:00.000Z", "rawOb": "METAR ROAH 221530Z AUTO 13004KT 9999 NCD 29/26 Q1010"}, "RJOM": {"temp": 29, "dewp": 23, "wdir": 120, "wspd": 6, "wgst": null, "reportTime": "2026-07-22T16:00:00.000Z", "rawOb": "METAR RJOM 221600Z AUTO 12006KT 9999 NCD 29/23 Q1009"}, "RJGG": {"temp": 31, "dewp": 26, "wdir": 300, "wspd": 12, "wgst": null, "reportTime": "2026-07-22T15:30:00.000Z", "rawOb": "METAR RJGG 221530Z AUTO 30012KT 9999 NCD 31/26 Q1007 NOSIG"}, "RJSS": {"temp": 27, "dewp": 23, "wdir": 0, "wspd": 0, "wgst": null, "reportTime": "2026-07-22T16:00:00.000Z", "rawOb": "METAR RJSS 221600Z AUTO 00000KT 9999 NCD 27/23 Q1005"}, "RJTT": {"temp": 29, "dewp": 27, "wdir": 170, "wspd": 9, "wgst": null, "reportTime": "2026-07-22T15:30:00.000Z", "rawOb": "METAR RJTT 221530Z 17009KT CAVOK 29/27 Q1006 NOSIG"}, "RJOT": {"temp": 27, "dewp": 24, "wdir": 220, "wspd": 6, "wgst": null, "reportTime": "2026-07-22T16:00:00.000Z", "rawOb": "METAR RJOT 221600Z AUTO 22006KT 9999 BKN060 27/24 Q1010"}, "RJOO": {"temp": 30, "dewp": 24, "wdir": 320, "wspd": 8, "wgst": null, "reportTime": "2026-07-22T16:00:00.000Z", "rawOb": "METAR RJOO 221600Z AUTO 32008KT 9999 FEW045 30/24 Q1009"}, "RJOA": {"temp": 27, "dewp": 22, "wdir": 360, "wspd": 2, "wgst": null, "reportTime": "2026-07-22T16:00:00.000Z", "rawOb": "METAR RJOA 221600Z AUTO 36002KT 9999 NCD 27/22 Q1011"}, "RJAA": {"temp": 28, "dewp": 26, "wdir": 190, "wspd": 2, "wgst": null, "reportTime": "2026-07-22T15:30:00.000Z", "rawOb": "METAR RJAA 221530Z AUTO 19002KT 9000 NSC 28/26 Q1006 NOSIG"}, "RJCK": {"temp": 18, "dewp": 18, "wdir": 320, "wspd": 3, "wgst": null, "reportTime": "2026-07-22T16:00:00.000Z", "rawOb": "METAR RJCK 221600Z AUTO 32003KT 9999 NCD 18/18 Q1007"}, "_updated": "2026-07-22T18:14:42Z"}