{"ROAH": {"temp": 28, "dewp": 27, "wdir": 210, "wspd": 8, "wgst": null, "reportTime": "2026-07-19T18:00:00.000Z", "rawOb": "METAR ROAH 191800Z AUTO 21008KT 9999 FEW008 28/27 Q1007"}, "RJTT": {"temp": 27, "dewp": 25, "wdir": 190, "wspd": 9, "wgst": null, "reportTime": "2026-07-19T18:00:00.000Z", "rawOb": "METAR RJTT 191800Z 19009KT 9999 FEW030 27/25 Q1008 NOSIG"}, "RJAA": {"temp": 24, "dewp": 23, "wdir": 170, "wspd": 3, "wgst": null, "reportTime": "2026-07-19T18:00:00.000Z", "rawOb": "METAR RJAA 191800Z AUTO 17003KT 9999 NCD 24/23 Q1008 NOSIG"}, "RJBB": {"temp": 28, "dewp": 25, "wdir": 190, "wspd": 3, "wgst": null, "reportTime": "2026-07-19T18:00:00.000Z", "rawOb": "METAR RJBB 191800Z AUTO 19003KT 9999 NCD 28/25 Q1008 NOSIG"}, "RJFF": {"temp": 28, "dewp": 25, "wdir": 150, "wspd": 8, "wgst": null, "reportTime": "2026-07-19T18:00:00.000Z", "rawOb": "METAR RJFF 191800Z AUTO 15008KT 9999 FEW019 28/25 Q1007 NOSIG"}, "RJGG": {"temp": 27, "dewp": 25, "wdir": 130, "wspd": 2, "wgst": null, "reportTime": "2026-07-19T18:00:00.000Z", "rawOb": "METAR RJGG 191800Z AUTO 13002KT 9999 NSC 27/25 Q1008 NOSIG"}, "RJOO": {"temp": 29, "dewp": 24, "wdir": 270, "wspd": 4, "wgst": null, "reportTime": "2026-07-19T18:00:00.000Z", "rawOb": "METAR RJOO 191800Z AUTO 27004KT 220V330 9999 FEW026 BKN029 OVC046 29/24 Q1008"}, "RJEC": {"temp": 21, "dewp": 19, "wdir": 170, "wspd": 6, "wgst": null, "reportTime": "2026-07-19T18:00:00.000Z", "rawOb": "METAR RJEC 191800Z AUTO 17006KT 9999 OVC019 21/19 Q1005"}, "RJOA": {"temp": 26, "dewp": 24, "wdir": 310, "wspd": 3, "wgst": null, "reportTime": "2026-07-19T18:00:00.000Z", "rawOb": "METAR RJOA 191800Z AUTO 31003KT 9999 NCD 26/24 Q1009"}, "RJOM": {"temp": 28, "dewp": 25, "wdir": 40, "wspd": 3, "wgst": null, "reportTime": "2026-07-19T18:00:00.000Z", "rawOb": "METAR RJOM 191800Z AUTO 04003KT 9999 NCD 28/25 Q1007"}, "RJSS": {"temp": 24, "dewp": 23, "wdir": 320, "wspd": 2, "wgst": null, "reportTime": "2026-07-19T18:00:00.000Z", "rawOb": "METAR RJSS 191800Z AUTO 32002KT 9999 NCD 24/23 Q1006"}, "RJCK": {"temp": 18, "dewp": 18, "wdir": 70, "wspd": 4, "wgst": null, "reportTime": "2026-07-19T18:00:00.000Z", "rawOb": "METAR RJCK 191800Z AUTO 07004KT 0300 R35/1400N FG BKN002 18/18 Q1006"}, "RJOT": {"temp": 25, "dewp": 23, "wdir": 200, "wspd": 6, "wgst": null, "reportTime": "2026-07-19T18:00:00.000Z", "rawOb": "METAR RJOT 191800Z AUTO 20006KT 9999 NCD 25/23 Q1009"}, "_updated": "2026-07-19T20:55:31Z"}