{"RJGG": {"temp": 32, "dewp": 26, "wdir": 170, "wspd": 9, "wgst": null, "reportTime": "2026-07-20T08:00:00.000Z", "rawOb": "METAR RJGG 200800Z 17009KT 9999 FEW020 32/26 Q1006 NOSIG"}, "RJCB": {"temp": 27, "dewp": 24, "wdir": 140, "wspd": 6, "wgst": null, "reportTime": "2026-07-20T08:00:00.000Z", "rawOb": "METAR RJCB 200800Z 14006KT 9999 FEW020 SCT070 BKN/// 27/24 Q1004"}, "RJCK": {"temp": 22, "dewp": 20, "wdir": 190, "wspd": 5, "wgst": null, "reportTime": "2026-07-20T08:00:00.000Z", "rawOb": "METAR RJCK 200800Z 19005KT 9999 FEW005 SCT030 BKN040 22/20 Q1005"}, "RJSK": {"temp": 25, "dewp": 25, "wdir": 270, "wspd": 6, "wgst": null, "reportTime": "2026-07-20T08:00:00.000Z", "rawOb": "METAR RJSK 200800Z 27006KT 5000 -SHRA BR FEW001 BKN006 BKN008 25/25 Q1008"}, "RJOA": {"temp": 31, "dewp": 25, "wdir": 210, "wspd": 4, "wgst": null, "reportTime": "2026-07-20T08:00:00.000Z", "rawOb": "METAR RJOA 200800Z 21004KT 170V240 9999 FEW025 SCT090 BKN/// 31/25 Q1009"}, "RJOT": {"temp": 33, "dewp": 26, "wdir": "VRB", "wspd": 2, "wgst": null, "reportTime": "2026-07-20T08:00:00.000Z", "rawOb": "METAR RJOT 200800Z VRB02KT 9999 FEW035 33/26 Q1008"}, "RJOM": {"temp": 31, "dewp": 26, "wdir": 270, "wspd": 3, "wgst": null, "reportTime": "2026-07-20T08:00:00.000Z", "rawOb": "METAR RJOM 200800Z 27003KT 240V310 9999 FEW025 FEW030CB 31/26 Q1007"}, "RJTT": {"temp": 33, "dewp": 24, "wdir": 200, "wspd": 14, "wgst": null, "reportTime": "2026-07-20T08:00:00.000Z", "rawOb": "METAR RJTT 200800Z 20014KT 9999 FEW030 33/24 Q1006 NOSIG"}, "RJFF": {"temp": 32, "dewp": 24, "wdir": 300, "wspd": 12, "wgst": null, "reportTime": "2026-07-20T08:00:00.000Z", "rawOb": "METAR RJFF 200800Z 30012KT 9999 FEW020 BKN040 32/24 Q1008 TEMPO -TSRA"}, "RJOO": {"temp": 33, "dewp": 24, "wdir": 220, "wspd": 7, "wgst": null, "reportTime": "2026-07-20T08:00:00.000Z", "rawOb": "METAR RJOO 200800Z 22007KT 170V280 9999 FEW035 33/24 Q1007"}, "RJSS": {"temp": 30, "dewp": 25, "wdir": 140, "wspd": 5, "wgst": null, "reportTime": "2026-07-20T08:00:00.000Z", "rawOb": "METAR RJSS 200800Z 14005KT 9999 FEW030 SCT/// 30/25 Q1006"}, "RJAA": {"temp": 33, "dewp": 25, "wdir": 140, "wspd": 7, "wgst": null, "reportTime": "2026-07-20T08:00:00.000Z", "rawOb": "METAR RJAA 200800Z 14007KT 9999 FEW040 33/25 Q1006 NOSIG"}, "RJBB": {"temp": 32, "dewp": 25, "wdir": 230, "wspd": 11, "wgst": null, "reportTime": "2026-07-20T08:00:00.000Z", "rawOb": "METAR RJBB 200800Z 23011KT 9999 FEW025 32/25 Q1007 NOSIG"}, "RJBE": {"temp": 30, "dewp": 27, "wdir": 230, "wspd": 11, "wgst": null, "reportTime": "2026-07-20T08:00:00.000Z", "rawOb": "METAR RJBE 200800Z 23011KT 9999 FEW025 30/27 Q1007"}, "ROAH": {"temp": 31, "dewp": 27, "wdir": 230, "wspd": 8, "wgst": null, "reportTime": "2026-07-20T08:00:00.000Z", "rawOb": "METAR ROAH 200800Z 23008KT 9999 FEW013 31/27 Q1007"}, "RJCO": {"temp": 23, "dewp": 21, "wdir": 330, "wspd": 10, "wgst": null, "reportTime": "2026-07-20T08:00:00.000Z", "rawOb": "METAR RJCO 200800Z 33010KT 9999 FEW010 SCT015 BKN020 23/21 Q1007"}, "RJOB": {"temp": 32, "dewp": 25, "wdir": 200, "wspd": 6, "wgst": null, "reportTime": "2026-07-20T08:00:00.000Z", "rawOb": "METAR RJOB 200800Z 20006KT 9999 FEW030 32/25 Q1008"}, "RJEC": {"temp": 25, "dewp": 22, "wdir": 310, "wspd": 8, "wgst": null, "reportTime": "2026-07-20T08:00:00.000Z", "rawOb": "METAR RJEC 200800Z 31008KT 9999 FEW012 SCT030 BKN/// 25/22 Q1006"}, "_updated": "2026-07-20T10:30:28Z"}