{"RJCK": {"temp": 13, "dewp": 12, "wdir": 210, "wspd": 4, "wgst": null, "reportTime": "2026-07-04T14:00:00.000Z", "rawOb": "METAR RJCK 041400Z AUTO 21004KT 180V240 9999 OVC010 13/12 Q1014"}, "ROAH": {"temp": 28, "dewp": 26, "wdir": 210, "wspd": 3, "wgst": null, "reportTime": "2026-07-04T13:30:00.000Z", "rawOb": "METAR ROAH 041330Z 21003KT 9999 FEW015 28/26 Q1014"}, "RJOA": {"temp": 21, "dewp": 20, "wdir": 40, "wspd": 2, "wgst": null, "reportTime": "2026-07-04T14:00:00.000Z", "rawOb": "METAR RJOA 041400Z AUTO 04002KT 8000 BKN004 OVC009 21/20 Q1010"}, "RJBB": {"temp": 23, "dewp": 21, "wdir": 50, "wspd": 9, "wgst": null, "reportTime": "2026-07-04T13:30:00.000Z", "rawOb": "METAR RJBB 041330Z 05009KT 9999 FEW005 SCT040 BKN070 23/21 Q1009 NOSIG"}, "RJOM": {"temp": 24, "dewp": 23, "wdir": "VRB", "wspd": 1, "wgst": null, "reportTime": "2026-07-04T14:00:00.000Z", "rawOb": "METAR RJOM 041400Z AUTO VRB01KT 9999 FEW033 SCT050 OVC060 //////TCU 24/23 Q1008"}, "RJGG": {"temp": 22, "dewp": 21, "wdir": 140, "wspd": 4, "wgst": null, "reportTime": "2026-07-04T13:30:00.000Z", "rawOb": "METAR RJGG 041330Z 14004KT 9999 -SHRA FEW006 SCT008 BKN035 22/21 Q1010 TEMPO 4000 SHRA BR FEW005 BKN008"}, "RJOO": {"temp": 22, "dewp": 21, "wdir": 70, "wspd": 6, "wgst": null, "reportTime": "2026-07-04T14:00:00.000Z", "rawOb": "METAR RJOO 041400Z AUTO 07006KT 040V100 5000 -RA BR BKN033 BKN042 OVC050 22/21 Q1009"}, "RJAA": {"temp": 21, "dewp": 21, "wdir": 140, "wspd": 4, "wgst": null, "reportTime": "2026-07-04T13:30:00.000Z", "rawOb": "METAR RJAA 041330Z 14004KT 9999 FEW012 SCT060 BKN/// 21/21 Q1012 NOSIG"}, "RJOT": {"temp": 22, "dewp": 22, "wdir": 0, "wspd": 0, "wgst": null, "reportTime": "2026-07-04T14:00:00.000Z", "rawOb": "METAR RJOT 041400Z AUTO 00000KT 9000 BKN001 OVC018 22/22 Q1009"}, "RJSS": {"temp": 20, "dewp": 18, "wdir": 130, "wspd": 4, "wgst": null, "reportTime": "2026-07-04T14:00:00.000Z", "rawOb": "METAR RJSS 041400Z AUTO 13004KT 9999 OVC010 20/18 Q1012"}, "RJTT": {"temp": 24, "dewp": 22, "wdir": 130, "wspd": 5, "wgst": null, "reportTime": "2026-07-04T13:30:00.000Z", "rawOb": "METAR RJTT 041330Z 13005KT 9999 FEW012 BKN030 BKN/// 24/22 Q1011 TEMPO FM1430 FEW010 BKN013"}, "RJFF": {"temp": 26, "dewp": 24, "wdir": 80, "wspd": 3, "wgst": null, "reportTime": "2026-07-04T13:30:00.000Z", "rawOb": "METAR RJFF 041330Z 08003KT 060V120 9999 VCSH FEW030 SCT035 BKN040 26/24 Q1009 NOSIG"}, "RJEC": {"temp": 16, "dewp": 14, "wdir": 150, "wspd": 4, "wgst": null, "reportTime": "2026-07-04T14:00:00.000Z", "rawOb": "METAR RJEC 041400Z AUTO 15004KT 9999 NCD 16/14 Q1012"}, "_updated": "2026-07-04T16:06:39Z"}