{"RJFF": {"temp": 32, "dewp": 27, "wdir": 140, "wspd": 10, "wgst": null, "reportTime": "2026-07-17T01:30:00.000Z", "rawOb": "METAR RJFF 170130Z 14010KT 9999 FEW010 SCT035 BKN/// 32/27 Q1003 NOSIG"}, "RJCK": {"temp": 19, "dewp": 18, "wdir": 170, "wspd": 8, "wgst": null, "reportTime": "2026-07-17T02:00:00.000Z", "rawOb": "METAR RJCK 170200Z 17008KT 9999 PRFG FEW004 SCT006 BKN009 19/18 Q1008"}, "RJOM": {"temp": 28, "dewp": 24, "wdir": 280, "wspd": 4, "wgst": null, "reportTime": "2026-07-17T02:00:00.000Z", "rawOb": "METAR RJOM 170200Z 28004KT 240V300 9999 FEW030 SCT100 BKN/// 28/24 Q1003"}, "RJOB": {"temp": 32, "dewp": 26, "wdir": "VRB", "wspd": 4, "wgst": null, "reportTime": "2026-07-17T02:00:00.000Z", "rawOb": "METAR RJOB 170200Z VRB04KT 9999 FEW025 SCT030 BKN/// 32/26 Q1004"}, "RJOO": {"temp": 34, "dewp": 22, "wdir": 50, "wspd": 3, "wgst": null, "reportTime": "2026-07-17T02:00:00.000Z", "rawOb": "METAR RJOO 170200Z 05003KT 340V130 9999 FEW030 BKN130 BKN/// 34/22 Q1002"}, "RJSS": {"temp": 24, "dewp": 23, "wdir": 140, "wspd": 8, "wgst": null, "reportTime": "2026-07-17T02:00:00.000Z", "rawOb": "METAR RJSS 170200Z 14008KT 6000 -SHRA FEW002 BKN003 BKN004 24/23 Q1006"}, "RJCB": {"temp": 25, "dewp": 23, "wdir": 160, "wspd": 9, "wgst": null, "reportTime": "2026-07-17T02:00:00.000Z", "rawOb": "METAR RJCB 170200Z 16009KT 130V200 9999 FEW005 SCT008 BKN/// 25/23 Q1008"}, "RJBE": {"temp": 31, "dewp": 24, "wdir": 210, "wspd": 6, "wgst": null, "reportTime": "2026-07-17T02:00:00.000Z", "rawOb": "METAR RJBE 170200Z 21006KT 9999 FEW035 SCT130 BKN/// 31/24 Q1003"}, "RJTT": {"temp": 31, "dewp": 26, "wdir": 160, "wspd": 8, "wgst": null, "reportTime": "2026-07-17T01:30:00.000Z", "rawOb": "METAR RJTT 170130Z 16008KT 8000 FEW015 SCT060 BKN/// 31/26 Q1003 NOSIG"}, "RJSK": {"temp": 30, "dewp": 25, "wdir": 150, "wspd": 4, "wgst": null, "reportTime": "2026-07-17T02:00:00.000Z", "rawOb": "METAR RJSK 170200Z 15004KT 120V180 9999 FEW030 BKN070 30/25 Q1005"}, "RJBB": {"temp": 29, "dewp": 24, "wdir": 280, "wspd": 5, "wgst": null, "reportTime": "2026-07-17T01:30:00.000Z", "rawOb": "METAR RJBB 170130Z 28005KT 9999 FEW030 BKN/// 29/24 Q1003 NOSIG"}, "RJAA": {"temp": 26, "dewp": 25, "wdir": 140, "wspd": 9, "wgst": null, "reportTime": "2026-07-17T01:30:00.000Z", "rawOb": "METAR RJAA 170130Z 14009KT 8000 -SHRA BR SCT005 BKN007 BKN025 26/25 Q1004 TEMPO 3000 SHRA BR FEW002 BKN005"}, "RJGG": {"temp": 29, "dewp": 25, "wdir": 190, "wspd": 8, "wgst": null, "reportTime": "2026-07-17T01:30:00.000Z", "rawOb": "METAR RJGG 170130Z 19008KT 9999 FEW015 BKN/// 29/25 Q1003 NOSIG"}, "ROAH": {"temp": 30, "dewp": 28, "wdir": 230, "wspd": 7, "wgst": null, "reportTime": "2026-07-17T01:30:00.000Z", "rawOb": "METAR ROAH 170130Z 23007KT 9999 BKN008 BKN012 30/28 Q1007"}, "RJOT": {"temp": 31, "dewp": 22, "wdir": 350, "wspd": 4, "wgst": null, "reportTime": "2026-07-17T02:00:00.000Z", "rawOb": "METAR RJOT 170200Z 35004KT 310V050 9999 FEW030 SCT100 BKN/// 31/22 Q1004"}, "RJEC": {"temp": 29, "dewp": 21, "wdir": "VRB", "wspd": 2, "wgst": null, "reportTime": "2026-07-17T02:00:00.000Z", "rawOb": "METAR RJEC 170200Z VRB02KT 9999 FEW020 BKN/// 29/21 Q1006"}, "RJCO": {"temp": 28, "dewp": 22, "wdir": 140, "wspd": 11, "wgst": null, "reportTime": "2026-07-17T02:00:00.000Z", "rawOb": "METAR RJCO 170200Z 14011KT 9999 FEW010 BKN230 28/22 Q1005"}, "RJOA": {"temp": 30, "dewp": 22, "wdir": "VRB", "wspd": 3, "wgst": null, "reportTime": "2026-07-17T02:00:00.000Z", "rawOb": "METAR RJOA 170200Z VRB03KT 9999 FEW025 BKN/// 30/22 Q1005"}, "_updated": "2026-07-17T04:28:02Z"}