{"RJGG": {"temp": 29, "dewp": 25, "wdir": 160, "wspd": 12, "wgst": null, "reportTime": "2026-07-18T09:00:00.000Z", "rawOb": "METAR RJGG 180900Z 16012KT 9999 FEW020 29/25 Q1005 NOSIG"}, "RJBB": {"temp": 31, "dewp": 24, "wdir": 210, "wspd": 15, "wgst": null, "reportTime": "2026-07-18T09:00:00.000Z", "rawOb": "METAR RJBB 180900Z 21015KT 9999 FEW020 FEW025CB BKN/// 31/24 Q1003 NOSIG"}, "RJFF": {"temp": 34, "dewp": 24, "wdir": 160, "wspd": 10, "wgst": null, "reportTime": "2026-07-18T09:00:00.000Z", "rawOb": "METAR RJFF 180900Z 16010KT 9999 FEW025 BKN/// 34/24 Q1001 NOSIG"}, "RJAA": {"temp": 27, "dewp": 23, "wdir": 160, "wspd": 8, "wgst": null, "reportTime": "2026-07-18T09:00:00.000Z", "rawOb": "METAR RJAA 180900Z 16008KT 9999 FEW015 BKN/// 27/23 Q1007 NOSIG"}, "RJTT": {"temp": 29, "dewp": 23, "wdir": 200, "wspd": 12, "wgst": null, "reportTime": "2026-07-18T09:00:00.000Z", "rawOb": "METAR RJTT 180900Z 20012KT 9999 FEW020 SCT030 BKN/// 29/23 Q1007 NOSIG"}, "ROAH": {"temp": 29, "dewp": 28, "wdir": 210, "wspd": 8, "wgst": null, "reportTime": "2026-07-18T09:00:00.000Z", "rawOb": "METAR ROAH 180900Z 21008KT 9999 FEW006 SCT008 29/28 Q1005"}, "RJCK": {"temp": 19, "dewp": 19, "wdir": 140, "wspd": 9, "wgst": null, "reportTime": "2026-07-18T09:00:00.000Z", "rawOb": "METAR RJCK 180900Z 14009KT 0300 R17/0800V1100D FG -SHRA VV001 19/19 Q1012"}, "RJOA": {"temp": 30, "dewp": 24, "wdir": 170, "wspd": 3, "wgst": null, "reportTime": "2026-07-18T09:00:00.000Z", "rawOb": "METAR RJOA 180900Z 17003KT 110V210 9999 FEW030 SCT/// 30/24 Q1005"}, "RJSS": {"temp": 24, "dewp": 22, "wdir": 160, "wspd": 12, "wgst": null, "reportTime": "2026-07-18T09:00:00.000Z", "rawOb": "METAR RJSS 180900Z 16012KT 9999 FEW008 SCT030 BKN070 24/22 Q1007"}, "RJCO": {"temp": 22, "dewp": 21, "wdir": 150, "wspd": 10, "wgst": null, "reportTime": "2026-07-18T09:00:00.000Z", "rawOb": "METAR RJCO 180900Z 15010KT 9999 -SHRA FEW012 BKN030 BKN100 22/21 Q1008"}, "RJOO": {"temp": 32, "dewp": 24, "wdir": 240, "wspd": 9, "wgst": null, "reportTime": "2026-07-18T09:00:00.000Z", "rawOb": "METAR RJOO 180900Z 24009KT 140V290 9999 FEW020 BKN035 32/24 Q1004"}, "RJCB": {"temp": 19, "dewp": 19, "wdir": 120, "wspd": 7, "wgst": null, "reportTime": "2026-07-18T09:00:00.000Z", "rawOb": "METAR RJCB 180900Z 12007KT 2400 -SHRA BR FEW003 SCT004 BKN005 19/19 Q1011"}, "RJOT": {"temp": 30, "dewp": 27, "wdir": 150, "wspd": 3, "wgst": null, "reportTime": "2026-07-18T09:00:00.000Z", "rawOb": "METAR RJOT 180900Z 15003KT 090V200 9999 FEW025 SCT/// 30/27 Q1004"}, "RJOB": {"temp": 31, "dewp": 25, "wdir": 100, "wspd": 6, "wgst": null, "reportTime": "2026-07-18T09:00:00.000Z", "rawOb": "METAR RJOB 180900Z 10006KT 9999 FEW030 SCT/// 31/25 Q1004"}, "RJBE": {"temp": 29, "dewp": 26, "wdir": 240, "wspd": 12, "wgst": null, "reportTime": "2026-07-18T09:00:00.000Z", "rawOb": "METAR RJBE 180900Z 24012KT 9999 FEW020 BKN/// 29/26 Q1004"}, "RJSK": {"temp": 27, "dewp": 22, "wdir": 130, "wspd": 8, "wgst": null, "reportTime": "2026-07-18T09:00:00.000Z", "rawOb": "METAR RJSK 180900Z 13008KT 9999 FEW025 BKN045 BKN090 27/22 Q1005"}, "RJOM": {"temp": 30, "dewp": 25, "wdir": 360, "wspd": 6, "wgst": null, "reportTime": "2026-07-18T09:00:00.000Z", "rawOb": "METAR RJOM 180900Z 36006KT 9999 FEW035 SCT050 30/25 Q1002"}, "RJEC": {"temp": 22, "dewp": 21, "wdir": "VRB", "wspd": 1, "wgst": null, "reportTime": "2026-07-18T09:00:00.000Z", "rawOb": "METAR RJEC 180900Z VRB01KT 9999 -SHRA FEW003 SCT020 BKN080 22/21 Q1009"}, "_updated": "2026-07-18T11:54:58Z"}