{"RJAA": {"temp": 25, "dewp": 24, "wdir": 30, "wspd": 4, "wgst": null, "reportTime": "2026-07-24T19:00:00.000Z", "rawOb": "METAR RJAA 241900Z AUTO 03004KT 9999 SCT004 OVC005 25/24 Q1009 NOSIG"}, "RJFF": {"temp": 27, "dewp": 24, "wdir": 110, "wspd": 3, "wgst": null, "reportTime": "2026-07-24T19:00:00.000Z", "rawOb": "METAR RJFF 241900Z AUTO 11003KT 080V150 9999 NCD 27/24 Q1012 NOSIG"}, "RJBB": {"temp": 29, "dewp": 23, "wdir": 90, "wspd": 4, "wgst": null, "reportTime": "2026-07-24T19:00:00.000Z", "rawOb": "METAR RJBB 241900Z AUTO 09004KT 9999 NCD 29/23 Q1010 NOSIG"}, "RJGG": {"temp": 29, "dewp": 25, "wdir": 310, "wspd": 11, "wgst": null, "reportTime": "2026-07-24T19:00:00.000Z", "rawOb": "METAR RJGG 241900Z AUTO 31011KT 9999 NCD 29/25 Q1008 NOSIG"}, "RJTT": {"temp": 27, "dewp": 26, "wdir": 10, "wspd": 8, "wgst": null, "reportTime": "2026-07-24T19:00:00.000Z", "rawOb": "METAR RJTT 241900Z 01008KT 9999 FEW010 BKN015 27/26 Q1008 TEMPO FEW005 BKN008"}, "ROAH": {"temp": 28, "dewp": 27, "wdir": 130, "wspd": 5, "wgst": null, "reportTime": "2026-07-24T19:00:00.000Z", "rawOb": "METAR ROAH 241900Z AUTO 13005KT 9999 NCD 28/27 Q1010"}, "RJOO": {"temp": 28, "dewp": 23, "wdir": 330, "wspd": 9, "wgst": null, "reportTime": "2026-07-24T19:00:00.000Z", "rawOb": "METAR RJOO 241900Z AUTO 33009KT 9999 NCD 28/23 Q1010"}, "RJOT": {"temp": 26, "dewp": 23, "wdir": 220, "wspd": 6, "wgst": null, "reportTime": "2026-07-24T19:00:00.000Z", "rawOb": "METAR RJOT 241900Z AUTO 22006KT 9999 NCD 26/23 Q1012"}, "RJCK": {"temp": 13, "dewp": 13, "wdir": 340, "wspd": 3, "wgst": null, "reportTime": "2026-07-24T19:00:00.000Z", "rawOb": "METAR RJCK 241900Z AUTO 34003KT 9999 BKN012 OVC013 13/13 Q1016"}, "RJOM": {"temp": 27, "dewp": 24, "wdir": 50, "wspd": 2, "wgst": null, "reportTime": "2026-07-24T19:00:00.000Z", "rawOb": "METAR RJOM 241900Z AUTO 05002KT 9999 NCD 27/24 Q1011"}, "RJSS": {"temp": 23, "dewp": 22, "wdir": 120, "wspd": 5, "wgst": null, "reportTime": "2026-07-24T19:00:00.000Z", "rawOb": "METAR RJSS 241900Z AUTO 12005KT 6000 -RA FEW003 SCT007 BKN008 //////TCU 23/22 Q1009"}, "RJOA": {"temp": 26, "dewp": 19, "wdir": 320, "wspd": 5, "wgst": null, "reportTime": "2026-07-24T19:00:00.000Z", "rawOb": "METAR RJOA 241900Z AUTO 32005KT 9999 NCD 26/19 Q1013"}, "RJEC": {"temp": 15, "dewp": 15, "wdir": 300, "wspd": 3, "wgst": null, "reportTime": "2026-07-24T19:00:00.000Z", "rawOb": "METAR RJEC 241900Z AUTO 30003KT 9000 OVC002 15/15 Q1014"}, "_updated": "2026-07-24T21:38:08Z"}