{"RJGG": {"temp": 29, "dewp": 25, "wdir": 290, "wspd": 4, "wgst": null, "reportTime": "2026-07-16T14:00:00.000Z", "rawOb": "METAR RJGG 161400Z AUTO 29004KT 9999 NCD 29/25 Q1002 NOSIG"}, "RJFF": {"temp": 29, "dewp": 25, "wdir": 150, "wspd": 9, "wgst": null, "reportTime": "2026-07-16T14:00:00.000Z", "rawOb": "METAR RJFF 161400Z AUTO 15009KT 9999 NCD 29/25 Q1003 NOSIG"}, "RJBB": {"temp": 29, "dewp": 24, "wdir": "VRB", "wspd": 2, "wgst": null, "reportTime": "2026-07-16T14:00:00.000Z", "rawOb": "METAR RJBB 161400Z AUTO VRB02KT 9999 NCD 29/24 Q1002 BECMG 04006KT"}, "RJAA": {"temp": 26, "dewp": 26, "wdir": 130, "wspd": 7, "wgst": null, "reportTime": "2026-07-16T14:00:00.000Z", "rawOb": "METAR RJAA 161400Z AUTO 13007KT 100V170 8000 OVC003 26/26 Q1003 TEMPO 4000 BR"}, "ROAH": {"temp": 28, "dewp": 27, "wdir": 220, "wspd": 10, "wgst": null, "reportTime": "2026-07-16T14:00:00.000Z", "rawOb": "METAR ROAH 161400Z AUTO 22010KT 9999 FEW005 OVC007 28/27 Q1009"}, "RJTT": {"temp": 29, "dewp": 26, "wdir": 180, "wspd": 8, "wgst": null, "reportTime": "2026-07-16T14:00:00.000Z", "rawOb": "METAR RJTT 161400Z 18008KT 9999 FEW015 BKN020 29/26 Q1002 BECMG TL1430 36006KT"}, "RJSS": {"temp": 24, "dewp": 23, "wdir": 30, "wspd": 6, "wgst": null, "reportTime": "2026-07-16T14:00:00.000Z", "rawOb": "METAR RJSS 161400Z AUTO 03006KT 0200 R27/0550V1400D FG OVC000 24/23 Q1003"}, "RJCK": {"temp": 20, "dewp": 20, "wdir": 40, "wspd": 3, "wgst": null, "reportTime": "2026-07-16T14:00:00.000Z", "rawOb": "METAR RJCK 161400Z AUTO 04003KT 0100 R35/0400V0700U FG OVC001 20/20 Q1004"}, "RJOO": {"temp": 29, "dewp": 22, "wdir": "VRB", "wspd": 2, "wgst": null, "reportTime": "2026-07-16T14:00:00.000Z", "rawOb": "METAR RJOO 161400Z AUTO VRB02KT 9999 NCD 29/22 Q1002"}, "RJOA": {"temp": 27, "dewp": 20, "wdir": 300, "wspd": 3, "wgst": null, "reportTime": "2026-07-16T14:00:00.000Z", "rawOb": "METAR RJOA 161400Z AUTO 30003KT 9999 NSC 27/20 Q1004"}, "RJOM": {"temp": 28, "dewp": 21, "wdir": 130, "wspd": 6, "wgst": null, "reportTime": "2026-07-16T14:00:00.000Z", "rawOb": "METAR RJOM 161400Z AUTO 13006KT 9999 NSC 28/21 Q1002"}, "RJEC": {"temp": 21, "dewp": 21, "wdir": 180, "wspd": 6, "wgst": null, "reportTime": "2026-07-16T14:00:00.000Z", "rawOb": "METAR RJEC 161400Z AUTO 18006KT 0500 R34/0200VP2000U FG NCD 21/21 Q1005"}, "RJOT": {"temp": 25, "dewp": 21, "wdir": 140, "wspd": 8, "wgst": null, "reportTime": "2026-07-16T14:00:00.000Z", "rawOb": "METAR RJOT 161400Z AUTO 14008KT 9999 NCD 25/21 Q1003"}, "_updated": "2026-07-16T16:42:25Z"}