{"RJSK": {"temp": 25, "dewp": 24, "wdir": 130, "wspd": 3, "wgst": null, "reportTime": "2026-07-21T22:00:00.000Z", "rawOb": "METAR RJSK 212200Z 13003KT 090V170 9999 FEW002 BKN010 BKN025 25/24 Q1008"}, "ROAH": {"temp": 28, "dewp": 27, "wdir": 310, "wspd": 2, "wgst": null, "reportTime": "2026-07-21T19:30:00.000Z", "rawOb": "METAR ROAH 211930Z AUTO 31002KT 9999 NCD 28/27 Q1009"}, "RJSS": {"temp": 25, "dewp": 24, "wdir": 240, "wspd": 4, "wgst": null, "reportTime": "2026-07-21T20:00:00.000Z", "rawOb": "METAR RJSS 212000Z AUTO 24004KT 9999 NCD 25/24 Q1008"}, "RJTT": {"temp": 28, "dewp": 26, "wdir": 190, "wspd": 6, "wgst": null, "reportTime": "2026-07-21T19:30:00.000Z", "rawOb": "METAR RJTT 211930Z 19006KT 8000 NSC 28/26 Q1008 NOSIG"}, "RJFF": {"temp": 28, "dewp": 25, "wdir": 310, "wspd": 4, "wgst": null, "reportTime": "2026-07-21T19:30:00.000Z", "rawOb": "METAR RJFF 211930Z AUTO 31004KT 9999 NCD 28/25 Q1010 NOSIG"}, "RJBE": {"temp": 29, "dewp": 27, "wdir": 220, "wspd": 5, "wgst": null, "reportTime": "2026-07-21T22:00:00.000Z", "rawOb": "METAR RJBE 212200Z 22005KT CAVOK 29/27 Q1010"}, "RJBB": {"temp": 27, "dewp": 25, "wdir": 230, "wspd": 5, "wgst": null, "reportTime": "2026-07-21T19:30:00.000Z", "rawOb": "METAR RJBB 211930Z AUTO 23005KT 9999 FEW037 27/25 Q1009 NOSIG"}, "RJEC": {"temp": 20, "dewp": 19, "wdir": "VRB", "wspd": 2, "wgst": null, "reportTime": "2026-07-21T20:00:00.000Z", "rawOb": "METAR RJEC 212000Z AUTO VRB02KT 9999 FEW011 SCT230 OVC240 20/19 Q1007"}, "RJGG": {"temp": 29, "dewp": 27, "wdir": 110, "wspd": 5, "wgst": null, "reportTime": "2026-07-21T19:30:00.000Z", "rawOb": "METAR RJGG 211930Z AUTO 11005KT 9000 NCD 29/27 Q1008 BECMG FM2000 06004KT"}, "RJCO": {"temp": 23, "dewp": 21, "wdir": 70, "wspd": 1, "wgst": null, "reportTime": "2026-07-21T22:00:00.000Z", "rawOb": "METAR RJCO 212200Z 07001KT 9999 -SHRA FEW010 SCT030 BKN100 23/21 Q1006"}, "RJAA": {"temp": 26, "dewp": 25, "wdir": 190, "wspd": 2, "wgst": null, "reportTime": "2026-07-21T19:30:00.000Z", "rawOb": "METAR RJAA 211930Z AUTO 19002KT 7000 NCD 26/25 Q1008 NOSIG"}, "RJOA": {"temp": 25, "dewp": 24, "wdir": 310, "wspd": 4, "wgst": null, "reportTime": "2026-07-21T20:00:00.000Z", "rawOb": "METAR RJOA 212000Z AUTO 31004KT 7000 NCD 25/24 Q1012"}, "RJOB": {"temp": 27, "dewp": 25, "wdir": 110, "wspd": 2, "wgst": null, "reportTime": "2026-07-21T22:00:00.000Z", "rawOb": "METAR RJOB 212200Z 11002KT 6000 PRFG FEW000 SCT025 27/25 Q1012"}, "RJOM": {"temp": 27, "dewp": 25, "wdir": "VRB", "wspd": 1, "wgst": null, "reportTime": "2026-07-21T20:00:00.000Z", "rawOb": "METAR RJOM 212000Z AUTO VRB01KT 9999 FEW050 27/25 Q1010"}, "RJCK": {"temp": 19, "dewp": 19, "wdir": 40, "wspd": 3, "wgst": null, "reportTime": "2026-07-21T20:00:00.000Z", "rawOb": "METAR RJCK 212000Z AUTO 04003KT 0000 R35/0250V0400N FG OVC000 19/19 Q1006"}, "RJOO": {"temp": 28, "dewp": 25, "wdir": 320, "wspd": 3, "wgst": null, "reportTime": "2026-07-21T20:00:00.000Z", "rawOb": "METAR RJOO 212000Z AUTO 32003KT 9999 NCD 28/25 Q1009"}, "RJOT": {"temp": 26, "dewp": 24, "wdir": 220, "wspd": 5, "wgst": null, "reportTime": "2026-07-21T20:00:00.000Z", "rawOb": "METAR RJOT 212000Z AUTO 22005KT 9999 FEW045 26/24 Q1011"}, "_updated": "2026-07-21T22:05:58Z"}