{"RJGG": {"temp": 28, "dewp": 24, "wdir": 290, "wspd": 11, "wgst": null, "reportTime": "2026-07-12T21:30:00.000Z", "rawOb": "METAR RJGG 122130Z 29011KT 9999 FEW020 BKN/// 28/24 Q1010 NOSIG"}, "ROAH": {"temp": 27, "dewp": 25, "wdir": 160, "wspd": 15, "wgst": null, "reportTime": "2026-07-12T21:30:00.000Z", "rawOb": "METAR ROAH 122130Z 16015KT 9999 FEW008 SCT010 27/25 Q1011"}, "RJTT": {"temp": 26, "dewp": 25, "wdir": 190, "wspd": 7, "wgst": null, "reportTime": "2026-07-12T21:30:00.000Z", "rawOb": "METAR RJTT 122130Z 19007KT 9999 -SHRA FEW030 BKN120 26/25 Q1006 NOSIG"}, "RJBB": {"temp": 26, "dewp": 25, "wdir": 0, "wspd": 0, "wgst": null, "reportTime": "2026-07-12T21:30:00.000Z", "rawOb": "METAR RJBB 122130Z 00000KT 9999 FEW020 SCT030 BKN035 26/25 Q1012 NOSIG"}, "RJFF": {"temp": 29, "dewp": 25, "wdir": 140, "wspd": 5, "wgst": null, "reportTime": "2026-07-12T21:30:00.000Z", "rawOb": "METAR RJFF 122130Z 14005KT 9999 FEW010 BKN/// 29/25 Q1012 NOSIG"}, "RJAA": {"temp": 24, "dewp": 23, "wdir": 40, "wspd": 5, "wgst": null, "reportTime": "2026-07-12T21:30:00.000Z", "rawOb": "METAR RJAA 122130Z 04005KT 7000 -SHRA FEW020 BKN080 24/23 Q1007 NOSIG"}, "RJOO": {"temp": 29, "dewp": 25, "wdir": "VRB", "wspd": 2, "wgst": null, "reportTime": "2026-07-12T22:00:00.000Z", "rawOb": "METAR RJOO 122200Z VRB02KT 9999 FEW025 BKN/// 29/25 Q1011"}, "RJOA": {"temp": 26, "dewp": 24, "wdir": 280, "wspd": 4, "wgst": null, "reportTime": "2026-07-12T22:00:00.000Z", "rawOb": "METAR RJOA 122200Z AUTO 28004KT 9999 NCD 26/24 Q1014"}, "RJOB": {"temp": 27, "dewp": 25, "wdir": "VRB", "wspd": 2, "wgst": null, "reportTime": "2026-07-12T22:00:00.000Z", "rawOb": "METAR RJOB 122200Z VRB02KT 9999 FEW025 BKN/// 27/25 Q1013"}, "RJOM": {"temp": 27, "dewp": 26, "wdir": 220, "wspd": 2, "wgst": null, "reportTime": "2026-07-12T22:00:00.000Z", "rawOb": "METAR RJOM 122200Z 22002KT 9999 FEW003 SCT/// 27/26 Q1012"}, "RJOT": {"temp": 28, "dewp": 25, "wdir": 240, "wspd": 7, "wgst": null, "reportTime": "2026-07-12T22:00:00.000Z", "rawOb": "METAR RJOT 122200Z 24007KT 9999 FEW015 SCT/// 28/25 Q1013"}, "RJSS": {"temp": 25, "dewp": 22, "wdir": 260, "wspd": 5, "wgst": null, "reportTime": "2026-07-12T22:00:00.000Z", "rawOb": "METAR RJSS 122200Z AUTO 26005KT 9999 BKN050 OVC060 25/22 Q1005"}, "RJBE": {"temp": 27, "dewp": 25, "wdir": 240, "wspd": 6, "wgst": null, "reportTime": "2026-07-12T22:00:00.000Z", "rawOb": "METAR RJBE 122200Z 24006KT 9999 FEW030 BKN/// 27/25 Q1011"}, "RJCB": {"temp": 19, "dewp": 19, "wdir": "VRB", "wspd": 2, "wgst": null, "reportTime": "2026-07-12T23:00:00.000Z", "rawOb": "METAR RJCB 122300Z VRB02KT 1500 R35/P2000N BR FEW001 BKN002 19/19 Q1006"}, "RJCK": {"temp": 19, "dewp": 19, "wdir": 40, "wspd": 4, "wgst": null, "reportTime": "2026-07-12T22:00:00.000Z", "rawOb": "METAR RJCK 122200Z AUTO 04004KT 360V070 0700 R35/P2000N FG OVC001 19/19 Q1006"}, "RJCO": {"temp": 23, "dewp": 21, "wdir": 310, "wspd": 5, "wgst": null, "reportTime": "2026-07-12T22:00:00.000Z", "rawOb": "METAR RJCO 122200Z 31005KT 290V360 9999 FEW003 SCT007 BKN015 23/21 Q1005"}, "RJEC": {"temp": 22, "dewp": 21, "wdir": 30, "wspd": 5, "wgst": null, "reportTime": "2026-07-12T22:00:00.000Z", "rawOb": "METAR RJEC 122200Z AUTO 03005KT 3500 R34/1400VP2000U BR OVC001 22/21 Q1006"}, "RJSK": {"temp": 22, "dewp": 22, "wdir": 320, "wspd": 5, "wgst": null, "reportTime": "2026-07-12T22:00:00.000Z", "rawOb": "METAR RJSK 122200Z 32005KT 4000 BR FEW000 BKN003 BKN006 22/22 Q1007"}, "_updated": "2026-07-13T00:00:29Z"}