{"RJSS": {"temp": 20, "dewp": 19, "wdir": "VRB", "wspd": 2, "wgst": null, "reportTime": "2026-07-04T19:00:00.000Z", "rawOb": "METAR RJSS 041900Z AUTO VRB02KT 9999 OVC007 20/19 Q1012"}, "RJOA": {"temp": 21, "dewp": 21, "wdir": 110, "wspd": 2, "wgst": null, "reportTime": "2026-07-04T19:00:00.000Z", "rawOb": "METAR RJOA 041900Z AUTO 11002KT 4700 R28/P2000N BR OVC002 21/21 Q1009"}, "RJTT": {"temp": 23, "dewp": 22, "wdir": 90, "wspd": 8, "wgst": null, "reportTime": "2026-07-04T18:30:00.000Z", "rawOb": "METAR RJTT 041830Z 09008KT 9999 VCSH FEW008 SCT020 BKN030 23/22 Q1010 NOSIG"}, "RJOM": {"temp": 25, "dewp": 24, "wdir": 30, "wspd": 3, "wgst": null, "reportTime": "2026-07-04T19:00:00.000Z", "rawOb": "METAR RJOM 041900Z AUTO 03003KT 350V090 9999 FEW023 SCT040 BKN044 25/24 Q1008"}, "RJOO": {"temp": 22, "dewp": 21, "wdir": "VRB", "wspd": 2, "wgst": null, "reportTime": "2026-07-04T19:00:00.000Z", "rawOb": "METAR RJOO 041900Z AUTO VRB02KT 9999 OVC015 22/21 Q1009"}, "RJFF": {"temp": 26, "dewp": 25, "wdir": 70, "wspd": 2, "wgst": null, "reportTime": "2026-07-04T18:30:00.000Z", "rawOb": "METAR RJFF 041830Z AUTO 07002KT 9999 SCT026 BKN030 BKN047 26/25 Q1008 NOSIG"}, "RJOT": {"temp": 22, "dewp": 22, "wdir": 70, "wspd": 3, "wgst": null, "reportTime": "2026-07-04T19:00:00.000Z", "rawOb": "METAR RJOT 041900Z AUTO 07003KT 3000 BR FEW000 BKN017 BKN027 22/22 Q1009"}, "ROAH": {"temp": 27, "dewp": 25, "wdir": 210, "wspd": 3, "wgst": null, "reportTime": "2026-07-04T18:30:00.000Z", "rawOb": "METAR ROAH 041830Z AUTO 21003KT 9999 NCD 27/25 Q1012"}, "RJAA": {"temp": 21, "dewp": 21, "wdir": 140, "wspd": 4, "wgst": null, "reportTime": "2026-07-04T18:30:00.000Z", "rawOb": "METAR RJAA 041830Z AUTO 14004KT 9999 FEW009 BKN050 OVC070 21/21 Q1011 NOSIG"}, "RJBB": {"temp": 22, "dewp": 22, "wdir": 70, "wspd": 5, "wgst": null, "reportTime": "2026-07-04T18:30:00.000Z", "rawOb": "METAR RJBB 041830Z AUTO 07005KT 9999 FEW010 SCT016 OVC017 22/22 Q1009 TEMPO FEW005 BKN008 BKN015"}, "RJCK": {"temp": 13, "dewp": 12, "wdir": "VRB", "wspd": 2, "wgst": null, "reportTime": "2026-07-04T19:00:00.000Z", "rawOb": "METAR RJCK 041900Z AUTO VRB02KT 9999 OVC005 13/12 Q1015"}, "RJEC": {"temp": 13, "dewp": 12, "wdir": 160, "wspd": 3, "wgst": null, "reportTime": "2026-07-04T19:00:00.000Z", "rawOb": "METAR RJEC 041900Z AUTO 16003KT 9000 NCD 13/12 Q1013"}, "RJGG": {"temp": 22, "dewp": 21, "wdir": 320, "wspd": 4, "wgst": null, "reportTime": "2026-07-04T18:30:00.000Z", "rawOb": "METAR RJGG 041830Z AUTO 32004KT 3900 RA BR FEW004 SCT005 BKN008 22/21 Q1009 TEMPO TL2000 3000 SHRA BR FEW003 BKN005 BECMG TL2000 -SHRA BR"}, "_updated": "2026-07-04T21:06:55Z"}