{"RJOO": {"temp": 32, "dewp": 23, "wdir": "VRB", "wspd": 2, "wgst": null, "reportTime": "2026-07-14T01:00:00.000Z", "rawOb": "METAR RJOO 140100Z VRB02KT 9999 SCT035 BKN/// 32/23 Q1010"}, "RJAA": {"temp": 30, "dewp": 24, "wdir": 180, "wspd": 4, "wgst": null, "reportTime": "2026-07-14T01:00:00.000Z", "rawOb": "METAR RJAA 140100Z 18004KT 130V220 9999 FEW025 BKN/// 30/24 Q1007 NOSIG"}, "RJOM": {"temp": 30, "dewp": 25, "wdir": 240, "wspd": 7, "wgst": null, "reportTime": "2026-07-14T01:00:00.000Z", "rawOb": "METAR RJOM 140100Z 24007KT 9999 FEW025 30/25 Q1011"}, "RJCK": {"temp": 21, "dewp": 19, "wdir": 180, "wspd": 8, "wgst": null, "reportTime": "2026-07-14T01:00:00.000Z", "rawOb": "METAR RJCK 140100Z 18008KT 9999 PRFG FEW001 BKN/// 21/19 Q1005"}, "RJTT": {"temp": 32, "dewp": 24, "wdir": 180, "wspd": 8, "wgst": null, "reportTime": "2026-07-14T01:00:00.000Z", "rawOb": "METAR RJTT 140100Z 18008KT CAVOK 32/24 Q1007 NOSIG"}, "RJOB": {"temp": 31, "dewp": 24, "wdir": "VRB", "wspd": 4, "wgst": null, "reportTime": "2026-07-14T01:00:00.000Z", "rawOb": "METAR RJOB 140100Z VRB04KT 9999 FEW020 SCT030 31/24 Q1011"}, "RJBE": {"temp": 30, "dewp": 24, "wdir": 170, "wspd": 4, "wgst": null, "reportTime": "2026-07-14T01:00:00.000Z", "rawOb": "METAR RJBE 140100Z 17004KT 9999 FEW035 BKN/// 30/24 Q1010"}, "RJCB": {"temp": 25, "dewp": 23, "wdir": "VRB", "wspd": 2, "wgst": null, "reportTime": "2026-07-14T01:00:00.000Z", "rawOb": "METAR RJCB 140100Z VRB02KT 9999 FEW010 SCT015 BKN020 25/23 Q1005"}, "RJCO": {"temp": 25, "dewp": 22, "wdir": 120, "wspd": 8, "wgst": null, "reportTime": "2026-07-14T01:00:00.000Z", "rawOb": "METAR RJCO 140100Z 12008KT 9999 FEW010 SCT040 BKN120 25/22 Q1004"}, "ROAH": {"temp": 30, "dewp": 25, "wdir": 180, "wspd": 13, "wgst": null, "reportTime": "2026-07-14T01:00:00.000Z", "rawOb": "METAR ROAH 140100Z 18013KT 9999 FEW010 BKN/// 30/25 Q1012"}, "RJEC": {"temp": 23, "dewp": 22, "wdir": 140, "wspd": 4, "wgst": null, "reportTime": "2026-07-14T01:00:00.000Z", "rawOb": "METAR RJEC 140100Z 14004KT 4500 -SHRA BR FEW002 SCT006 BKN030 23/22 Q1005"}, "RJOT": {"temp": 32, "dewp": 24, "wdir": 260, "wspd": 12, "wgst": null, "reportTime": "2026-07-14T01:00:00.000Z", "rawOb": "METAR RJOT 140100Z 26012KT 9999 FEW030 32/24 Q1011"}, "RJOA": {"temp": 30, "dewp": 22, "wdir": 270, "wspd": 5, "wgst": null, "reportTime": "2026-07-14T01:00:00.000Z", "rawOb": "METAR RJOA 140100Z 27005KT 230V320 9999 FEW020 SCT030 BKN/// 30/22 Q1012"}, "RJSK": {"temp": 26, "dewp": 24, "wdir": 240, "wspd": 8, "wgst": null, "reportTime": "2026-07-14T01:00:00.000Z", "rawOb": "METAR RJSK 140100Z 24008KT 190V270 8000 FEW006 BKN008 26/24 Q1008"}, "RJBB": {"temp": 29, "dewp": 26, "wdir": 290, "wspd": 4, "wgst": null, "reportTime": "2026-07-14T01:00:00.000Z", "rawOb": "METAR RJBB 140100Z 29004KT 9999 FEW025 BKN/// 29/26 Q1010 NOSIG"}, "RJFF": {"temp": 32, "dewp": 23, "wdir": 210, "wspd": 6, "wgst": null, "reportTime": "2026-07-14T01:00:00.000Z", "rawOb": "METAR RJFF 140100Z 21006KT 170V280 9999 FEW025 BKN035 32/23 Q1010 NOSIG"}, "RJSS": {"temp": 26, "dewp": 23, "wdir": 110, "wspd": 4, "wgst": null, "reportTime": "2026-07-14T01:00:00.000Z", "rawOb": "METAR RJSS 140100Z 11004KT 9999 FEW030 SCT050 BKN/// 26/23 Q1007"}, "RJGG": {"temp": 32, "dewp": 25, "wdir": 340, "wspd": 10, "wgst": null, "reportTime": "2026-07-14T01:00:00.000Z", "rawOb": "METAR RJGG 140100Z 34010KT 9999 FEW020 BKN/// 32/25 Q1008 NOSIG"}, "_updated": "2026-07-14T03:35:14Z"}