{"RJTT": {"temp": 28, "dewp": 26, "wdir": 190, "wspd": 8, "wgst": null, "reportTime": "2026-07-20T21:00:00.000Z", "rawOb": "METAR RJTT 202100Z 19008KT 9999 FEW010 BKN110 28/26 Q1008 NOSIG"}, "RJGG": {"temp": 28, "dewp": 27, "wdir": "VRB", "wspd": 1, "wgst": null, "reportTime": "2026-07-20T21:00:00.000Z", "rawOb": "METAR RJGG 202100Z VRB01KT 8000 FEW012 28/27 Q1009 NOSIG"}, "RJFF": {"temp": 28, "dewp": 24, "wdir": 70, "wspd": 3, "wgst": null, "reportTime": "2026-07-20T21:00:00.000Z", "rawOb": "METAR RJFF 202100Z 07003KT 020V120 9999 FEW020 BKN050 BKN060 28/24 Q1009 NOSIG"}, "RJBB": {"temp": 27, "dewp": 26, "wdir": 270, "wspd": 2, "wgst": null, "reportTime": "2026-07-20T21:00:00.000Z", "rawOb": "METAR RJBB 202100Z 27002KT 9999 FEW010 27/26 Q1010 NOSIG"}, "ROAH": {"temp": 28, "dewp": 27, "wdir": 220, "wspd": 7, "wgst": null, "reportTime": "2026-07-20T21:00:00.000Z", "rawOb": "METAR ROAH 202100Z 22007KT 9999 FEW010 28/27 Q1009"}, "RJAA": {"temp": 27, "dewp": 25, "wdir": 230, "wspd": 3, "wgst": null, "reportTime": "2026-07-20T21:00:00.000Z", "rawOb": "METAR RJAA 202100Z 23003KT 200V260 9999 FEW030 BKN110 27/25 Q1008 NOSIG"}, "RJCB": {"temp": 26, "dewp": 22, "wdir": "VRB", "wspd": 2, "wgst": null, "reportTime": "2026-07-20T23:00:00.000Z", "rawOb": "METAR RJCB 202300Z VRB02KT 9999 FEW020 26/22 Q1006"}, "RJCK": {"temp": 21, "dewp": 21, "wdir": "VRB", "wspd": 2, "wgst": null, "reportTime": "2026-07-20T21:00:00.000Z", "rawOb": "METAR RJCK 202100Z AUTO VRB02KT 0700 R35/0225V2000D FG OVC000 21/21 Q1006"}, "RJCO": {"temp": 23, "dewp": 21, "wdir": "VRB", "wspd": 1, "wgst": null, "reportTime": "2026-07-20T22:00:00.000Z", "rawOb": "METAR RJCO 202200Z VRB01KT 9999 FEW015 SCT020 23/21 Q1007"}, "RJEC": {"temp": 21, "dewp": 19, "wdir": "VRB", "wspd": 2, "wgst": null, "reportTime": "2026-07-20T21:00:00.000Z", "rawOb": "METAR RJEC 202100Z AUTO VRB02KT 9999 FEW011 OVC014 21/19 Q1008"}, "RJOA": {"temp": 26, "dewp": 24, "wdir": 310, "wspd": 3, "wgst": null, "reportTime": "2026-07-20T21:00:00.000Z", "rawOb": "METAR RJOA 202100Z AUTO 31003KT 7000 NCD 26/24 Q1012"}, "RJOB": {"temp": 27, "dewp": 25, "wdir": 0, "wspd": 0, "wgst": null, "reportTime": "2026-07-20T22:00:00.000Z", "rawOb": "METAR RJOB 202200Z 00000KT 7000 PRFG FEW000 SCT050 27/25 Q1011"}, "RJOM": {"temp": 27, "dewp": 26, "wdir": 10, "wspd": 5, "wgst": null, "reportTime": "2026-07-20T21:00:00.000Z", "rawOb": "METAR RJOM 202100Z AUTO 01005KT 7000 FEW034 27/26 Q1009"}, "RJOO": {"temp": 29, "dewp": 26, "wdir": 260, "wspd": 3, "wgst": null, "reportTime": "2026-07-20T21:00:00.000Z", "rawOb": "METAR RJOO 202100Z AUTO 26003KT 210V300 9999 FEW015 29/26 Q1009"}, "RJSK": {"temp": 26, "dewp": 25, "wdir": 270, "wspd": 8, "wgst": null, "reportTime": "2026-07-20T22:00:00.000Z", "rawOb": "METAR RJSK 202200Z 27008KT 9000 FEW002 SCT004 BKN006 26/25 Q1009"}, "RJOT": {"temp": 27, "dewp": 25, "wdir": 200, "wspd": 5, "wgst": null, "reportTime": "2026-07-20T21:00:00.000Z", "rawOb": "METAR RJOT 202100Z AUTO 20005KT 170V230 9999 SCT035 27/25 Q1011"}, "RJSS": {"temp": 27, "dewp": 25, "wdir": 320, "wspd": 3, "wgst": null, "reportTime": "2026-07-20T21:00:00.000Z", "rawOb": "METAR RJSS 202100Z AUTO 32003KT 270V350 8000 FEW050 27/25 Q1007"}, "RJBE": {"temp": 29, "dewp": 26, "wdir": "VRB", "wspd": 2, "wgst": null, "reportTime": "2026-07-20T22:00:00.000Z", "rawOb": "METAR RJBE 202200Z VRB02KT 9999 FEW020 29/26 Q1010"}, "_updated": "2026-07-20T23:41:54Z"}