{"RJOA": {"temp": 25, "dewp": 22, "wdir": 280, "wspd": 4, "wgst": null, "reportTime": "2026-07-11T13:00:00.000Z", "rawOb": "METAR RJOA 111300Z 28004KT CAVOK 25/22 Q1016"}, "RJOM": {"temp": 26, "dewp": 23, "wdir": 360, "wspd": 9, "wgst": null, "reportTime": "2026-07-11T13:00:00.000Z", "rawOb": "METAR RJOM 111300Z AUTO 36009KT 9999 NCD 26/23 Q1014"}, "RJSS": {"temp": 24, "dewp": 23, "wdir": 200, "wspd": 3, "wgst": null, "reportTime": "2026-07-11T13:00:00.000Z", "rawOb": "METAR RJSS 111300Z AUTO 20003KT 9999 -RA FEW070 BKN090 OVC100 //////TCU 24/23 Q1012"}, "RJOT": {"temp": 25, "dewp": 24, "wdir": 140, "wspd": 4, "wgst": null, "reportTime": "2026-07-11T13:00:00.000Z", "rawOb": "METAR RJOT 111300Z AUTO 14004KT 9999 BKN038 25/24 Q1015"}, "RJOO": {"temp": 27, "dewp": 23, "wdir": 240, "wspd": 6, "wgst": null, "reportTime": "2026-07-11T13:00:00.000Z", "rawOb": "METAR RJOO 111300Z AUTO 24006KT 200V280 9999 NCD 27/23 Q1014"}, "RJAA": {"temp": 24, "dewp": 22, "wdir": 160, "wspd": 5, "wgst": null, "reportTime": "2026-07-11T12:30:00.000Z", "rawOb": "METAR RJAA 111230Z 16005KT CAVOK 24/22 Q1013 NOSIG"}, "RJBB": {"temp": 26, "dewp": 23, "wdir": 210, "wspd": 12, "wgst": null, "reportTime": "2026-07-11T12:30:00.000Z", "rawOb": "METAR RJBB 111230Z 21012KT 9999 FEW015 BKN/// 26/23 Q1014 NOSIG"}, "RJCK": {"temp": 20, "dewp": 19, "wdir": 320, "wspd": 5, "wgst": null, "reportTime": "2026-07-11T13:00:00.000Z", "rawOb": "METAR RJCK 111300Z AUTO 32005KT 9999 NSC 20/19 Q1009"}, "RJEC": {"temp": 22, "dewp": 20, "wdir": 170, "wspd": 7, "wgst": null, "reportTime": "2026-07-11T13:00:00.000Z", "rawOb": "METAR RJEC 111300Z AUTO 17007KT 9999 FEW025 SCT050 OVC060 //////TCU 22/20 Q1009"}, "RJTT": {"temp": 26, "dewp": 23, "wdir": 180, "wspd": 12, "wgst": null, "reportTime": "2026-07-11T12:30:00.000Z", "rawOb": "METAR RJTT 111230Z 18012KT 9999 FEW030 SCT190 BKN/// 26/23 Q1013 NOSIG"}, "RJFF": {"temp": 32, "dewp": 23, "wdir": 130, "wspd": 7, "wgst": null, "reportTime": "2026-07-11T12:30:00.000Z", "rawOb": "METAR RJFF 111230Z 13007KT CAVOK 32/23 Q1012 NOSIG"}, "RJGG": {"temp": 26, "dewp": 24, "wdir": 200, "wspd": 7, "wgst": null, "reportTime": "2026-07-11T12:30:00.000Z", "rawOb": "METAR RJGG 111230Z 20007KT 9999 FEW020 BKN/// 26/24 Q1014 NOSIG"}, "ROAH": {"temp": 28, "dewp": 26, "wdir": 150, "wspd": 30, "wgst": 42, "reportTime": "2026-07-11T12:30:00.000Z", "rawOb": "METAR ROAH 111230Z 15030G42KT 7000 SCT013 BKN020 28/26 Q1004"}, "RJBE": {"temp": 25, "dewp": 24, "wdir": 220, "wspd": 9, "wgst": null, "reportTime": "2026-07-11T13:00:00.000Z", "rawOb": "METAR RJBE 111300Z 22009KT 9999 FEW010 BKN/// 25/24 Q1014"}, "_updated": "2026-07-11T15:18:04Z"}