{"RJFF": {"temp": 34, "dewp": 25, "wdir": 200, "wspd": 13, "wgst": null, "reportTime": "2026-07-15T06:00:00.000Z", "rawOb": "METAR RJFF 150600Z 20013KT 9999 FEW025 BKN035 BKN045 34/25 Q1003 NOSIG"}, "RJCB": {"temp": 27, "dewp": 24, "wdir": 160, "wspd": 7, "wgst": null, "reportTime": "2026-07-15T06:00:00.000Z", "rawOb": "METAR RJCB 150600Z 16007KT 9999 FEW015 SCT050 BKN070 27/24 Q1001"}, "RJBE": {"temp": 32, "dewp": 24, "wdir": 220, "wspd": 6, "wgst": null, "reportTime": "2026-07-15T06:00:00.000Z", "rawOb": "METAR RJBE 150600Z 22006KT 9999 FEW030 BKN/// 32/24 Q1002"}, "RJSS": {"temp": 28, "dewp": 24, "wdir": 130, "wspd": 9, "wgst": null, "reportTime": "2026-07-15T06:00:00.000Z", "rawOb": "METAR RJSS 150600Z 13009KT 9999 FEW040 BKN/// 28/24 Q1001"}, "RJOO": {"temp": 34, "dewp": 23, "wdir": 220, "wspd": 6, "wgst": null, "reportTime": "2026-07-15T06:00:00.000Z", "rawOb": "METAR RJOO 150600Z 22006KT 150V290 9999 FEW030 BKN/// 34/23 Q1002"}, "RJBB": {"temp": 32, "dewp": 25, "wdir": 320, "wspd": 7, "wgst": null, "reportTime": "2026-07-15T06:00:00.000Z", "rawOb": "METAR RJBB 150600Z 32007KT 9999 FEW030 BKN/// 32/25 Q1002 NOSIG"}, "RJEC": {"temp": 28, "dewp": 23, "wdir": 180, "wspd": 13, "wgst": null, "reportTime": "2026-07-15T06:00:00.000Z", "rawOb": "METAR RJEC 150600Z 18013KT 9999 FEW030 SCT050 BKN/// 28/23 Q1000"}, "RJAA": {"temp": 31, "dewp": 26, "wdir": 140, "wspd": 14, "wgst": null, "reportTime": "2026-07-15T06:00:00.000Z", "rawOb": "METAR RJAA 150600Z 14014KT 9999 FEW025 SCT/// 31/26 Q1001 NOSIG"}, "RJTT": {"temp": 32, "dewp": 23, "wdir": 200, "wspd": 17, "wgst": null, "reportTime": "2026-07-15T06:00:00.000Z", "rawOb": "METAR RJTT 150600Z 20017KT 9999 FEW030 BKN/// 32/23 Q1001 NOSIG"}, "RJCO": {"temp": 28, "dewp": 23, "wdir": 140, "wspd": 14, "wgst": null, "reportTime": "2026-07-15T06:00:00.000Z", "rawOb": "METAR RJCO 150600Z 14014KT 9999 FEW030 BKN040 BKN050 28/23 Q0998"}, "RJOM": {"temp": 30, "dewp": 24, "wdir": 330, "wspd": 5, "wgst": null, "reportTime": "2026-07-15T06:00:00.000Z", "rawOb": "METAR RJOM 150600Z 33005KT 9999 FEW030 BKN/// 30/24 Q1003"}, "RJGG": {"temp": 32, "dewp": 24, "wdir": 160, "wspd": 12, "wgst": null, "reportTime": "2026-07-15T06:00:00.000Z", "rawOb": "METAR RJGG 150600Z 16012KT 9999 FEW020 BKN/// 32/24 Q1002 NOSIG"}, "RJCK": {"temp": 19, "dewp": 18, "wdir": 170, "wspd": 4, "wgst": null, "reportTime": "2026-07-15T06:00:00.000Z", "rawOb": "METAR RJCK 150600Z 17004KT 0800 R17/2000N FG SCT001 BKN002 BKN003 19/18 Q1002"}, "ROAH": {"temp": 30, "dewp": 27, "wdir": 220, "wspd": 10, "wgst": null, "reportTime": "2026-07-15T06:00:00.000Z", "rawOb": "METAR ROAH 150600Z 22010KT 9999 FEW005 SCT/// 30/27 Q1010"}, "RJOT": {"temp": 34, "dewp": 25, "wdir": 240, "wspd": 10, "wgst": null, "reportTime": "2026-07-15T06:00:00.000Z", "rawOb": "METAR RJOT 150600Z 24010KT 9999 FEW030 BKN/// 34/25 Q1004"}, "RJOB": {"temp": 32, "dewp": 24, "wdir": 230, "wspd": 14, "wgst": null, "reportTime": "2026-07-15T06:00:00.000Z", "rawOb": "METAR RJOB 150600Z 23014KT 9999 FEW030 SCT040 BKN/// 32/24 Q1003"}, "RJOA": {"temp": 28, "dewp": 23, "wdir": 200, "wspd": 6, "wgst": null, "reportTime": "2026-07-15T06:00:00.000Z", "rawOb": "METAR RJOA 150600Z 20006KT 160V250 9999 FEW025 BKN030 BKN/// 28/23 Q1004"}, "RJSK": {"temp": 32, "dewp": 24, "wdir": 100, "wspd": 4, "wgst": null, "reportTime": "2026-07-15T06:00:00.000Z", "rawOb": "METAR RJSK 150600Z 10004KT 080V150 9999 FEW025 SCT040 BKN050 32/24 Q1001"}, "_updated": "2026-07-15T08:30:58Z"}