{"RJOO": {"temp": 30, "dewp": 26, "wdir": 290, "wspd": 3, "wgst": null, "reportTime": "2026-07-21T21:00:00.000Z", "rawOb": "METAR RJOO 212100Z AUTO 29003KT 220V350 9999 NCD 30/26 Q1010"}, "RJBE": {"temp": 29, "dewp": 27, "wdir": 220, "wspd": 5, "wgst": null, "reportTime": "2026-07-21T22:00:00.000Z", "rawOb": "METAR RJBE 212200Z 22005KT CAVOK 29/27 Q1010"}, "RJCB": {"temp": 22, "dewp": 21, "wdir": 80, "wspd": 3, "wgst": null, "reportTime": "2026-07-21T23:00:00.000Z", "rawOb": "METAR RJCB 212300Z 08003KT 050V130 9999 FEW003 SCT004 BKN005 22/21 Q1006"}, "ROAH": {"temp": 28, "dewp": 27, "wdir": 0, "wspd": 0, "wgst": null, "reportTime": "2026-07-21T20:30:00.000Z", "rawOb": "METAR ROAH 212030Z AUTO 00000KT 9999 NCD 28/27 Q1009"}, "RJTT": {"temp": 29, "dewp": 26, "wdir": 190, "wspd": 6, "wgst": null, "reportTime": "2026-07-21T20:30:00.000Z", "rawOb": "METAR RJTT 212030Z 19006KT 9999 FEW010 29/26 Q1008 NOSIG"}, "RJOT": {"temp": 26, "dewp": 24, "wdir": 220, "wspd": 6, "wgst": null, "reportTime": "2026-07-21T21:00:00.000Z", "rawOb": "METAR RJOT 212100Z AUTO 22006KT 9999 SCT049 26/24 Q1011"}, "RJAA": {"temp": 26, "dewp": 25, "wdir": 140, "wspd": 1, "wgst": null, "reportTime": "2026-07-21T20:30:00.000Z", "rawOb": "METAR RJAA 212030Z AUTO 14001KT 8000 NSC 26/25 Q1008 NOSIG"}, "RJSS": {"temp": 27, "dewp": 25, "wdir": "VRB", "wspd": 1, "wgst": null, "reportTime": "2026-07-21T21:00:00.000Z", "rawOb": "METAR RJSS 212100Z AUTO VRB01KT 9999 NCD 27/25 Q1008"}, "RJSK": {"temp": 25, "dewp": 24, "wdir": 130, "wspd": 3, "wgst": null, "reportTime": "2026-07-21T22:00:00.000Z", "rawOb": "METAR RJSK 212200Z 13003KT 090V170 9999 FEW002 BKN010 BKN025 25/24 Q1008"}, "RJOM": {"temp": 27, "dewp": 26, "wdir": "VRB", "wspd": 1, "wgst": null, "reportTime": "2026-07-21T21:00:00.000Z", "rawOb": "METAR RJOM 212100Z AUTO VRB01KT 9999 SCT033 OVC050 27/26 Q1010"}, "RJOB": {"temp": 27, "dewp": 25, "wdir": 110, "wspd": 2, "wgst": null, "reportTime": "2026-07-21T22:00:00.000Z", "rawOb": "METAR RJOB 212200Z 11002KT 6000 PRFG FEW000 SCT025 27/25 Q1012"}, "RJOA": {"temp": 26, "dewp": 24, "wdir": "VRB", "wspd": 1, "wgst": null, "reportTime": "2026-07-21T21:00:00.000Z", "rawOb": "METAR RJOA 212100Z AUTO VRB01KT 8000 BKN015 26/24 Q1012"}, "RJGG": {"temp": 29, "dewp": 27, "wdir": "VRB", "wspd": 2, "wgst": null, "reportTime": "2026-07-21T20:30:00.000Z", "rawOb": "METAR RJGG 212030Z AUTO VRB02KT 9000 NCD 29/27 Q1009 NOSIG"}, "RJFF": {"temp": 28, "dewp": 25, "wdir": 240, "wspd": 4, "wgst": null, "reportTime": "2026-07-21T20:30:00.000Z", "rawOb": "METAR RJFF 212030Z AUTO 24004KT 200V290 9999 FEW021 28/25 Q1010 NOSIG"}, "RJEC": {"temp": 21, "dewp": 20, "wdir": "VRB", "wspd": 1, "wgst": null, "reportTime": "2026-07-21T21:00:00.000Z", "rawOb": "METAR RJEC 212100Z AUTO VRB01KT 9999 NSC 21/20 Q1007"}, "RJCO": {"temp": 23, "dewp": 21, "wdir": 70, "wspd": 1, "wgst": null, "reportTime": "2026-07-21T22:00:00.000Z", "rawOb": "METAR RJCO 212200Z 07001KT 9999 -SHRA FEW010 SCT030 BKN100 23/21 Q1006"}, "RJCK": {"temp": 19, "dewp": 19, "wdir": "VRB", "wspd": 1, "wgst": null, "reportTime": "2026-07-21T21:00:00.000Z", "rawOb": "METAR RJCK 212100Z AUTO VRB01KT 0200 R35/0800VP2000U FG OVC000 19/19 Q1006"}, "RJBB": {"temp": 28, "dewp": 25, "wdir": 230, "wspd": 5, "wgst": null, "reportTime": "2026-07-21T20:30:00.000Z", "rawOb": "METAR RJBB 212030Z AUTO 23005KT 9999 NCD 28/25 Q1010 NOSIG"}, "_updated": "2026-07-21T23:12:58Z"}