{"ROAH": {"temp": 31, "dewp": 26, "wdir": 260, "wspd": 5, "wgst": null, "reportTime": "2026-07-19T06:00:00.000Z", "rawOb": "METAR ROAH 190600Z 26005KT 170V300 9999 SCT030 31/26 Q1006"}, "RJGG": {"temp": 30, "dewp": 26, "wdir": 170, "wspd": 11, "wgst": null, "reportTime": "2026-07-19T06:00:00.000Z", "rawOb": "METAR RJGG 190600Z 17011KT 9999 FEW020 BKN100 30/26 Q1007 NOSIG"}, "RJTT": {"temp": 32, "dewp": 23, "wdir": 190, "wspd": 16, "wgst": null, "reportTime": "2026-07-19T06:00:00.000Z", "rawOb": "METAR RJTT 190600Z 19016KT 9999 FEW030 BKN/// 32/23 Q1007 NOSIG"}, "RJFF": {"temp": 33, "dewp": 26, "wdir": 340, "wspd": 10, "wgst": null, "reportTime": "2026-07-19T06:00:00.000Z", "rawOb": "METAR RJFF 190600Z 34010KT 9999 FEW020 SCT050 BKN060 33/26 Q1004 TEMPO 4000 -TSRA BR"}, "RJBB": {"temp": 31, "dewp": 25, "wdir": 240, "wspd": 16, "wgst": null, "reportTime": "2026-07-19T06:00:00.000Z", "rawOb": "METAR RJBB 190600Z 24016KT 9999 FEW020 31/25 Q1006 NOSIG"}, "RJAA": {"temp": 30, "dewp": 24, "wdir": 140, "wspd": 10, "wgst": null, "reportTime": "2026-07-19T06:00:00.000Z", "rawOb": "METAR RJAA 190600Z 14010KT 9999 FEW025 BKN/// 30/24 Q1007 NOSIG"}, "RJCO": {"temp": 23, "dewp": 20, "wdir": 150, "wspd": 19, "wgst": null, "reportTime": "2026-07-19T06:00:00.000Z", "rawOb": "METAR RJCO 190600Z 15019KT 9999 FEW015 BKN050 BKN070 23/20 Q1002"}, "RJEC": {"temp": 22, "dewp": 21, "wdir": 160, "wspd": 11, "wgst": null, "reportTime": "2026-07-19T06:00:00.000Z", "rawOb": "METAR RJEC 190600Z 16011KT 9999 -SHRA FEW003 SCT015 BKN040 22/21 Q1003"}, "RJSK": {"temp": 27, "dewp": 25, "wdir": 240, "wspd": 5, "wgst": null, "reportTime": "2026-07-19T06:00:00.000Z", "rawOb": "METAR RJSK 190600Z 24005KT 190V280 9999 FEW005 SCT020 BKN025 27/25 Q1006"}, "RJSS": {"temp": 27, "dewp": 23, "wdir": 140, "wspd": 7, "wgst": null, "reportTime": "2026-07-19T06:00:00.000Z", "rawOb": "METAR RJSS 190600Z 14007KT 9999 FEW040 BKN/// 27/23 Q1006"}, "RJBE": {"temp": 31, "dewp": 26, "wdir": 220, "wspd": 12, "wgst": null, "reportTime": "2026-07-19T06:00:00.000Z", "rawOb": "METAR RJBE 190600Z 22012KT 9999 FEW025 31/26 Q1006"}, "RJCB": {"temp": 19, "dewp": 19, "wdir": 150, "wspd": 12, "wgst": null, "reportTime": "2026-07-19T06:00:00.000Z", "rawOb": "METAR RJCB 190600Z 15012KT 2000 BR -SHRA SCT001 BKN002 19/19 Q1007"}, "RJCK": {"temp": 19, "dewp": 19, "wdir": 140, "wspd": 13, "wgst": null, "reportTime": "2026-07-19T06:00:00.000Z", "rawOb": "METAR RJCK 190600Z 14013KT 4000 BCFG -SHRA BR FEW001 SCT003 BKN004 19/19 Q1008"}, "RJOA": {"temp": 32, "dewp": 22, "wdir": 200, "wspd": 5, "wgst": null, "reportTime": "2026-07-19T06:00:00.000Z", "rawOb": "METAR RJOA 190600Z 20005KT 150V250 9999 FEW030 SCT050 32/22 Q1007"}, "RJOB": {"temp": 32, "dewp": 25, "wdir": 120, "wspd": 7, "wgst": null, "reportTime": "2026-07-19T06:00:00.000Z", "rawOb": "METAR RJOB 190600Z 12007KT 080V160 9999 FEW030 32/25 Q1007"}, "RJOM": {"temp": 32, "dewp": 25, "wdir": 300, "wspd": 7, "wgst": null, "reportTime": "2026-07-19T06:00:00.000Z", "rawOb": "METAR RJOM 190600Z 30007KT 9999 FEW030 32/25 Q1005"}, "RJOO": {"temp": 35, "dewp": 24, "wdir": 210, "wspd": 8, "wgst": null, "reportTime": "2026-07-19T06:00:00.000Z", "rawOb": "METAR RJOO 190600Z 21008KT 170V260 9999 FEW030 35/24 Q1005"}, "RJOT": {"temp": 31, "dewp": 26, "wdir": 60, "wspd": 8, "wgst": null, "reportTime": "2026-07-19T06:00:00.000Z", "rawOb": "METAR RJOT 190600Z 06008KT 9999 FEW025 SCT045 31/26 Q1006"}, "_updated": "2026-07-19T08:54:10Z"}