{"ROAH": {"temp": 29, "dewp": 27, "wdir": 100, "wspd": 8, "wgst": null, "reportTime": "2026-07-23T19:00:00.000Z", "rawOb": "METAR ROAH 231900Z AUTO 10008KT 9999 FEW039 29/27 Q1009"}, "RJTT": {"temp": 27, "dewp": 25, "wdir": 60, "wspd": 9, "wgst": null, "reportTime": "2026-07-23T19:00:00.000Z", "rawOb": "METAR RJTT 231900Z 06009KT 9999 SCT009 BKN050 27/25 Q1010 NOSIG"}, "RJGG": {"temp": 28, "dewp": 23, "wdir": 150, "wspd": 3, "wgst": null, "reportTime": "2026-07-23T19:00:00.000Z", "rawOb": "METAR RJGG 231900Z AUTO 15003KT 9999 NCD 28/23 Q1009 NOSIG"}, "RJFF": {"temp": 26, "dewp": 23, "wdir": 130, "wspd": 3, "wgst": null, "reportTime": "2026-07-23T19:00:00.000Z", "rawOb": "METAR RJFF 231900Z AUTO 13003KT 9999 NCD 26/23 Q1010 NOSIG"}, "RJBB": {"temp": 28, "dewp": 27, "wdir": 300, "wspd": 3, "wgst": null, "reportTime": "2026-07-23T19:00:00.000Z", "rawOb": "METAR RJBB 231900Z AUTO 30003KT 7000 NCD 28/27 Q1009 BECMG 05005KT"}, "RJAA": {"temp": 25, "dewp": 24, "wdir": 40, "wspd": 5, "wgst": null, "reportTime": "2026-07-23T19:00:00.000Z", "rawOb": "METAR RJAA 231900Z AUTO 04005KT 010V080 5000 BR OVC003 25/24 Q1010 TEMPO 3000 BR"}, "RJEC": {"temp": 17, "dewp": 17, "wdir": 270, "wspd": 2, "wgst": null, "reportTime": "2026-07-23T19:00:00.000Z", "rawOb": "METAR RJEC 231900Z AUTO 27002KT 9999 FEW005 SCT060 BKN090 17/17 Q1012"}, "RJCK": {"temp": 17, "dewp": 16, "wdir": 100, "wspd": 3, "wgst": null, "reportTime": "2026-07-23T19:00:00.000Z", "rawOb": "METAR RJCK 231900Z AUTO 10003KT 9999 SCT022 OVC023 17/16 Q1013"}, "RJOA": {"temp": 26, "dewp": 23, "wdir": 300, "wspd": 3, "wgst": null, "reportTime": "2026-07-23T19:00:00.000Z", "rawOb": "METAR RJOA 231900Z AUTO 30003KT 9999 NCD 26/23 Q1012"}, "RJSS": {"temp": 24, "dewp": 22, "wdir": 210, "wspd": 4, "wgst": null, "reportTime": "2026-07-23T19:00:00.000Z", "rawOb": "METAR RJSS 231900Z AUTO 21004KT 9999 FEW007 OVC012 24/22 Q1010"}, "RJOT": {"temp": 26, "dewp": 23, "wdir": 160, "wspd": 3, "wgst": null, "reportTime": "2026-07-23T19:00:00.000Z", "rawOb": "METAR RJOT 231900Z AUTO 16003KT 140V210 9999 NCD 26/23 Q1011"}, "RJOM": {"temp": 28, "dewp": 24, "wdir": 130, "wspd": 5, "wgst": null, "reportTime": "2026-07-23T19:00:00.000Z", "rawOb": "METAR RJOM 231900Z AUTO 13005KT 9999 NCD 28/24 Q1010"}, "RJOO": {"temp": 28, "dewp": 22, "wdir": 300, "wspd": 4, "wgst": null, "reportTime": "2026-07-23T19:00:00.000Z", "rawOb": "METAR RJOO 231900Z AUTO 30004KT 9999 NCD 28/22 Q1009"}, "_updated": "2026-07-23T21:44:33Z"}