{"RJGG": {"temp": 27, "dewp": 26, "wdir": 130, "wspd": 4, "wgst": null, "reportTime": "2026-07-17T19:30:00.000Z", "rawOb": "METAR RJGG 171930Z AUTO 13004KT 7000 FEW035 27/26 Q1004 NOSIG"}, "RJBB": {"temp": 28, "dewp": 25, "wdir": 210, "wspd": 3, "wgst": null, "reportTime": "2026-07-17T19:30:00.000Z", "rawOb": "METAR RJBB 171930Z AUTO 21003KT 9999 NSC 28/25 Q1004 NOSIG"}, "RJAA": {"temp": 24, "dewp": 24, "wdir": 120, "wspd": 4, "wgst": null, "reportTime": "2026-07-17T19:30:00.000Z", "rawOb": "METAR RJAA 171930Z AUTO 12004KT 9999 FEW003 SCT005 BKN009 24/24 Q1007 NOSIG"}, "ROAH": {"temp": 28, "dewp": 27, "wdir": 220, "wspd": 9, "wgst": null, "reportTime": "2026-07-17T19:30:00.000Z", "rawOb": "METAR ROAH 171930Z AUTO 22009KT 9999 FEW005 BKN013 28/27 Q1005"}, "RJTT": {"temp": 26, "dewp": 24, "wdir": 130, "wspd": 5, "wgst": null, "reportTime": "2026-07-17T19:30:00.000Z", "rawOb": "METAR RJTT 171930Z 13005KT 9999 FEW014 BKN150 26/24 Q1006 NOSIG"}, "RJFF": {"temp": 28, "dewp": 25, "wdir": 150, "wspd": 10, "wgst": null, "reportTime": "2026-07-17T19:30:00.000Z", "rawOb": "METAR RJFF 171930Z AUTO 15010KT 9999 BKN027 28/25 Q1002 NOSIG"}, "RJEC": {"temp": 22, "dewp": 20, "wdir": 150, "wspd": 4, "wgst": null, "reportTime": "2026-07-17T20:00:00.000Z", "rawOb": "METAR RJEC 172000Z AUTO 15004KT 9999 FEW060 SCT180 BKN190 22/20 Q1009"}, "RJCK": {"temp": 18, "dewp": 18, "wdir": 0, "wspd": 0, "wgst": null, "reportTime": "2026-07-17T20:00:00.000Z", "rawOb": "METAR RJCK 172000Z AUTO 00000KT 0300 R35/0600N FG OVC001 18/18 Q1012"}, "RJOA": {"temp": 26, "dewp": 23, "wdir": 320, "wspd": 4, "wgst": null, "reportTime": "2026-07-17T20:00:00.000Z", "rawOb": "METAR RJOA 172000Z AUTO 32004KT 9999 FEW020 BKN027 OVC080 26/23 Q1005"}, "RJOM": {"temp": 28, "dewp": 25, "wdir": "VRB", "wspd": 1, "wgst": null, "reportTime": "2026-07-17T20:00:00.000Z", "rawOb": "METAR RJOM 172000Z AUTO VRB01KT 9999 NCD 28/25 Q1002"}, "RJOO": {"temp": 29, "dewp": 24, "wdir": 120, "wspd": 5, "wgst": null, "reportTime": "2026-07-17T20:00:00.000Z", "rawOb": "METAR RJOO 172000Z AUTO 12005KT 9999 FEW017 SCT024 BKN090 29/24 Q1004"}, "RJOT": {"temp": 25, "dewp": 22, "wdir": 140, "wspd": 6, "wgst": null, "reportTime": "2026-07-17T20:00:00.000Z", "rawOb": "METAR RJOT 172000Z AUTO 14006KT 9999 NSC 25/22 Q1004"}, "RJSS": {"temp": 23, "dewp": 22, "wdir": 170, "wspd": 7, "wgst": null, "reportTime": "2026-07-17T20:00:00.000Z", "rawOb": "METAR RJSS 172000Z AUTO 17007KT 9999 OVC003 23/22 Q1007"}, "_updated": "2026-07-17T22:01:56Z"}