{"RJOM": {"temp": 26, "dewp": 20, "wdir": 130, "wspd": 6, "wgst": null, "reportTime": "2026-07-16T18:00:00.000Z", "rawOb": "METAR RJOM 161800Z AUTO 13006KT 9999 NCD 26/20 Q1002"}, "RJOO": {"temp": 27, "dewp": 21, "wdir": 320, "wspd": 4, "wgst": null, "reportTime": "2026-07-16T18:00:00.000Z", "rawOb": "METAR RJOO 161800Z AUTO 32004KT 9999 NCD 27/21 Q1002"}, "RJBB": {"temp": 27, "dewp": 25, "wdir": 240, "wspd": 2, "wgst": null, "reportTime": "2026-07-16T17:30:00.000Z", "rawOb": "METAR RJBB 161730Z AUTO 24002KT 9999 NCD 27/25 Q1002 NOSIG"}, "RJOT": {"temp": 23, "dewp": 21, "wdir": 140, "wspd": 8, "wgst": null, "reportTime": "2026-07-16T18:00:00.000Z", "rawOb": "METAR RJOT 161800Z AUTO 14008KT 9999 NCD 23/21 Q1003"}, "RJSS": {"temp": 23, "dewp": 23, "wdir": 50, "wspd": 5, "wgst": null, "reportTime": "2026-07-16T18:00:00.000Z", "rawOb": "METAR RJSS 161800Z AUTO 05005KT 1800 BR OVC001 23/23 Q1003"}, "RJTT": {"temp": 28, "dewp": 26, "wdir": 20, "wspd": 2, "wgst": null, "reportTime": "2026-07-16T17:30:00.000Z", "rawOb": "METAR RJTT 161730Z 02002KT 9999 SCT017 BKN130 28/26 Q1002 NOSIG"}, "RJCK": {"temp": 20, "dewp": 20, "wdir": 70, "wspd": 3, "wgst": null, "reportTime": "2026-07-16T18:00:00.000Z", "rawOb": "METAR RJCK 161800Z AUTO 07003KT 020V090 0100 R35/0700V1100D FG OVC000 20/20 Q1005"}, "RJGG": {"temp": 28, "dewp": 24, "wdir": 300, "wspd": 2, "wgst": null, "reportTime": "2026-07-16T17:30:00.000Z", "rawOb": "METAR RJGG 161730Z AUTO 30002KT 9999 NCD 28/24 Q1001 NOSIG"}, "RJEC": {"temp": 19, "dewp": 18, "wdir": 220, "wspd": 4, "wgst": null, "reportTime": "2026-07-16T18:00:00.000Z", "rawOb": "METAR RJEC 161800Z AUTO 22004KT //// // NCD 19/18 Q1005"}, "RJFF": {"temp": 28, "dewp": 25, "wdir": 150, "wspd": 8, "wgst": null, "reportTime": "2026-07-16T17:30:00.000Z", "rawOb": "METAR RJFF 161730Z AUTO 15008KT 9999 NCD 28/25 Q1003 NOSIG"}, "ROAH": {"temp": 28, "dewp": 27, "wdir": 220, "wspd": 12, "wgst": null, "reportTime": "2026-07-16T17:30:00.000Z", "rawOb": "METAR ROAH 161730Z AUTO 22012KT 9999 BKN007 28/27 Q1007"}, "RJAA": {"temp": 26, "dewp": 25, "wdir": 130, "wspd": 3, "wgst": null, "reportTime": "2026-07-16T17:30:00.000Z", "rawOb": "METAR RJAA 161730Z AUTO 13003KT 2900 BR OVC001 26/25 Q1002 BECMG FEW001 BKN003"}, "RJOA": {"temp": 25, "dewp": 22, "wdir": "VRB", "wspd": 2, "wgst": null, "reportTime": "2026-07-16T18:00:00.000Z", "rawOb": "METAR RJOA 161800Z AUTO VRB02KT 9999 NSC 25/22 Q1004"}, "_updated": "2026-07-16T20:26:45Z"}