{"RJBB": {"temp": 31, "dewp": 25, "wdir": 290, "wspd": 3, "wgst": null, "reportTime": "2026-07-13T08:00:00.000Z", "rawOb": "METAR RJBB 130800Z 29003KT 9999 FEW030 BKN/// 31/25 Q1009 NOSIG"}, "RJTT": {"temp": 27, "dewp": 26, "wdir": "VRB", "wspd": 1, "wgst": null, "reportTime": "2026-07-13T08:00:00.000Z", "rawOb": "METAR RJTT 130800Z VRB01KT 9999 -SHRA FEW030 BKN080 BKN150 27/26 Q1005 NOSIG"}, "ROAH": {"temp": 30, "dewp": 25, "wdir": 160, "wspd": 16, "wgst": null, "reportTime": "2026-07-13T08:00:00.000Z", "rawOb": "METAR ROAH 130800Z 16016KT 9999 FEW010 30/25 Q1010"}, "RJFF": {"temp": 33, "dewp": 25, "wdir": 340, "wspd": 7, "wgst": null, "reportTime": "2026-07-13T08:00:00.000Z", "rawOb": "METAR RJFF 130800Z 34007KT 290V010 9999 FEW030 SCT040 33/25 Q1010 NOSIG"}, "RJAA": {"temp": 27, "dewp": 25, "wdir": 200, "wspd": 3, "wgst": null, "reportTime": "2026-07-13T08:00:00.000Z", "rawOb": "METAR RJAA 130800Z 20003KT 9999 -SHRA FEW030 SCT060 BKN080 27/25 Q1005 NOSIG"}, "RJGG": {"temp": 29, "dewp": 24, "wdir": 310, "wspd": 20, "wgst": null, "reportTime": "2026-07-13T08:00:00.000Z", "rawOb": "METAR RJGG 130800Z 31020KT 9999 FEW020 BKN/// 29/24 Q1008 NOSIG"}, "RJBE": {"temp": 32, "dewp": 25, "wdir": 240, "wspd": 10, "wgst": null, "reportTime": "2026-07-13T08:00:00.000Z", "rawOb": "METAR RJBE 130800Z 24010KT 9999 FEW030 BKN/// 32/25 Q1009"}, "RJSS": {"temp": 29, "dewp": 21, "wdir": 300, "wspd": 9, "wgst": null, "reportTime": "2026-07-13T08:00:00.000Z", "rawOb": "METAR RJSS 130800Z 30009KT 9999 FEW020 SCT050 BKN/// 29/21 Q1005"}, "RJCK": {"temp": 20, "dewp": 19, "wdir": 220, "wspd": 5, "wgst": null, "reportTime": "2026-07-13T08:00:00.000Z", "rawOb": "METAR RJCK 130800Z 22005KT 180V250 9999 PRFG FEW001 SCT030 BKN040 20/19 Q1004"}, "RJSK": {"temp": 25, "dewp": 22, "wdir": 280, "wspd": 8, "wgst": null, "reportTime": "2026-07-13T08:00:00.000Z", "rawOb": "METAR RJSK 130800Z 28008KT 9999 FEW006 BKN008 BKN010 25/22 Q1007"}, "RJCO": {"temp": 23, "dewp": 21, "wdir": 340, "wspd": 8, "wgst": null, "reportTime": "2026-07-13T08:00:00.000Z", "rawOb": "METAR RJCO 130800Z 34008KT 9999 FEW007 BKN010 BKN230 23/21 Q1004"}, "RJOA": {"temp": 30, "dewp": 25, "wdir": 200, "wspd": 4, "wgst": null, "reportTime": "2026-07-13T08:00:00.000Z", "rawOb": "METAR RJOA 130800Z 20004KT 160V240 9999 FEW030 BKN/// 30/25 Q1011"}, "RJOB": {"temp": 31, "dewp": 26, "wdir": 220, "wspd": 9, "wgst": null, "reportTime": "2026-07-13T08:00:00.000Z", "rawOb": "METAR RJOB 130800Z 22009KT 9999 FEW025 SCT050 BKN/// 31/26 Q1010"}, "RJOT": {"temp": 33, "dewp": 23, "wdir": 250, "wspd": 9, "wgst": null, "reportTime": "2026-07-13T08:00:00.000Z", "rawOb": "METAR RJOT 130800Z 25009KT 9999 FEW025 BKN/// 33/23 Q1010"}, "RJCB": {"temp": 24, "dewp": 23, "wdir": 170, "wspd": 7, "wgst": null, "reportTime": "2026-07-13T08:00:00.000Z", "rawOb": "METAR RJCB 130800Z 17007KT 9999 FEW010 BKN/// 24/23 Q1004"}, "RJOO": {"temp": 34, "dewp": 25, "wdir": 220, "wspd": 3, "wgst": null, "reportTime": "2026-07-13T08:00:00.000Z", "rawOb": "METAR RJOO 130800Z 22003KT 140V310 9999 FEW030 SCT040 BKN/// 34/25 Q1009"}, "RJOM": {"temp": 33, "dewp": 24, "wdir": 200, "wspd": 7, "wgst": null, "reportTime": "2026-07-13T08:00:00.000Z", "rawOb": "METAR RJOM 130800Z 20007KT 9999 FEW030 BKN/// 33/24 Q1009"}, "RJEC": {"temp": 25, "dewp": 22, "wdir": 320, "wspd": 9, "wgst": null, "reportTime": "2026-07-13T08:00:00.000Z", "rawOb": "METAR RJEC 130800Z 32009KT 9999 FEW010 SCT030 BKN/// 25/22 Q1004"}, "_updated": "2026-07-13T10:42:35Z"}