{"RJCK": {"temp": 19, "dewp": 18, "wdir": 210, "wspd": 10, "wgst": null, "reportTime": "2026-07-08T05:00:00.000Z", "rawOb": "METAR RJCK 080500Z 21010KT 9999 PRFG FEW001 SCT007 BKN030 19/18 Q1015"}, "ROAH": {"temp": 34, "dewp": 24, "wdir": 30, "wspd": 10, "wgst": null, "reportTime": "2026-07-08T05:00:00.000Z", "rawOb": "METAR ROAH 080500Z 03010KT 340V080 9999 FEW030 34/24 Q1007"}, "RJOT": {"temp": 29, "dewp": 25, "wdir": 90, "wspd": 7, "wgst": null, "reportTime": "2026-07-08T05:00:00.000Z", "rawOb": "METAR RJOT 080500Z 09007KT 9999 VCSH FEW015 SCT035 BKN050 29/25 Q1012"}, "RJSK": {"temp": 30, "dewp": 21, "wdir": "VRB", "wspd": 2, "wgst": null, "reportTime": "2026-07-08T05:00:00.000Z", "rawOb": "METAR RJSK 080500Z VRB02KT 9999 FEW030 SCT035 BKN/// 30/21 Q1012"}, "RJBB": {"temp": 27, "dewp": 23, "wdir": 240, "wspd": 13, "wgst": null, "reportTime": "2026-07-08T05:00:00.000Z", "rawOb": "METAR RJBB 080500Z 24013KT 9999 FEW025 BKN080 27/23 Q1012 NOSIG"}, "RJBE": {"temp": 27, "dewp": 23, "wdir": 230, "wspd": 9, "wgst": null, "reportTime": "2026-07-08T05:00:00.000Z", "rawOb": "METAR RJBE 080500Z 23009KT 9999 FEW025 BKN050 27/23 Q1012"}, "RJCO": {"temp": 26, "dewp": 18, "wdir": 140, "wspd": 14, "wgst": null, "reportTime": "2026-07-08T05:00:00.000Z", "rawOb": "METAR RJCO 080500Z 14014KT 9999 FEW030 SCT240 26/18 Q1013"}, "RJCB": {"temp": 23, "dewp": 18, "wdir": 150, "wspd": 7, "wgst": null, "reportTime": "2026-07-08T05:00:00.000Z", "rawOb": "METAR RJCB 080500Z 15007KT 110V190 9999 FEW015 SCT020 BKN/// 23/18 Q1015"}, "RJEC": {"temp": 26, "dewp": 18, "wdir": 300, "wspd": 6, "wgst": null, "reportTime": "2026-07-08T05:00:00.000Z", "rawOb": "METAR RJEC 080500Z 30006KT 270V340 9999 FEW015 SCT080 BKN/// 26/18 Q1013"}, "RJSS": {"temp": 25, "dewp": 19, "wdir": 150, "wspd": 13, "wgst": null, "reportTime": "2026-07-08T05:00:00.000Z", "rawOb": "METAR RJSS 080500Z 15013KT 9999 FEW030 BKN/// 25/19 Q1014"}, "RJFF": {"temp": 35, "dewp": 24, "wdir": 300, "wspd": 8, "wgst": null, "reportTime": "2026-07-08T05:00:00.000Z", "rawOb": "METAR RJFF 080500Z 30008KT 210V350 9999 FEW030 SCT040 BKN/// 35/24 Q1009 NOSIG"}, "RJAA": {"temp": 27, "dewp": 21, "wdir": 110, "wspd": 8, "wgst": null, "reportTime": "2026-07-08T05:00:00.000Z", "rawOb": "METAR RJAA 080500Z 11008KT 070V140 9999 BKN035 27/21 Q1014 NOSIG"}, "RJGG": {"temp": 27, "dewp": 21, "wdir": 170, "wspd": 12, "wgst": null, "reportTime": "2026-07-08T05:00:00.000Z", "rawOb": "METAR RJGG 080500Z 17012KT 9999 FEW020 BKN/// 27/21 Q1013 NOSIG"}, "RJTT": {"temp": 28, "dewp": 19, "wdir": 100, "wspd": 5, "wgst": null, "reportTime": "2026-07-08T05:00:00.000Z", "rawOb": "METAR RJTT 080500Z 10005KT 9999 FEW030 BKN/// 28/19 Q1013 BECMG FM0630 18010KT"}, "RJOO": {"temp": 31, "dewp": 20, "wdir": 250, "wspd": 8, "wgst": null, "reportTime": "2026-07-08T05:00:00.000Z", "rawOb": "METAR RJOO 080500Z 25008KT 210V290 9999 FEW030 BKN050 31/20 Q1012"}, "RJOA": {"temp": 28, "dewp": 24, "wdir": 200, "wspd": 5, "wgst": null, "reportTime": "2026-07-08T05:00:00.000Z", "rawOb": "METAR RJOA 080500Z 20005KT 150V250 9999 FEW015 BKN025 28/24 Q1013"}, "RJOM": {"temp": 28, "dewp": 24, "wdir": 320, "wspd": 7, "wgst": null, "reportTime": "2026-07-08T05:00:00.000Z", "rawOb": "METAR RJOM 080500Z 32007KT 9999 FEW015 SCT050 28/24 Q1011"}, "RJOB": {"temp": 28, "dewp": 24, "wdir": 70, "wspd": 5, "wgst": null, "reportTime": "2026-07-08T05:00:00.000Z", "rawOb": "METAR RJOB 080500Z 07005KT 040V110 9999 FEW010 SCT015 BKN025 28/24 Q1012"}, "_updated": "2026-07-08T07:36:42Z"}