{"RJAA": {"temp": 20, "dewp": 19, "wdir": 50, "wspd": 4, "wgst": null, "reportTime": "2026-07-03T15:30:00.000Z", "rawOb": "METAR RJAA 031530Z AUTO 05004KT 4100 BR OVC003 20/19 Q1013 TEMPO 3000 BR"}, "RJBB": {"temp": 25, "dewp": 20, "wdir": 220, "wspd": 10, "wgst": null, "reportTime": "2026-07-03T15:30:00.000Z", "rawOb": "METAR RJBB 031530Z AUTO 22010KT 9999 NSC 25/20 Q1012 NOSIG"}, "RJFF": {"temp": 24, "dewp": 21, "wdir": 130, "wspd": 5, "wgst": null, "reportTime": "2026-07-03T15:30:00.000Z", "rawOb": "METAR RJFF 031530Z AUTO 13005KT 090V160 9999 NSC 24/21 Q1011 NOSIG"}, "RJGG": {"temp": 23, "dewp": 21, "wdir": 130, "wspd": 6, "wgst": null, "reportTime": "2026-07-03T15:30:00.000Z", "rawOb": "METAR RJGG 031530Z AUTO 13006KT 9999 BKN023 OVC036 23/21 Q1012 NOSIG"}, "RJTT": {"temp": 22, "dewp": 20, "wdir": 100, "wspd": 5, "wgst": null, "reportTime": "2026-07-03T15:30:00.000Z", "rawOb": "METAR RJTT 031530Z 10005KT 9000 FEW009 BKN010 22/20 Q1013 NOSIG"}, "ROAH": {"temp": 27, "dewp": 26, "wdir": 210, "wspd": 3, "wgst": null, "reportTime": "2026-07-03T15:30:00.000Z", "rawOb": "METAR ROAH 031530Z AUTO 21003KT 9999 NCD 27/26 Q1014"}, "RJOM": {"temp": 24, "dewp": 20, "wdir": 120, "wspd": 6, "wgst": null, "reportTime": "2026-07-03T16:00:00.000Z", "rawOb": "METAR RJOM 031600Z AUTO 12006KT 9999 NSC 24/20 Q1011"}, "RJEC": {"temp": 15, "dewp": 13, "wdir": 190, "wspd": 6, "wgst": null, "reportTime": "2026-07-03T16:00:00.000Z", "rawOb": "METAR RJEC 031600Z AUTO 19006KT 9999 NCD 15/13 Q1012"}, "RJOA": {"temp": 21, "dewp": 18, "wdir": 230, "wspd": 3, "wgst": null, "reportTime": "2026-07-03T16:00:00.000Z", "rawOb": "METAR RJOA 031600Z AUTO 23003KT 9999 FEW027 SCT110 BKN120 21/18 Q1012"}, "RJOO": {"temp": 24, "dewp": 17, "wdir": 30, "wspd": 5, "wgst": null, "reportTime": "2026-07-03T16:00:00.000Z", "rawOb": "METAR RJOO 031600Z AUTO 03005KT 9999 NSC 24/17 Q1011"}, "RJOT": {"temp": 22, "dewp": 21, "wdir": 180, "wspd": 3, "wgst": null, "reportTime": "2026-07-03T16:00:00.000Z", "rawOb": "METAR RJOT 031600Z AUTO 18003KT 110V220 9999 BKN050 OVC120 22/21 Q1012"}, "RJSS": {"temp": 19, "dewp": 17, "wdir": 120, "wspd": 5, "wgst": null, "reportTime": "2026-07-03T16:00:00.000Z", "rawOb": "METAR RJSS 031600Z AUTO 12005KT 9999 OVC010 19/17 Q1013"}, "RJCK": {"temp": 11, "dewp": 11, "wdir": 230, "wspd": 3, "wgst": null, "reportTime": "2026-07-03T16:00:00.000Z", "rawOb": "METAR RJCK 031600Z AUTO 23003KT 9999 BKN050 11/11 Q1013"}, "_updated": "2026-07-03T18:02:43Z"}