{"RJFF": {"temp": 28, "dewp": 25, "wdir": 180, "wspd": 9, "wgst": null, "reportTime": "2026-07-14T17:00:00.000Z", "rawOb": "METAR RJFF 141700Z AUTO 18009KT 150V210 9999 FEW030 SCT033 BKN038 28/25 Q1006 NOSIG"}, "RJTT": {"temp": 27, "dewp": 25, "wdir": 200, "wspd": 11, "wgst": null, "reportTime": "2026-07-14T17:00:00.000Z", "rawOb": "METAR RJTT 141700Z 20011KT 9999 FEW008 BKN070 27/25 Q1005 TEMPO FEW007 BKN011"}, "RJBB": {"temp": 27, "dewp": 24, "wdir": 230, "wspd": 2, "wgst": null, "reportTime": "2026-07-14T17:00:00.000Z", "rawOb": "METAR RJBB 141700Z AUTO 23002KT 9999 NCD 27/24 Q1005 NOSIG"}, "RJAA": {"temp": 25, "dewp": 23, "wdir": "VRB", "wspd": 2, "wgst": null, "reportTime": "2026-07-14T17:00:00.000Z", "rawOb": "METAR RJAA 141700Z AUTO VRB02KT 9999 NCD 25/23 Q1006 NOSIG"}, "ROAH": {"temp": 26, "dewp": 26, "wdir": 190, "wspd": 11, "wgst": null, "reportTime": "2026-07-14T17:00:00.000Z", "rawOb": "METAR ROAH 141700Z AUTO 19011KT 9999 FEW005 26/26 Q1011"}, "RJGG": {"temp": 26, "dewp": 24, "wdir": 260, "wspd": 7, "wgst": null, "reportTime": "2026-07-14T17:00:00.000Z", "rawOb": "METAR RJGG 141700Z AUTO 26007KT 9999 NCD 26/24 Q1005 NOSIG"}, "RJOM": {"temp": 26, "dewp": 25, "wdir": 140, "wspd": 3, "wgst": null, "reportTime": "2026-07-14T17:00:00.000Z", "rawOb": "METAR RJOM 141700Z AUTO 14003KT 120V220 9999 FEW040 SCT049 26/25 Q1006"}, "RJOO": {"temp": 28, "dewp": 24, "wdir": "VRB", "wspd": 1, "wgst": null, "reportTime": "2026-07-14T17:00:00.000Z", "rawOb": "METAR RJOO 141700Z AUTO VRB01KT 9999 NCD 28/24 Q1005"}, "RJOT": {"temp": 27, "dewp": 22, "wdir": "VRB", "wspd": 2, "wgst": null, "reportTime": "2026-07-14T17:00:00.000Z", "rawOb": "METAR RJOT 141700Z AUTO VRB02KT 9999 NCD 27/22 Q1006"}, "RJSS": {"temp": 24, "dewp": 22, "wdir": "VRB", "wspd": 2, "wgst": null, "reportTime": "2026-07-14T17:00:00.000Z", "rawOb": "METAR RJSS 141700Z AUTO VRB02KT 9999 NCD 24/22 Q1004"}, "RJCK": {"temp": 18, "dewp": 18, "wdir": 20, "wspd": 2, "wgst": null, "reportTime": "2026-07-14T17:00:00.000Z", "rawOb": "METAR RJCK 141700Z AUTO 02002KT 3200 BR BKN002 OVC005 18/18 Q1003"}, "RJEC": {"temp": 22, "dewp": 21, "wdir": 150, "wspd": 3, "wgst": null, "reportTime": "2026-07-14T17:00:00.000Z", "rawOb": "METAR RJEC 141700Z AUTO 15003KT 9999 FEW035 BKN037 OVC038 22/21 Q1003"}, "RJOA": {"temp": 25, "dewp": 22, "wdir": 250, "wspd": 5, "wgst": null, "reportTime": "2026-07-14T17:00:00.000Z", "rawOb": "METAR RJOA 141700Z AUTO 25005KT 210V280 9999 NCD 25/22 Q1007"}, "_updated": "2026-07-14T19:43:57Z"}