{"RJAA": {"temp": 24, "dewp": 23, "wdir": 150, "wspd": 4, "wgst": null, "reportTime": "2026-07-18T14:00:00.000Z", "rawOb": "METAR RJAA 181400Z AUTO 15004KT 9999 FEW017 24/23 Q1008 NOSIG"}, "RJCK": {"temp": 19, "dewp": 19, "wdir": 150, "wspd": 12, "wgst": null, "reportTime": "2026-07-18T14:00:00.000Z", "rawOb": "METAR RJCK 181400Z AUTO 15012KT 0300 R17/0600V1600U -RA FG OVC001 19/19 Q1011"}, "RJBB": {"temp": 28, "dewp": 26, "wdir": 360, "wspd": 3, "wgst": null, "reportTime": "2026-07-18T14:00:00.000Z", "rawOb": "METAR RJBB 181400Z AUTO 36003KT 9999 NCD 28/26 Q1006 NOSIG"}, "RJGG": {"temp": 27, "dewp": 25, "wdir": 120, "wspd": 10, "wgst": null, "reportTime": "2026-07-18T14:00:00.000Z", "rawOb": "METAR RJGG 181400Z AUTO 12010KT 9999 FEW023 BKN025 OVC029 27/25 Q1007 NOSIG"}, "ROAH": {"temp": 28, "dewp": 27, "wdir": 200, "wspd": 9, "wgst": null, "reportTime": "2026-07-18T14:00:00.000Z", "rawOb": "METAR ROAH 181400Z AUTO 20009KT 9999 SCT042 28/27 Q1006"}, "RJEC": {"temp": 20, "dewp": 19, "wdir": 180, "wspd": 5, "wgst": null, "reportTime": "2026-07-18T14:00:00.000Z", "rawOb": "METAR RJEC 181400Z AUTO 18005KT 9999 -RA FEW050 BKN060 OVC100 20/19 Q1008"}, "RJTT": {"temp": 26, "dewp": 23, "wdir": 180, "wspd": 10, "wgst": null, "reportTime": "2026-07-18T14:00:00.000Z", "rawOb": "METAR RJTT 181400Z 18010KT 9999 FEW018 BKN025 26/23 Q1008 NOSIG"}, "RJSS": {"temp": 22, "dewp": 22, "wdir": 170, "wspd": 12, "wgst": null, "reportTime": "2026-07-18T14:00:00.000Z", "rawOb": "METAR RJSS 181400Z AUTO 17012KT 2200 BR OVC001 22/22 Q1007"}, "RJFF": {"temp": 29, "dewp": 24, "wdir": 130, "wspd": 13, "wgst": null, "reportTime": "2026-07-18T14:00:00.000Z", "rawOb": "METAR RJFF 181400Z AUTO 13013KT 9999 NCD 29/24 Q1003 NOSIG"}, "RJOT": {"temp": 26, "dewp": 25, "wdir": 140, "wspd": 5, "wgst": null, "reportTime": "2026-07-18T14:00:00.000Z", "rawOb": "METAR RJOT 181400Z AUTO 14005KT 9999 FEW060 26/25 Q1006"}, "RJOA": {"temp": 27, "dewp": 22, "wdir": 270, "wspd": 4, "wgst": null, "reportTime": "2026-07-18T14:00:00.000Z", "rawOb": "METAR RJOA 181400Z AUTO 27004KT 9999 BKN034 BKN042 27/22 Q1007"}, "RJOM": {"temp": 26, "dewp": 24, "wdir": 360, "wspd": 4, "wgst": null, "reportTime": "2026-07-18T14:00:00.000Z", "rawOb": "METAR RJOM 181400Z AUTO 36004KT 9999 NCD 26/24 Q1004"}, "RJOO": {"temp": 30, "dewp": 24, "wdir": 70, "wspd": 4, "wgst": null, "reportTime": "2026-07-18T14:00:00.000Z", "rawOb": "METAR RJOO 181400Z AUTO 07004KT 040V110 9999 NSC 30/24 Q1005"}, "_updated": "2026-07-18T16:37:24Z"}