{"RJCK": {"temp": 15, "dewp": 13, "wdir": 60, "wspd": 8, "wgst": null, "reportTime": "2026-07-01T11:00:00.000Z", "rawOb": "METAR RJCK 011100Z 06008KT 9999 FEW006 SCT008 BKN010 15/13 Q1013"}, "RJEC": {"temp": 17, "dewp": 15, "wdir": 350, "wspd": 10, "wgst": null, "reportTime": "2026-07-01T11:00:00.000Z", "rawOb": "METAR RJEC 011100Z 35010KT 9999 FEW025 BKN040 17/15 Q1012"}, "RJFF": {"temp": 26, "dewp": 23, "wdir": 220, "wspd": 8, "wgst": null, "reportTime": "2026-07-01T10:30:00.000Z", "rawOb": "METAR RJFF 011030Z 22008KT 170V260 9999 -SHRA FEW002 SCT030 BKN035 26/23 Q1006 BECMG 30008KT TEMPO 3000 TSRA BR BKN005 BKN010 FEW012CB"}, "RJAA": {"temp": 22, "dewp": 21, "wdir": 150, "wspd": 5, "wgst": null, "reportTime": "2026-07-01T10:30:00.000Z", "rawOb": "METAR RJAA 011030Z 15005KT 9999 FEW005 BKN023 BKN170 22/21 Q1011 NOSIG"}, "RJGG": {"temp": 21, "dewp": 20, "wdir": 140, "wspd": 7, "wgst": null, "reportTime": "2026-07-01T10:30:00.000Z", "rawOb": "METAR RJGG 011030Z 14007KT 9999 -RA FEW015 BKN050 BKN090 21/20 Q1011 TEMPO FM1200 4000 SHRA BR FEW004 BKN008"}, "RJTT": {"temp": 25, "dewp": 21, "wdir": 180, "wspd": 8, "wgst": null, "reportTime": "2026-07-01T10:30:00.000Z", "rawOb": "METAR RJTT 011030Z 18008KT 9999 FEW020 BKN150 25/21 Q1011 NOSIG"}, "RJOO": {"temp": 23, "dewp": 21, "wdir": 90, "wspd": 4, "wgst": null, "reportTime": "2026-07-01T11:00:00.000Z", "rawOb": "METAR RJOO 011100Z 09004KT 030V130 9999 -RA FEW010 BKN035 BKN070 23/21 Q1008"}, "RJOT": {"temp": 21, "dewp": 21, "wdir": 40, "wspd": 4, "wgst": null, "reportTime": "2026-07-01T11:00:00.000Z", "rawOb": "METAR RJOT 011100Z 04004KT 360V080 9999 -SHRA PRFG FEW000 SCT030 BKN130 21/21 Q1007"}, "RJSS": {"temp": 21, "dewp": 20, "wdir": 160, "wspd": 5, "wgst": null, "reportTime": "2026-07-01T11:00:00.000Z", "rawOb": "METAR RJSS 011100Z 16005KT 9999 FEW004 SCT006 BKN/// 21/20 Q1011"}, "RJBE": {"temp": 23, "dewp": 22, "wdir": 60, "wspd": 3, "wgst": null, "reportTime": "2026-07-01T11:00:00.000Z", "rawOb": "METAR RJBE 011100Z 06003KT 010V140 9999 -SHRA FEW005 SCT010 BKN040 23/22 Q1008"}, "RJBB": {"temp": 23, "dewp": 21, "wdir": "VRB", "wspd": 1, "wgst": null, "reportTime": "2026-07-01T10:30:00.000Z", "rawOb": "METAR RJBB 011030Z VRB01KT 8000 -RA FEW005 SCT070 OVC100 23/21 Q1008 BECMG 19006KT TEMPO 4000 RA BR"}, "ROAH": {"temp": 28, "dewp": 26, "wdir": 180, "wspd": 8, "wgst": null, "reportTime": "2026-07-01T10:30:00.000Z", "rawOb": "METAR ROAH 011030Z 18008KT 9999 FEW009 28/26 Q1011"}, "RJOA": {"temp": 21, "dewp": 21, "wdir": 130, "wspd": 4, "wgst": null, "reportTime": "2026-07-01T11:00:00.000Z", "rawOb": "METAR RJOA 011100Z 13004KT 100V160 0500 R10/0400V1900N -SHRA FG FEW000 SCT003 BKN006 21/21 Q1006"}, "RJOM": {"temp": 26, "dewp": 23, "wdir": 160, "wspd": 18, "wgst": null, "reportTime": "2026-07-01T11:00:00.000Z", "rawOb": "METAR RJOM 011100Z 16018KT 9999 -SHRA FEW010 SCT045 BKN100 26/23 Q1005"}, "RJOB": {"temp": 20, "dewp": 20, "wdir": 110, "wspd": 8, "wgst": null, "reportTime": "2026-07-01T11:00:00.000Z", "rawOb": "METAR RJOB 011100Z 11008KT 4500 -SHRA BR BCFG FEW000 SCT001 BKN003 20/20 Q1007"}, "RJSK": {"temp": 21, "dewp": 18, "wdir": "VRB", "wspd": 1, "wgst": null, "reportTime": "2026-07-01T11:00:00.000Z", "rawOb": "METAR RJSK 011100Z VRB01KT CAVOK 21/18 Q1010"}, "RJCO": {"temp": 18, "dewp": 17, "wdir": 330, "wspd": 7, "wgst": null, "reportTime": "2026-07-01T11:00:00.000Z", "rawOb": "METAR RJCO 011100Z 33007KT 9999 FEW007 BKN010 18/17 Q1012"}, "RJCB": {"temp": 17, "dewp": 13, "wdir": 150, "wspd": 4, "wgst": null, "reportTime": "2026-07-01T11:00:00.000Z", "rawOb": "METAR RJCB 011100Z 15004KT 9999 FEW005 SCT009 BKN015 17/13 Q1013"}, "_updated": "2026-07-01T13:27:26Z"}