{"RJOO": {"temp": 35, "dewp": 24, "wdir": 200, "wspd": 6, "wgst": null, "reportTime": "2026-07-14T06:00:00.000Z", "rawOb": "METAR RJOO 140600Z 20006KT 150V280 9999 FEW035 BKN/// 35/24 Q1007"}, "RJGG": {"temp": 31, "dewp": 24, "wdir": 330, "wspd": 14, "wgst": null, "reportTime": "2026-07-14T05:30:00.000Z", "rawOb": "METAR RJGG 140530Z 33014KT 9999 FEW020 BKN/// 31/24 Q1006 NOSIG"}, "RJSK": {"temp": 25, "dewp": 24, "wdir": 250, "wspd": 9, "wgst": null, "reportTime": "2026-07-14T06:00:00.000Z", "rawOb": "METAR RJSK 140600Z 25009KT 8000 FEW004 BKN006 BKN008 25/24 Q1006"}, "RJBE": {"temp": 32, "dewp": 26, "wdir": 220, "wspd": 7, "wgst": null, "reportTime": "2026-07-14T06:00:00.000Z", "rawOb": "METAR RJBE 140600Z 22007KT 9999 FEW035 BKN/// 32/26 Q1007"}, "RJSS": {"temp": 28, "dewp": 22, "wdir": 160, "wspd": 8, "wgst": null, "reportTime": "2026-07-14T06:00:00.000Z", "rawOb": "METAR RJSS 140600Z 16008KT 9999 FEW030 SCT070 BKN/// 28/22 Q1005"}, "ROAH": {"temp": 30, "dewp": 25, "wdir": 180, "wspd": 13, "wgst": null, "reportTime": "2026-07-14T05:30:00.000Z", "rawOb": "METAR ROAH 140530Z 18013KT 9999 FEW020 30/25 Q1011"}, "RJTT": {"temp": 32, "dewp": 22, "wdir": 190, "wspd": 16, "wgst": null, "reportTime": "2026-07-14T05:30:00.000Z", "rawOb": "METAR RJTT 140530Z 19016KT 9999 FEW030 BKN/// 32/22 Q1006 NOSIG"}, "RJBB": {"temp": 33, "dewp": 23, "wdir": 220, "wspd": 6, "wgst": null, "reportTime": "2026-07-14T05:30:00.000Z", "rawOb": "METAR RJBB 140530Z 22006KT 9999 FEW030 BKN/// 33/23 Q1008 NOSIG"}, "RJOT": {"temp": 34, "dewp": 24, "wdir": 300, "wspd": 11, "wgst": null, "reportTime": "2026-07-14T06:00:00.000Z", "rawOb": "METAR RJOT 140600Z 30011KT 9999 FEW030 BKN/// 34/24 Q1009"}, "RJOA": {"temp": 31, "dewp": 25, "wdir": 200, "wspd": 5, "wgst": null, "reportTime": "2026-07-14T06:00:00.000Z", "rawOb": "METAR RJOA 140600Z 20005KT 160V240 9999 FEW030 BKN/// 31/25 Q1010"}, "RJCB": {"temp": 26, "dewp": 22, "wdir": 170, "wspd": 5, "wgst": null, "reportTime": "2026-07-14T06:00:00.000Z", "rawOb": "METAR RJCB 140600Z 17005KT 120V200 9999 FEW015 BKN070 BKN/// 26/22 Q1004"}, "RJOB": {"temp": 33, "dewp": 25, "wdir": 210, "wspd": 8, "wgst": null, "reportTime": "2026-07-14T06:00:00.000Z", "rawOb": "METAR RJOB 140600Z 21008KT 170V240 9999 FEW030 BKN/// 33/25 Q1008"}, "RJAA": {"temp": 31, "dewp": 24, "wdir": 130, "wspd": 9, "wgst": null, "reportTime": "2026-07-14T05:30:00.000Z", "rawOb": "METAR RJAA 140530Z 13009KT 9999 FEW030 BKN/// 31/24 Q1006 NOSIG"}, "RJOM": {"temp": 32, "dewp": 23, "wdir": 200, "wspd": 7, "wgst": null, "reportTime": "2026-07-14T06:00:00.000Z", "rawOb": "METAR RJOM 140600Z 20007KT 9999 FEW030 SCT/// 32/23 Q1008"}, "RJCK": {"temp": 24, "dewp": 20, "wdir": 170, "wspd": 5, "wgst": null, "reportTime": "2026-07-14T06:00:00.000Z", "rawOb": "METAR RJCK 140600Z 17005KT 120V210 9999 FEW020 SCT120 BKN/// 24/20 Q1004"}, "RJCO": {"temp": 24, "dewp": 23, "wdir": 170, "wspd": 5, "wgst": null, "reportTime": "2026-07-14T06:00:00.000Z", "rawOb": "METAR RJCO 140600Z 17005KT 5000 -SHRA BR FEW005 SCT015 BKN035 24/23 Q1003"}, "RJEC": {"temp": 26, "dewp": 22, "wdir": "VRB", "wspd": 2, "wgst": null, "reportTime": "2026-07-14T06:00:00.000Z", "rawOb": "METAR RJEC 140600Z VRB02KT 9999 FEW005 SCT020 BKN040 26/22 Q1004"}, "RJFF": {"temp": 35, "dewp": 24, "wdir": 170, "wspd": 12, "wgst": null, "reportTime": "2026-07-14T05:30:00.000Z", "rawOb": "METAR RJFF 140530Z 17012KT 150V220 9999 FEW035 SCT040 35/24 Q1008 WS R16L NOSIG"}, "_updated": "2026-07-14T08:23:13Z"}