{"RJFF": {"temp": 27, "dewp": 25, "wdir": 150, "wspd": 11, "wgst": null, "reportTime": "2026-07-07T21:30:00.000Z", "rawOb": "METAR RJFF 072130Z 15011KT 9999 FEW010 SCT040 BKN/// 27/25 Q1010 NOSIG"}, "RJOA": {"temp": 23, "dewp": 23, "wdir": 130, "wspd": 4, "wgst": null, "reportTime": "2026-07-07T22:00:00.000Z", "rawOb": "METAR RJOA 072200Z AUTO 13004KT 2200 R28/1000VP2000U BR SCT001 BKN003 OVC039 23/23 Q1014"}, "RJOM": {"temp": 26, "dewp": 24, "wdir": 110, "wspd": 5, "wgst": null, "reportTime": "2026-07-07T22:00:00.000Z", "rawOb": "METAR RJOM 072200Z 11005KT 9999 FEW003 BKN050 26/24 Q1012"}, "RJOB": {"temp": 23, "dewp": 21, "wdir": 60, "wspd": 5, "wgst": null, "reportTime": "2026-07-07T22:00:00.000Z", "rawOb": "METAR RJOB 072200Z 06005KT 9999 FEW007 BKN015 BKN040 23/21 Q1013"}, "RJCK": {"temp": 16, "dewp": 16, "wdir": 180, "wspd": 4, "wgst": null, "reportTime": "2026-07-07T22:00:00.000Z", "rawOb": "METAR RJCK 072200Z AUTO 18004KT 150V210 0200 R35/0200V0375N FG OVC001 16/16 Q1016"}, "RJGG": {"temp": 24, "dewp": 20, "wdir": 60, "wspd": 4, "wgst": null, "reportTime": "2026-07-07T21:30:00.000Z", "rawOb": "METAR RJGG 072130Z 06004KT 9999 FEW015 BKN/// 24/20 Q1014 NOSIG"}, "RJOT": {"temp": 24, "dewp": 24, "wdir": "VRB", "wspd": 1, "wgst": null, "reportTime": "2026-07-07T22:00:00.000Z", "rawOb": "METAR RJOT 072200Z VRB01KT 9999 FEW000 SCT050 BKN/// 24/24 Q1013"}, "RJCO": {"temp": 20, "dewp": 17, "wdir": 140, "wspd": 12, "wgst": null, "reportTime": "2026-07-07T22:00:00.000Z", "rawOb": "METAR RJCO 072200Z 14012KT 9999 FEW030 BKN200 20/17 Q1014"}, "RJBB": {"temp": 24, "dewp": 22, "wdir": 40, "wspd": 6, "wgst": null, "reportTime": "2026-07-07T21:30:00.000Z", "rawOb": "METAR RJBB 072130Z 04006KT 9999 FEW010 SCT015 BKN080 24/22 Q1013 NOSIG"}, "RJEC": {"temp": 20, "dewp": 16, "wdir": 200, "wspd": 4, "wgst": null, "reportTime": "2026-07-07T22:00:00.000Z", "rawOb": "METAR RJEC 072200Z AUTO 20004KT 160V230 9999 NSC 20/16 Q1016"}, "RJBE": {"temp": 25, "dewp": 21, "wdir": 70, "wspd": 9, "wgst": null, "reportTime": "2026-07-07T22:00:00.000Z", "rawOb": "METAR RJBE 072200Z 07009KT 9999 FEW012 SCT015 BKN020 25/21 Q1013"}, "RJSK": {"temp": 23, "dewp": 18, "wdir": 140, "wspd": 6, "wgst": null, "reportTime": "2026-07-07T22:00:00.000Z", "rawOb": "METAR RJSK 072200Z 14006KT 9999 FEW030 BKN070 BKN/// 23/18 Q1013"}, "RJOO": {"temp": 25, "dewp": 21, "wdir": 60, "wspd": 6, "wgst": null, "reportTime": "2026-07-07T22:00:00.000Z", "rawOb": "METAR RJOO 072200Z 06006KT 9999 FEW025 SCT050 BKN080 25/21 Q1013"}, "RJAA": {"temp": 22, "dewp": 19, "wdir": 330, "wspd": 5, "wgst": null, "reportTime": "2026-07-07T21:30:00.000Z", "rawOb": "METAR RJAA 072130Z 33005KT 9999 FEW030 BKN/// 22/19 Q1015 NOSIG"}, "RJTT": {"temp": 23, "dewp": 19, "wdir": 30, "wspd": 4, "wgst": null, "reportTime": "2026-07-07T21:30:00.000Z", "rawOb": "METAR RJTT 072130Z 03004KT 350V060 9999 FEW010 SCT/// 23/19 Q1015 NOSIG"}, "RJSS": {"temp": 23, "dewp": 19, "wdir": 200, "wspd": 6, "wgst": null, "reportTime": "2026-07-07T22:00:00.000Z", "rawOb": "METAR RJSS 072200Z AUTO 20006KT 170V230 9999 NCD 23/19 Q1014"}, "ROAH": {"temp": 27, "dewp": 25, "wdir": 30, "wspd": 8, "wgst": null, "reportTime": "2026-07-07T21:30:00.000Z", "rawOb": "METAR ROAH 072130Z 03008KT 9999 FEW019 27/25 Q1009"}, "RJCB": {"temp": 18, "dewp": 17, "wdir": "VRB", "wspd": 1, "wgst": null, "reportTime": "2026-07-07T23:00:00.000Z", "rawOb": "METAR RJCB 072300Z VRB01KT 6000 FEW005 SCT006 BKN007 18/17 Q1016"}, "_updated": "2026-07-08T00:12:01Z"}