{"RJOO": {"temp": 28, "dewp": 22, "wdir": 310, "wspd": 5, "wgst": null, "reportTime": "2026-07-23T18:00:00.000Z", "rawOb": "METAR RJOO 231800Z AUTO 31005KT 9999 NCD 28/22 Q1010"}, "RJFF": {"temp": 27, "dewp": 23, "wdir": "VRB", "wspd": 2, "wgst": null, "reportTime": "2026-07-23T18:00:00.000Z", "rawOb": "METAR RJFF 231800Z AUTO VRB02KT 9999 NCD 27/23 Q1010 BECMG 14006KT"}, "RJOT": {"temp": 27, "dewp": 23, "wdir": 170, "wspd": 4, "wgst": null, "reportTime": "2026-07-23T18:00:00.000Z", "rawOb": "METAR RJOT 231800Z AUTO 17004KT 140V220 9999 NCD 27/23 Q1011"}, "RJGG": {"temp": 28, "dewp": 23, "wdir": 10, "wspd": 3, "wgst": null, "reportTime": "2026-07-23T18:00:00.000Z", "rawOb": "METAR RJGG 231800Z AUTO 01003KT 350V140 9999 NCD 28/23 Q1009 NOSIG"}, "RJSS": {"temp": 24, "dewp": 22, "wdir": 220, "wspd": 4, "wgst": null, "reportTime": "2026-07-23T18:00:00.000Z", "rawOb": "METAR RJSS 231800Z AUTO 22004KT 9999 SCT008 OVC010 24/22 Q1010"}, "RJBB": {"temp": 30, "dewp": 22, "wdir": 240, "wspd": 3, "wgst": null, "reportTime": "2026-07-23T18:00:00.000Z", "rawOb": "METAR RJBB 231800Z AUTO 24003KT 190V270 9999 NCD 30/22 Q1009 BECMG 07007KT"}, "RJOM": {"temp": 28, "dewp": 24, "wdir": 160, "wspd": 3, "wgst": null, "reportTime": "2026-07-23T18:00:00.000Z", "rawOb": "METAR RJOM 231800Z AUTO 16003KT 9999 NCD 28/24 Q1010"}, "ROAH": {"temp": 29, "dewp": 26, "wdir": 90, "wspd": 7, "wgst": null, "reportTime": "2026-07-23T18:00:00.000Z", "rawOb": "METAR ROAH 231800Z AUTO 09007KT 9999 NCD 29/26 Q1009"}, "RJEC": {"temp": 17, "dewp": 17, "wdir": 70, "wspd": 3, "wgst": null, "reportTime": "2026-07-23T18:00:00.000Z", "rawOb": "METAR RJEC 231800Z AUTO 07003KT 040V120 9000 -RA FEW023 SCT050 BKN060 17/17 Q1012"}, "RJCK": {"temp": 17, "dewp": 16, "wdir": 80, "wspd": 3, "wgst": null, "reportTime": "2026-07-23T18:00:00.000Z", "rawOb": "METAR RJCK 231800Z AUTO 08003KT 050V110 9999 OVC022 17/16 Q1012"}, "RJTT": {"temp": 27, "dewp": 26, "wdir": 70, "wspd": 8, "wgst": null, "reportTime": "2026-07-23T18:00:00.000Z", "rawOb": "METAR RJTT 231800Z 07008KT 9999 FEW010 BKN050 27/26 Q1010 NOSIG"}, "RJAA": {"temp": 25, "dewp": 24, "wdir": 50, "wspd": 6, "wgst": null, "reportTime": "2026-07-23T18:00:00.000Z", "rawOb": "METAR RJAA 231800Z AUTO 05006KT 9000 BKN003 OVC005 25/24 Q1010 TEMPO 4000 BR"}, "RJOA": {"temp": 27, "dewp": 23, "wdir": 360, "wspd": 2, "wgst": null, "reportTime": "2026-07-23T18:00:00.000Z", "rawOb": "METAR RJOA 231800Z AUTO 36002KT 9999 NCD 27/23 Q1012"}, "_updated": "2026-07-23T20:36:51Z"}