{"RJFF": {"temp": 33, "dewp": 26, "wdir": 180, "wspd": 12, "wgst": null, "reportTime": "2026-07-18T03:00:00.000Z", "rawOb": "METAR RJFF 180300Z 18012KT 140V200 9999 FEW025 SCT045 BKN/// 33/26 Q1003 NOSIG"}, "RJAA": {"temp": 29, "dewp": 24, "wdir": 130, "wspd": 11, "wgst": null, "reportTime": "2026-07-18T03:00:00.000Z", "rawOb": "METAR RJAA 180300Z 13011KT 9999 FEW020 29/24 Q1007 NOSIG"}, "RJBB": {"temp": 31, "dewp": 26, "wdir": 250, "wspd": 10, "wgst": null, "reportTime": "2026-07-18T03:00:00.000Z", "rawOb": "METAR RJBB 180300Z 25010KT 9999 FEW025CB FEW030 31/26 Q1004 NOSIG"}, "ROAH": {"temp": 31, "dewp": 28, "wdir": 210, "wspd": 9, "wgst": null, "reportTime": "2026-07-18T03:00:00.000Z", "rawOb": "METAR ROAH 180300Z 21009KT 9999 FEW006 SCT020 BKN/// 31/28 Q1006"}, "RJTT": {"temp": 26, "dewp": 25, "wdir": 130, "wspd": 8, "wgst": null, "reportTime": "2026-07-18T03:00:00.000Z", "rawOb": "METAR RJTT 180300Z 13008KT 9999 -SHRA FEW005 BKN035 26/25 Q1007 TEMPO FEW005 BKN014"}, "RJGG": {"temp": 30, "dewp": 25, "wdir": 140, "wspd": 14, "wgst": null, "reportTime": "2026-07-18T03:00:00.000Z", "rawOb": "METAR RJGG 180300Z 14014KT 8000 FEW015 SCT018 BKN030 30/25 Q1005 NOSIG"}, "RJOM": {"temp": 31, "dewp": 26, "wdir": 330, "wspd": 6, "wgst": null, "reportTime": "2026-07-18T03:00:00.000Z", "rawOb": "METAR RJOM 180300Z 33006KT 9999 FEW030 BKN/// 31/26 Q1003"}, "RJSS": {"temp": 25, "dewp": 23, "wdir": 130, "wspd": 11, "wgst": null, "reportTime": "2026-07-18T03:00:00.000Z", "rawOb": "METAR RJSS 180300Z 13011KT 9999 FEW005 SCT030 BKN/// 25/23 Q1007"}, "RJOT": {"temp": 33, "dewp": 25, "wdir": 70, "wspd": 4, "wgst": null, "reportTime": "2026-07-18T03:00:00.000Z", "rawOb": "METAR RJOT 180300Z 07004KT 350V140 9999 FEW030 BKN/// 33/25 Q1004"}, "RJSK": {"temp": 28, "dewp": 23, "wdir": 120, "wspd": 9, "wgst": null, "reportTime": "2026-07-18T03:00:00.000Z", "rawOb": "METAR RJSK 180300Z 12009KT 9999 FEW020 SCT080 BKN100 28/23 Q1006"}, "RJOB": {"temp": 33, "dewp": 26, "wdir": "VRB", "wspd": 4, "wgst": null, "reportTime": "2026-07-18T03:00:00.000Z", "rawOb": "METAR RJOB 180300Z VRB04KT 9999 FEW025 SCT035 BKN/// 33/26 Q1004"}, "RJBE": {"temp": 30, "dewp": 25, "wdir": 240, "wspd": 8, "wgst": null, "reportTime": "2026-07-18T03:00:00.000Z", "rawOb": "METAR RJBE 180300Z 24008KT 9999 FEW025 30/25 Q1004"}, "RJCB": {"temp": 22, "dewp": 22, "wdir": 130, "wspd": 8, "wgst": null, "reportTime": "2026-07-18T03:00:00.000Z", "rawOb": "METAR RJCB 180300Z 13008KT 9999 -SHRA FEW003 SCT006 BKN007 22/22 Q1011"}, "RJCK": {"temp": 18, "dewp": 18, "wdir": 170, "wspd": 7, "wgst": null, "reportTime": "2026-07-18T03:00:00.000Z", "rawOb": "METAR RJCK 180300Z 17007KT 1500 R17/1100V2000U BCFG -SHRA BR SCT001 BKN002 BKN003 18/18 Q1012"}, "RJCO": {"temp": 24, "dewp": 21, "wdir": 170, "wspd": 11, "wgst": null, "reportTime": "2026-07-18T03:00:00.000Z", "rawOb": "METAR RJCO 180300Z 17011KT 9999 FEW008 BKN030 BKN080 24/21 Q1009"}, "RJEC": {"temp": 25, "dewp": 20, "wdir": 190, "wspd": 11, "wgst": null, "reportTime": "2026-07-18T03:00:00.000Z", "rawOb": "METAR RJEC 180300Z 19011KT 9999 FEW025 SCT070 BKN160 25/20 Q1009"}, "RJOA": {"temp": 31, "dewp": 24, "wdir": 180, "wspd": 6, "wgst": null, "reportTime": "2026-07-18T03:00:00.000Z", "rawOb": "METAR RJOA 180300Z 18006KT 130V240 9999 FEW025 BKN/// 31/24 Q1005"}, "RJOO": {"temp": 36, "dewp": 24, "wdir": "VRB", "wspd": 4, "wgst": null, "reportTime": "2026-07-18T03:00:00.000Z", "rawOb": "METAR RJOO 180300Z VRB04KT 9999 VCSH FEW020 BKN/// 36/24 Q1003"}, "_updated": "2026-07-18T05:52:17Z"}