{"RJTT": {"temp": 24, "dewp": 22, "wdir": 110, "wspd": 6, "wgst": null, "reportTime": "2026-07-04T14:30:00.000Z", "rawOb": "METAR RJTT 041430Z 11006KT 9999 -RA FEW012 BKN035 BKN/// 24/22 Q1011 TEMPO FM1530 FEW010 BKN014"}, "RJGG": {"temp": 22, "dewp": 21, "wdir": 110, "wspd": 1, "wgst": null, "reportTime": "2026-07-04T14:30:00.000Z", "rawOb": "METAR RJGG 041430Z AUTO 11001KT 9999 SCT007 SCT020 BKN047 22/21 Q1010 TEMPO FEW005 BKN008"}, "RJBB": {"temp": 23, "dewp": 22, "wdir": 60, "wspd": 6, "wgst": null, "reportTime": "2026-07-04T14:30:00.000Z", "rawOb": "METAR RJBB 041430Z AUTO 06006KT 9999 FEW005 SCT010 OVC033 23/22 Q1008 NOSIG"}, "ROAH": {"temp": 28, "dewp": 25, "wdir": 220, "wspd": 3, "wgst": null, "reportTime": "2026-07-04T14:30:00.000Z", "rawOb": "METAR ROAH 041430Z AUTO 22003KT 9999 NCD 28/25 Q1013"}, "RJFF": {"temp": 26, "dewp": 24, "wdir": "VRB", "wspd": 2, "wgst": null, "reportTime": "2026-07-04T14:30:00.000Z", "rawOb": "METAR RJFF 041430Z AUTO VRB02KT 9999 BKN030 BKN044 OVC050 26/24 Q1008 NOSIG"}, "RJEC": {"temp": 16, "dewp": 15, "wdir": 280, "wspd": 3, "wgst": null, "reportTime": "2026-07-04T15:00:00.000Z", "rawOb": "METAR RJEC 041500Z AUTO 28003KT 9999 NCD 16/15 Q1012"}, "RJOA": {"temp": 21, "dewp": 20, "wdir": 90, "wspd": 1, "wgst": null, "reportTime": "2026-07-04T15:00:00.000Z", "rawOb": "METAR RJOA 041500Z AUTO 09001KT 6000 FEW000 OVC010 21/20 Q1010"}, "RJOM": {"temp": 24, "dewp": 24, "wdir": 90, "wspd": 3, "wgst": null, "reportTime": "2026-07-04T15:00:00.000Z", "rawOb": "METAR RJOM 041500Z AUTO 09003KT 360V140 9999 FEW026 SCT027 BKN037 //////TCU 24/24 Q1008"}, "RJOO": {"temp": 22, "dewp": 21, "wdir": 70, "wspd": 6, "wgst": null, "reportTime": "2026-07-04T15:00:00.000Z", "rawOb": "METAR RJOO 041500Z AUTO 07006KT 4300 -RA BR SCT011 BKN029 OVC041 22/21 Q1008"}, "RJOT": {"temp": 22, "dewp": 22, "wdir": 360, "wspd": 2, "wgst": null, "reportTime": "2026-07-04T15:00:00.000Z", "rawOb": "METAR RJOT 041500Z AUTO 36002KT 0100 R26/0450N FG OVC000 22/22 Q1010"}, "RJSS": {"temp": 20, "dewp": 18, "wdir": "VRB", "wspd": 1, "wgst": null, "reportTime": "2026-07-04T15:00:00.000Z", "rawOb": "METAR RJSS 041500Z AUTO VRB01KT 9999 OVC009 20/18 Q1012"}, "RJCK": {"temp": 12, "dewp": 11, "wdir": 230, "wspd": 3, "wgst": null, "reportTime": "2026-07-04T15:00:00.000Z", "rawOb": "METAR RJCK 041500Z AUTO 23003KT 9999 FEW011 BKN014 12/11 Q1014"}, "RJAA": {"temp": 22, "dewp": 21, "wdir": 140, "wspd": 5, "wgst": null, "reportTime": "2026-07-04T14:30:00.000Z", "rawOb": "METAR RJAA 041430Z AUTO 14005KT 9999 OVC043 22/21 Q1011 NOSIG"}, "_updated": "2026-07-04T17:27:21Z"}