{"RJTT": {"temp": 31, "dewp": 26, "wdir": 190, "wspd": 12, "wgst": null, "reportTime": "2026-07-21T09:30:00.000Z", "rawOb": "METAR RJTT 210930Z 19012KT 9999 FEW030 BKN/// 31/26 Q1007 NOSIG"}, "ROAH": {"temp": 30, "dewp": 27, "wdir": 260, "wspd": 5, "wgst": null, "reportTime": "2026-07-21T09:30:00.000Z", "rawOb": "METAR ROAH 210930Z 26005KT 9999 VCSH FEW010 30/27 Q1009"}, "RJAA": {"temp": 32, "dewp": 26, "wdir": 260, "wspd": 5, "wgst": null, "reportTime": "2026-07-21T09:30:00.000Z", "rawOb": "METAR RJAA 210930Z 26005KT 230V300 9999 FEW030 SCT/// 32/26 Q1007 BECMG 22004KT"}, "RJGG": {"temp": 32, "dewp": 28, "wdir": 190, "wspd": 9, "wgst": null, "reportTime": "2026-07-21T09:30:00.000Z", "rawOb": "METAR RJGG 210930Z 19009KT 9999 FEW020 32/28 Q1007 NOSIG"}, "RJFF": {"temp": 32, "dewp": 25, "wdir": 350, "wspd": 7, "wgst": null, "reportTime": "2026-07-21T09:30:00.000Z", "rawOb": "METAR RJFF 210930Z 35007KT 310V030 9999 FEW030 32/25 Q1008 NOSIG"}, "RJBB": {"temp": 31, "dewp": 26, "wdir": 230, "wspd": 8, "wgst": null, "reportTime": "2026-07-21T09:30:00.000Z", "rawOb": "METAR RJBB 210930Z 23008KT 9999 FEW025 31/26 Q1008 NOSIG"}, "RJCB": {"temp": 25, "dewp": 21, "wdir": 170, "wspd": 3, "wgst": null, "reportTime": "2026-07-21T10:00:00.000Z", "rawOb": "METAR RJCB 211000Z 17003KT 9999 FEW020 25/21 Q1005"}, "RJOA": {"temp": 29, "dewp": 25, "wdir": "VRB", "wspd": 2, "wgst": null, "reportTime": "2026-07-21T10:00:00.000Z", "rawOb": "METAR RJOA 211000Z VRB02KT 9999 FEW025 29/25 Q1010"}, "RJOB": {"temp": 30, "dewp": 25, "wdir": 230, "wspd": 6, "wgst": null, "reportTime": "2026-07-21T10:00:00.000Z", "rawOb": "METAR RJOB 211000Z 23006KT 9999 FEW025 30/25 Q1009"}, "RJOM": {"temp": 29, "dewp": 26, "wdir": 190, "wspd": 4, "wgst": null, "reportTime": "2026-07-21T10:00:00.000Z", "rawOb": "METAR RJOM 211000Z 19004KT 9999 FEW030 29/26 Q1008"}, "RJOO": {"temp": 34, "dewp": 25, "wdir": 310, "wspd": 7, "wgst": null, "reportTime": "2026-07-21T10:00:00.000Z", "rawOb": "METAR RJOO 211000Z 31007KT 9999 FEW030 34/25 Q1007"}, "RJEC": {"temp": 23, "dewp": 19, "wdir": 320, "wspd": 5, "wgst": null, "reportTime": "2026-07-21T10:00:00.000Z", "rawOb": "METAR RJEC 211000Z 32005KT 9999 FEW030 23/19 Q1008"}, "RJOT": {"temp": 31, "dewp": 26, "wdir": 230, "wspd": 4, "wgst": null, "reportTime": "2026-07-21T10:00:00.000Z", "rawOb": "METAR RJOT 211000Z 23004KT 9999 FEW030 31/26 Q1009"}, "RJSK": {"temp": 26, "dewp": 24, "wdir": 300, "wspd": 6, "wgst": null, "reportTime": "2026-07-21T10:00:00.000Z", "rawOb": "METAR RJSK 211000Z 30006KT 9999 FEW007 BKN010 BKN025 26/24 Q1009"}, "RJSS": {"temp": 30, "dewp": 25, "wdir": 190, "wspd": 4, "wgst": null, "reportTime": "2026-07-21T10:00:00.000Z", "rawOb": "METAR RJSS 211000Z 19004KT 150V220 9999 FEW030 30/25 Q1007"}, "RJBE": {"temp": 29, "dewp": 26, "wdir": 230, "wspd": 11, "wgst": null, "reportTime": "2026-07-21T10:00:00.000Z", "rawOb": "METAR RJBE 211000Z 23011KT 9999 FEW025 SCT/// 29/26 Q1008"}, "RJCK": {"temp": 19, "dewp": 19, "wdir": 160, "wspd": 3, "wgst": null, "reportTime": "2026-07-21T10:00:00.000Z", "rawOb": "METAR RJCK 211000Z 16003KT 120V200 4900 R17/P2000N PRFG BR FEW001 SCT005 BKN007 19/19 Q1006"}, "RJCO": {"temp": 23, "dewp": 20, "wdir": 350, "wspd": 10, "wgst": null, "reportTime": "2026-07-21T10:00:00.000Z", "rawOb": "METAR RJCO 211000Z 35010KT 9999 FEW030 SCT200 23/20 Q1008"}, "_updated": "2026-07-21T12:01:30Z"}