{"RJFF": {"temp": 29, "dewp": 26, "wdir": 150, "wspd": 6, "wgst": null, "reportTime": "2026-07-15T22:00:00.000Z", "rawOb": "METAR RJFF 152200Z 15006KT 9999 FEW005 SCT020 BKN025 29/26 Q1003 BECMG 28004KT"}, "RJGG": {"temp": 29, "dewp": 25, "wdir": 280, "wspd": 4, "wgst": null, "reportTime": "2026-07-15T22:00:00.000Z", "rawOb": "METAR RJGG 152200Z 28004KT 9999 FEW030 BKN/// 29/25 Q1001 NOSIG"}, "ROAH": {"temp": 27, "dewp": 27, "wdir": 240, "wspd": 11, "wgst": null, "reportTime": "2026-07-15T22:00:00.000Z", "rawOb": "METAR ROAH 152200Z 24011KT 9999 FEW004 SCT007 BKN010 27/27 Q1009"}, "RJAA": {"temp": 26, "dewp": 25, "wdir": "VRB", "wspd": 1, "wgst": null, "reportTime": "2026-07-15T22:00:00.000Z", "rawOb": "METAR RJAA 152200Z VRB01KT 9000 BKN013 26/25 Q1001 BECMG FEW012 BKN020"}, "RJBB": {"temp": 29, "dewp": 24, "wdir": 230, "wspd": 4, "wgst": null, "reportTime": "2026-07-15T22:00:00.000Z", "rawOb": "METAR RJBB 152200Z 23004KT 9999 FEW025 BKN/// 29/24 Q1002 NOSIG"}, "RJTT": {"temp": 29, "dewp": 25, "wdir": 170, "wspd": 4, "wgst": null, "reportTime": "2026-07-15T22:00:00.000Z", "rawOb": "METAR RJTT 152200Z 17004KT 120V280 9999 R34L/P2000N R22/P2000N R34R/P2000N R05/P2000N FEW016 BKN/// 29/25 Q1000 NOSIG"}, "RJOA": {"temp": 26, "dewp": 24, "wdir": 280, "wspd": 3, "wgst": null, "reportTime": "2026-07-15T22:00:00.000Z", "rawOb": "METAR RJOA 152200Z AUTO 28003KT 9999 NCD 26/24 Q1005"}, "RJOB": {"temp": 27, "dewp": 24, "wdir": 270, "wspd": 3, "wgst": null, "reportTime": "2026-07-15T22:00:00.000Z", "rawOb": "METAR RJOB 152200Z 27003KT 220V310 9999 FEW015 BKN/// 27/24 Q1004"}, "RJOT": {"temp": 28, "dewp": 25, "wdir": 250, "wspd": 4, "wgst": null, "reportTime": "2026-07-15T22:00:00.000Z", "rawOb": "METAR RJOT 152200Z 25004KT 220V280 9999 FEW025 SCT/// 28/25 Q1004"}, "RJSK": {"temp": 24, "dewp": 24, "wdir": 290, "wspd": 8, "wgst": null, "reportTime": "2026-07-15T22:00:00.000Z", "rawOb": "METAR RJSK 152200Z 29008KT 3000 -SHRA BR FEW000 BKN003 BKN005 24/24 Q1001"}, "RJCO": {"temp": 24, "dewp": 22, "wdir": 350, "wspd": 7, "wgst": null, "reportTime": "2026-07-15T22:00:00.000Z", "rawOb": "METAR RJCO 152200Z 35007KT 320V020 9999 FEW008 BKN010 BKN030 24/22 Q0996"}, "RJEC": {"temp": 22, "dewp": 21, "wdir": 200, "wspd": 10, "wgst": null, "reportTime": "2026-07-15T22:00:00.000Z", "rawOb": "METAR RJEC 152200Z AUTO 20010KT 9999 FEW016 BKN017 OVC019 22/21 Q0996"}, "RJOO": {"temp": 30, "dewp": 24, "wdir": "VRB", "wspd": 2, "wgst": null, "reportTime": "2026-07-15T22:00:00.000Z", "rawOb": "METAR RJOO 152200Z VRB02KT 9999 FEW020 BKN/// 30/24 Q1002"}, "RJOM": {"temp": 29, "dewp": 26, "wdir": 180, "wspd": 3, "wgst": null, "reportTime": "2026-07-15T22:00:00.000Z", "rawOb": "METAR RJOM 152200Z 18003KT 9999 FEW020 SCT035 BKN045 29/26 Q1003"}, "RJSS": {"temp": 26, "dewp": 25, "wdir": "VRB", "wspd": 1, "wgst": null, "reportTime": "2026-07-15T22:00:00.000Z", "rawOb": "METAR RJSS 152200Z AUTO VRB01KT 7000 FEW060 SCT070 26/25 Q1000"}, "RJBE": {"temp": 29, "dewp": 25, "wdir": 220, "wspd": 6, "wgst": null, "reportTime": "2026-07-15T22:00:00.000Z", "rawOb": "METAR RJBE 152200Z 22006KT 9999 FEW025 BKN/// 29/25 Q1002"}, "RJCB": {"temp": 20, "dewp": 20, "wdir": 310, "wspd": 5, "wgst": null, "reportTime": "2026-07-15T23:00:00.000Z", "rawOb": "METAR RJCB 152300Z 31005KT 260V330 9000 FEW002 BKN003 BKN004 20/20 Q0997"}, "RJCK": {"temp": 19, "dewp": 19, "wdir": 190, "wspd": 18, "wgst": null, "reportTime": "2026-07-15T22:00:00.000Z", "rawOb": "METAR RJCK 152200Z AUTO 19018KT 0100 R17/0250V0400N FG OVC000 19/19 Q0997"}, "_updated": "2026-07-16T00:56:51Z"}