{"RJTT": {"temp": 27, "dewp": 25, "wdir": 190, "wspd": 11, "wgst": null, "reportTime": "2026-07-14T14:00:00.000Z", "rawOb": "METAR RJTT 141400Z 19011KT 9999 FEW010 BKN070 27/25 Q1006 NOSIG"}, "ROAH": {"temp": 27, "dewp": 25, "wdir": 190, "wspd": 11, "wgst": null, "reportTime": "2026-07-14T14:00:00.000Z", "rawOb": "METAR ROAH 141400Z AUTO 19011KT 9999 NCD 27/25 Q1012"}, "RJBB": {"temp": 28, "dewp": 24, "wdir": 220, "wspd": 7, "wgst": null, "reportTime": "2026-07-14T14:00:00.000Z", "rawOb": "METAR RJBB 141400Z AUTO 22007KT 9999 NCD 28/24 Q1006 NOSIG"}, "RJAA": {"temp": 26, "dewp": 23, "wdir": 180, "wspd": 4, "wgst": null, "reportTime": "2026-07-14T14:00:00.000Z", "rawOb": "METAR RJAA 141400Z AUTO 18004KT 9999 FEW006 BKN080 BKN090 26/23 Q1006 NOSIG"}, "RJGG": {"temp": 26, "dewp": 23, "wdir": 310, "wspd": 7, "wgst": null, "reportTime": "2026-07-14T14:00:00.000Z", "rawOb": "METAR RJGG 141400Z AUTO 31007KT 9999 NCD 26/23 Q1006 NOSIG"}, "RJFF": {"temp": 29, "dewp": 24, "wdir": 160, "wspd": 13, "wgst": null, "reportTime": "2026-07-14T14:00:00.000Z", "rawOb": "METAR RJFF 141400Z AUTO 16013KT 9999 FEW033 SCT039 BKN042 29/24 Q1007 NOSIG"}, "RJCK": {"temp": 18, "dewp": 18, "wdir": "VRB", "wspd": 2, "wgst": null, "reportTime": "2026-07-14T14:00:00.000Z", "rawOb": "METAR RJCK 141400Z AUTO VRB02KT 9999 FEW049 OVC060 18/18 Q1004"}, "RJOM": {"temp": 27, "dewp": 25, "wdir": 240, "wspd": 7, "wgst": null, "reportTime": "2026-07-14T14:00:00.000Z", "rawOb": "METAR RJOM 141400Z AUTO 24007KT 9999 NCD 27/25 Q1007"}, "RJOO": {"temp": 30, "dewp": 24, "wdir": "VRB", "wspd": 3, "wgst": null, "reportTime": "2026-07-14T14:00:00.000Z", "rawOb": "METAR RJOO 141400Z AUTO VRB03KT 9999 NCD 30/24 Q1006"}, "RJOT": {"temp": 27, "dewp": 22, "wdir": "VRB", "wspd": 2, "wgst": null, "reportTime": "2026-07-14T14:00:00.000Z", "rawOb": "METAR RJOT 141400Z AUTO VRB02KT 9999 NCD 27/22 Q1007"}, "RJOA": {"temp": 26, "dewp": 23, "wdir": 270, "wspd": 3, "wgst": null, "reportTime": "2026-07-14T14:00:00.000Z", "rawOb": "METAR RJOA 141400Z AUTO 27003KT 9999 NCD 26/23 Q1008"}, "RJSS": {"temp": 25, "dewp": 23, "wdir": "VRB", "wspd": 2, "wgst": null, "reportTime": "2026-07-14T14:00:00.000Z", "rawOb": "METAR RJSS 141400Z AUTO VRB02KT 9999 NCD 25/23 Q1006"}, "RJEC": {"temp": 22, "dewp": 21, "wdir": 180, "wspd": 5, "wgst": null, "reportTime": "2026-07-14T14:00:00.000Z", "rawOb": "METAR RJEC 141400Z AUTO 18005KT 9999 SCT019 SCT210 BKN220 22/21 Q1004"}, "_updated": "2026-07-14T16:52:27Z"}