{"RJCK": {"temp": 18, "dewp": 18, "wdir": 350, "wspd": 3, "wgst": null, "reportTime": "2026-07-10T19:00:00.000Z", "rawOb": "METAR RJCK 101900Z AUTO 35003KT 0200 R35/P2000N FG OVC000 18/18 Q1011"}, "RJFF": {"temp": 28, "dewp": 23, "wdir": 140, "wspd": 7, "wgst": null, "reportTime": "2026-07-10T18:30:00.000Z", "rawOb": "METAR RJFF 101830Z AUTO 14007KT 9999 BKN044 28/23 Q1012 NOSIG"}, "RJOM": {"temp": 25, "dewp": 23, "wdir": 350, "wspd": 3, "wgst": null, "reportTime": "2026-07-10T19:00:00.000Z", "rawOb": "METAR RJOM 101900Z AUTO 35003KT 320V030 9999 NCD 25/23 Q1014"}, "RJOO": {"temp": 26, "dewp": 22, "wdir": "VRB", "wspd": 4, "wgst": null, "reportTime": "2026-07-10T19:00:00.000Z", "rawOb": "METAR RJOO 101900Z AUTO VRB04KT 9999 BKN028 OVC042 26/22 Q1014"}, "ROAH": {"temp": 26, "dewp": 25, "wdir": 120, "wspd": 35, "wgst": 47, "reportTime": "2026-07-10T18:30:00.000Z", "rawOb": "METAR ROAH 101830Z AUTO 12035G47KT 5000 -RA BR FEW013 SCT019 BKN023 //////TCU 26/25 Q0993"}, "RJTT": {"temp": 25, "dewp": 22, "wdir": 190, "wspd": 8, "wgst": null, "reportTime": "2026-07-10T18:30:00.000Z", "rawOb": "METAR RJTT 101830Z 19008KT 9999 FEW013 BKN018 25/22 Q1015 NOSIG"}, "RJOT": {"temp": 22, "dewp": 22, "wdir": 150, "wspd": 4, "wgst": null, "reportTime": "2026-07-10T19:00:00.000Z", "rawOb": "METAR RJOT 101900Z AUTO 15004KT 9999 OVC002 22/22 Q1015"}, "RJSS": {"temp": 23, "dewp": 21, "wdir": 20, "wspd": 3, "wgst": null, "reportTime": "2026-07-10T19:00:00.000Z", "rawOb": "METAR RJSS 101900Z AUTO 02003KT 5000 BR NCD 23/21 Q1013"}, "RJAA": {"temp": 21, "dewp": 21, "wdir": 180, "wspd": 3, "wgst": null, "reportTime": "2026-07-10T18:30:00.000Z", "rawOb": "METAR RJAA 101830Z AUTO 18003KT 9999 NCD 21/21 Q1015 NOSIG"}, "RJGG": {"temp": 24, "dewp": 23, "wdir": 130, "wspd": 7, "wgst": null, "reportTime": "2026-07-10T18:30:00.000Z", "rawOb": "METAR RJGG 101830Z AUTO 13007KT 090V270 9999 NCD 24/23 Q1015 NOSIG"}, "RJOA": {"temp": 23, "dewp": 22, "wdir": "VRB", "wspd": 1, "wgst": null, "reportTime": "2026-07-10T19:00:00.000Z", "rawOb": "METAR RJOA 101900Z AUTO VRB01KT 9999 NCD 23/22 Q1015"}, "RJBB": {"temp": 25, "dewp": 22, "wdir": 180, "wspd": 7, "wgst": null, "reportTime": "2026-07-10T18:30:00.000Z", "rawOb": "METAR RJBB 101830Z AUTO 18007KT 9999 BKN044 25/22 Q1015 NOSIG"}, "RJEC": {"temp": 21, "dewp": 20, "wdir": 160, "wspd": 8, "wgst": null, "reportTime": "2026-07-10T19:00:00.000Z", "rawOb": "METAR RJEC 101900Z AUTO 16008KT 9999 -RA FEW036 SCT039 BKN044 21/20 Q1012"}, "_updated": "2026-07-10T21:14:49Z"}