{"RJFF": {"temp": 30, "dewp": 25, "wdir": 10, "wspd": 8, "wgst": null, "reportTime": "2026-07-08T10:30:00.000Z", "rawOb": "METAR RJFF 081030Z 01008KT 9999 FEW025 30/25 Q1009 NOSIG"}, "RJOA": {"temp": 25, "dewp": 23, "wdir": 130, "wspd": 4, "wgst": null, "reportTime": "2026-07-08T11:00:00.000Z", "rawOb": "METAR RJOA 081100Z 13004KT 9999 FEW010 SCT030 BKN050 25/23 Q1014"}, "RJTT": {"temp": 25, "dewp": 20, "wdir": 150, "wspd": 6, "wgst": null, "reportTime": "2026-07-08T10:30:00.000Z", "rawOb": "METAR RJTT 081030Z 15006KT 120V210 9999 FEW020 BKN030 BKN/// 25/20 Q1014 NOSIG"}, "RJSS": {"temp": 22, "dewp": 20, "wdir": 160, "wspd": 7, "wgst": null, "reportTime": "2026-07-08T11:00:00.000Z", "rawOb": "METAR RJSS 081100Z 16007KT 9999 FEW005 SCT008 BKN070 22/20 Q1014"}, "RJOT": {"temp": 26, "dewp": 24, "wdir": "VRB", "wspd": 2, "wgst": null, "reportTime": "2026-07-08T11:00:00.000Z", "rawOb": "METAR RJOT 081100Z VRB02KT 9999 FEW035 BKN050 26/24 Q1013"}, "RJOO": {"temp": 27, "dewp": 20, "wdir": "VRB", "wspd": 4, "wgst": null, "reportTime": "2026-07-08T11:00:00.000Z", "rawOb": "METAR RJOO 081100Z VRB04KT 9999 FEW030 SCT/// 27/20 Q1013"}, "ROAH": {"temp": 30, "dewp": 25, "wdir": 50, "wspd": 15, "wgst": null, "reportTime": "2026-07-08T10:30:00.000Z", "rawOb": "METAR ROAH 081030Z 05015KT 9999 FEW020 30/25 Q1006"}, "RJAA": {"temp": 22, "dewp": 20, "wdir": 150, "wspd": 5, "wgst": null, "reportTime": "2026-07-08T10:30:00.000Z", "rawOb": "METAR RJAA 081030Z 15005KT 9999 FEW030 BKN/// 22/20 Q1014 NOSIG"}, "RJBB": {"temp": 25, "dewp": 22, "wdir": 230, "wspd": 9, "wgst": null, "reportTime": "2026-07-08T10:30:00.000Z", "rawOb": "METAR RJBB 081030Z 23009KT 9999 FEW025 BKN/// 25/22 Q1013 NOSIG"}, "RJBE": {"temp": 25, "dewp": 22, "wdir": 220, "wspd": 13, "wgst": null, "reportTime": "2026-07-08T11:00:00.000Z", "rawOb": "METAR RJBE 081100Z 22013KT 9999 FEW030 BKN060 25/22 Q1013"}, "RJCK": {"temp": 16, "dewp": 16, "wdir": 190, "wspd": 5, "wgst": null, "reportTime": "2026-07-08T11:00:00.000Z", "rawOb": "METAR RJCK 081100Z 19005KT 0200 R17/0550V0900N FG VV001 16/16 Q1015"}, "RJEC": {"temp": 22, "dewp": 18, "wdir": 180, "wspd": 4, "wgst": null, "reportTime": "2026-07-08T11:00:00.000Z", "rawOb": "METAR RJEC 081100Z 18004KT 9999 FEW020 SCT040 BKN060 22/18 Q1014"}, "RJOM": {"temp": 25, "dewp": 23, "wdir": 340, "wspd": 6, "wgst": null, "reportTime": "2026-07-08T11:00:00.000Z", "rawOb": "METAR RJOM 081100Z 34006KT 9999 FEW020 25/23 Q1011"}, "RJGG": {"temp": 25, "dewp": 19, "wdir": 130, "wspd": 9, "wgst": null, "reportTime": "2026-07-08T10:30:00.000Z", "rawOb": "METAR RJGG 081030Z 13009KT 9999 FEW020 BKN/// 25/19 Q1014 NOSIG"}, "RJSK": {"temp": 25, "dewp": 19, "wdir": "VRB", "wspd": 1, "wgst": null, "reportTime": "2026-07-08T11:00:00.000Z", "rawOb": "METAR RJSK 081100Z VRB01KT 9999 FEW035 BKN/// 25/19 Q1013"}, "RJOB": {"temp": 24, "dewp": 22, "wdir": 60, "wspd": 6, "wgst": null, "reportTime": "2026-07-08T11:00:00.000Z", "rawOb": "METAR RJOB 081100Z 06006KT 9999 FEW020 BKN060 24/22 Q1013"}, "RJCO": {"temp": 20, "dewp": 17, "wdir": 140, "wspd": 11, "wgst": null, "reportTime": "2026-07-08T11:00:00.000Z", "rawOb": "METAR RJCO 081100Z 14011KT 9999 FEW015 BKN230 20/17 Q1013"}, "RJCB": {"temp": 17, "dewp": 17, "wdir": "VRB", "wspd": 2, "wgst": null, "reportTime": "2026-07-08T11:00:00.000Z", "rawOb": "METAR RJCB 081100Z VRB02KT 9999 FEW002 BKN003 BKN070 17/17 Q1015"}, "_updated": "2026-07-08T13:07:18Z"}