{"RJFF": {"temp": 34, "dewp": 25, "wdir": 170, "wspd": 13, "wgst": null, "reportTime": "2026-07-18T05:00:00.000Z", "rawOb": "METAR RJFF 180500Z 17013KT 9999 FEW025 SCT050 BKN/// 34/25 Q1002 WS R16L NOSIG"}, "RJGG": {"temp": 30, "dewp": 25, "wdir": 140, "wspd": 16, "wgst": null, "reportTime": "2026-07-18T05:00:00.000Z", "rawOb": "METAR RJGG 180500Z 14016KT 9999 FEW015 SCT020 BKN030 30/25 Q1005 NOSIG"}, "RJBB": {"temp": 33, "dewp": 24, "wdir": 230, "wspd": 15, "wgst": null, "reportTime": "2026-07-18T05:00:00.000Z", "rawOb": "METAR RJBB 180500Z 23015KT 9999 FEW025 33/24 Q1003 NOSIG"}, "RJTT": {"temp": 27, "dewp": 24, "wdir": 100, "wspd": 7, "wgst": null, "reportTime": "2026-07-18T05:00:00.000Z", "rawOb": "METAR RJTT 180500Z 10007KT 9999 -SHRA FEW008 SCT025 BKN040 27/24 Q1007 NOSIG"}, "RJAA": {"temp": 29, "dewp": 24, "wdir": 130, "wspd": 10, "wgst": null, "reportTime": "2026-07-18T05:00:00.000Z", "rawOb": "METAR RJAA 180500Z 13010KT 9999 FEW020 SCT025 BKN045 29/24 Q1007 NOSIG"}, "ROAH": {"temp": 30, "dewp": 28, "wdir": 220, "wspd": 9, "wgst": null, "reportTime": "2026-07-18T05:00:00.000Z", "rawOb": "METAR ROAH 180500Z 22009KT 9999 FEW007 SCT019 30/28 Q1006"}, "RJCK": {"temp": 19, "dewp": 19, "wdir": 190, "wspd": 7, "wgst": null, "reportTime": "2026-07-18T05:00:00.000Z", "rawOb": "METAR RJCK 180500Z 19007KT 1400 R17/1700N BCFG -SHRA BR SCT001 BKN002 BKN003 19/19 Q1012"}, "RJEC": {"temp": 22, "dewp": 21, "wdir": 180, "wspd": 8, "wgst": null, "reportTime": "2026-07-18T05:00:00.000Z", "rawOb": "METAR RJEC 180500Z 18008KT 9999 -SHRA FEW015 SCT040 BKN070 22/21 Q1010"}, "RJCO": {"temp": 25, "dewp": 21, "wdir": 160, "wspd": 15, "wgst": null, "reportTime": "2026-07-18T05:00:00.000Z", "rawOb": "METAR RJCO 180500Z 16015KT 9999 FEW012 BKN030 BKN100 25/21 Q1008"}, "RJCB": {"temp": 22, "dewp": 21, "wdir": 120, "wspd": 8, "wgst": null, "reportTime": "2026-07-18T05:00:00.000Z", "rawOb": "METAR RJCB 180500Z 12008KT 9999 -SHRA FEW003 SCT006 BKN007 22/21 Q1011"}, "RJBE": {"temp": 31, "dewp": 26, "wdir": 230, "wspd": 9, "wgst": null, "reportTime": "2026-07-18T05:00:00.000Z", "rawOb": "METAR RJBE 180500Z 23009KT 9999 FEW030 SCT/// 31/26 Q1003"}, "RJSS": {"temp": 25, "dewp": 23, "wdir": 140, "wspd": 12, "wgst": null, "reportTime": "2026-07-18T05:00:00.000Z", "rawOb": "METAR RJSS 180500Z 14012KT 9999 FEW010 SCT025 BKN045 25/23 Q1007"}, "RJOB": {"temp": 33, "dewp": 24, "wdir": 160, "wspd": 5, "wgst": null, "reportTime": "2026-07-18T05:00:00.000Z", "rawOb": "METAR RJOB 180500Z 16005KT 110V220 9999 FEW025 SCT035 BKN080 33/24 Q1004"}, "RJSK": {"temp": 29, "dewp": 23, "wdir": 130, "wspd": 7, "wgst": null, "reportTime": "2026-07-18T05:00:00.000Z", "rawOb": "METAR RJSK 180500Z 13007KT 9999 FEW020 SCT045 BKN090 29/23 Q1005"}, "RJOO": {"temp": 35, "dewp": 24, "wdir": 260, "wspd": 9, "wgst": null, "reportTime": "2026-07-18T05:00:00.000Z", "rawOb": "METAR RJOO 180500Z 26009KT 220V300 9999 FEW030 SCT/// 35/24 Q1003"}, "RJOT": {"temp": 33, "dewp": 25, "wdir": 30, "wspd": 5, "wgst": null, "reportTime": "2026-07-18T05:00:00.000Z", "rawOb": "METAR RJOT 180500Z 03005KT 330V090 9999 -SHRA FEW025CB SCT035 BKN045 33/25 Q1004"}, "RJOM": {"temp": 32, "dewp": 25, "wdir": 340, "wspd": 4, "wgst": null, "reportTime": "2026-07-18T05:00:00.000Z", "rawOb": "METAR RJOM 180500Z 34004KT 300V360 9999 FEW035 BKN/// 32/25 Q1003"}, "RJOA": {"temp": 32, "dewp": 23, "wdir": 190, "wspd": 7, "wgst": null, "reportTime": "2026-07-18T05:00:00.000Z", "rawOb": "METAR RJOA 180500Z 19007KT 130V240 9999 FEW030 BKN/// 32/23 Q1005"}, "_updated": "2026-07-18T07:58:05Z"}