{"RJTT": {"temp": 28, "dewp": 24, "wdir": 190, "wspd": 10, "wgst": null, "reportTime": "2026-07-19T13:30:00.000Z", "rawOb": "METAR RJTT 191330Z 19010KT CAVOK 28/24 Q1007 NOSIG"}, "RJOM": {"temp": 26, "dewp": 25, "wdir": 340, "wspd": 3, "wgst": null, "reportTime": "2026-07-19T14:00:00.000Z", "rawOb": "METAR RJOM 191400Z AUTO 34003KT 9999 NCD 26/25 Q1007"}, "RJFF": {"temp": 30, "dewp": 26, "wdir": 310, "wspd": 4, "wgst": null, "reportTime": "2026-07-19T13:30:00.000Z", "rawOb": "METAR RJFF 191330Z 31004KT 9999 FEW020 SCT025 BKN100 30/26 Q1007 NOSIG"}, "RJEC": {"temp": 21, "dewp": 19, "wdir": 140, "wspd": 7, "wgst": null, "reportTime": "2026-07-19T14:00:00.000Z", "rawOb": "METAR RJEC 191400Z AUTO 14007KT 9999 SCT026 BKN027 OVC037 21/19 Q1005"}, "RJCK": {"temp": 18, "dewp": 18, "wdir": 140, "wspd": 16, "wgst": null, "reportTime": "2026-07-19T14:00:00.000Z", "rawOb": "METAR RJCK 191400Z AUTO 14016KT 0800 R35/0650V0900N -RA FG OVC001 18/18 Q1007"}, "RJBB": {"temp": 29, "dewp": 25, "wdir": 190, "wspd": 10, "wgst": null, "reportTime": "2026-07-19T13:30:00.000Z", "rawOb": "METAR RJBB 191330Z 19010KT 9999 FEW020 29/25 Q1007 NOSIG"}, "RJAA": {"temp": 26, "dewp": 24, "wdir": 190, "wspd": 4, "wgst": null, "reportTime": "2026-07-19T13:30:00.000Z", "rawOb": "METAR RJAA 191330Z 19004KT 9999 FEW025 BKN/// 26/24 Q1007 NOSIG"}, "RJSS": {"temp": 25, "dewp": 23, "wdir": "VRB", "wspd": 1, "wgst": null, "reportTime": "2026-07-19T14:00:00.000Z", "rawOb": "METAR RJSS 191400Z AUTO VRB01KT 9999 NCD 25/23 Q1007"}, "RJOT": {"temp": 27, "dewp": 26, "wdir": 140, "wspd": 5, "wgst": null, "reportTime": "2026-07-19T14:00:00.000Z", "rawOb": "METAR RJOT 191400Z AUTO 14005KT 9999 NCD 27/26 Q1008"}, "RJOO": {"temp": 29, "dewp": 25, "wdir": 260, "wspd": 5, "wgst": null, "reportTime": "2026-07-19T14:00:00.000Z", "rawOb": "METAR RJOO 191400Z AUTO 26005KT 210V310 9999 NCD 29/25 Q1007"}, "RJGG": {"temp": 27, "dewp": 25, "wdir": 120, "wspd": 6, "wgst": null, "reportTime": "2026-07-19T13:30:00.000Z", "rawOb": "METAR RJGG 191330Z 12006KT 9999 FEW020 27/25 Q1008 NOSIG"}, "ROAH": {"temp": 28, "dewp": 27, "wdir": 200, "wspd": 3, "wgst": null, "reportTime": "2026-07-19T13:30:00.000Z", "rawOb": "METAR ROAH 191330Z 20003KT 9999 FEW007 SCT010 28/27 Q1008"}, "RJOA": {"temp": 27, "dewp": 23, "wdir": 290, "wspd": 5, "wgst": null, "reportTime": "2026-07-19T14:00:00.000Z", "rawOb": "METAR RJOA 191400Z AUTO 29005KT 9999 FEW030 SCT041 27/23 Q1009"}, "_updated": "2026-07-19T16:27:23Z"}