{"RJAA": {"temp": 24, "dewp": 23, "wdir": 210, "wspd": 3, "wgst": null, "reportTime": "2026-07-12T20:00:00.000Z", "rawOb": "METAR RJAA 122000Z AUTO 21003KT 170V240 9999 -RA NSC 24/23 Q1006 NOSIG"}, "RJOA": {"temp": 25, "dewp": 24, "wdir": 290, "wspd": 3, "wgst": null, "reportTime": "2026-07-12T20:00:00.000Z", "rawOb": "METAR RJOA 122000Z AUTO 29003KT 9999 NCD 25/24 Q1014"}, "ROAH": {"temp": 27, "dewp": 26, "wdir": 160, "wspd": 18, "wgst": null, "reportTime": "2026-07-12T20:00:00.000Z", "rawOb": "METAR ROAH 122000Z AUTO 16018KT 9999 BKN008 BKN010 OVC021 27/26 Q1010"}, "RJTT": {"temp": 25, "dewp": 24, "wdir": 190, "wspd": 8, "wgst": null, "reportTime": "2026-07-12T20:00:00.000Z", "rawOb": "METAR RJTT 122000Z 19008KT 9999 -SHRA FEW010 BKN150 25/24 Q1006 NOSIG"}, "RJFF": {"temp": 28, "dewp": 24, "wdir": 140, "wspd": 5, "wgst": null, "reportTime": "2026-07-12T20:00:00.000Z", "rawOb": "METAR RJFF 122000Z AUTO 14005KT 9999 NCD 28/24 Q1012 NOSIG"}, "RJGG": {"temp": 28, "dewp": 23, "wdir": 280, "wspd": 12, "wgst": null, "reportTime": "2026-07-12T20:00:00.000Z", "rawOb": "METAR RJGG 122000Z AUTO 28012KT 9999 NSC 28/23 Q1009 NOSIG"}, "RJBB": {"temp": 26, "dewp": 25, "wdir": 190, "wspd": 2, "wgst": null, "reportTime": "2026-07-12T20:00:00.000Z", "rawOb": "METAR RJBB 122000Z AUTO 19002KT 9999 SCT038 BKN240 26/25 Q1011 NOSIG"}, "RJSS": {"temp": 23, "dewp": 22, "wdir": "VRB", "wspd": 2, "wgst": null, "reportTime": "2026-07-12T20:00:00.000Z", "rawOb": "METAR RJSS 122000Z AUTO VRB02KT 9999 FEW044 SCT060 BKN070 23/22 Q1005"}, "RJOO": {"temp": 28, "dewp": 24, "wdir": "VRB", "wspd": 1, "wgst": null, "reportTime": "2026-07-12T20:00:00.000Z", "rawOb": "METAR RJOO 122000Z AUTO VRB01KT 9999 SCT034 BKN037 OVC045 28/24 Q1011"}, "RJSK": {"temp": 22, "dewp": 22, "wdir": 320, "wspd": 5, "wgst": null, "reportTime": "2026-07-12T22:00:00.000Z", "rawOb": "METAR RJSK 122200Z 32005KT 4000 BR FEW000 BKN003 BKN006 22/22 Q1007"}, "RJBE": {"temp": 27, "dewp": 25, "wdir": 240, "wspd": 6, "wgst": null, "reportTime": "2026-07-12T22:00:00.000Z", "rawOb": "METAR RJBE 122200Z 24006KT 9999 FEW030 BKN/// 27/25 Q1011"}, "RJCK": {"temp": 18, "dewp": 18, "wdir": 40, "wspd": 5, "wgst": null, "reportTime": "2026-07-12T20:00:00.000Z", "rawOb": "METAR RJCK 122000Z AUTO 04005KT 0100 R17/0275N FG OVC000 18/18 Q1006"}, "RJCO": {"temp": 23, "dewp": 21, "wdir": 310, "wspd": 5, "wgst": null, "reportTime": "2026-07-12T22:00:00.000Z", "rawOb": "METAR RJCO 122200Z 31005KT 290V360 9999 FEW003 SCT007 BKN015 23/21 Q1005"}, "RJOT": {"temp": 25, "dewp": 24, "wdir": 230, "wspd": 11, "wgst": null, "reportTime": "2026-07-12T20:00:00.000Z", "rawOb": "METAR RJOT 122000Z AUTO 23011KT 9999 NCD 25/24 Q1012"}, "RJEC": {"temp": 21, "dewp": 21, "wdir": "VRB", "wspd": 1, "wgst": null, "reportTime": "2026-07-12T20:00:00.000Z", "rawOb": "METAR RJEC 122000Z AUTO VRB01KT 2900 BR BKN002 OVC005 21/21 Q1005"}, "RJOB": {"temp": 27, "dewp": 25, "wdir": "VRB", "wspd": 2, "wgst": null, "reportTime": "2026-07-12T22:00:00.000Z", "rawOb": "METAR RJOB 122200Z VRB02KT 9999 FEW025 BKN/// 27/25 Q1013"}, "RJOM": {"temp": 25, "dewp": 25, "wdir": "VRB", "wspd": 2, "wgst": null, "reportTime": "2026-07-12T20:00:00.000Z", "rawOb": "METAR RJOM 122000Z AUTO VRB02KT 9999 NCD 25/25 Q1012"}, "_updated": "2026-07-12T22:55:52Z"}