{"RJGG": {"temp": 30, "dewp": 25, "wdir": "VRB", "wspd": 2, "wgst": null, "reportTime": "2026-07-15T13:00:00.000Z", "rawOb": "METAR RJGG 151300Z VRB02KT 9999 FEW020 BKN070 30/25 Q1002 NOSIG"}, "RJFF": {"temp": 30, "dewp": 25, "wdir": 180, "wspd": 11, "wgst": null, "reportTime": "2026-07-15T13:00:00.000Z", "rawOb": "METAR RJFF 151300Z 18011KT 9999 FEW030 SCT035 BKN080 30/25 Q1003 NOSIG"}, "RJTT": {"temp": 28, "dewp": 24, "wdir": 180, "wspd": 17, "wgst": null, "reportTime": "2026-07-15T13:00:00.000Z", "rawOb": "METAR RJTT 151300Z 18017KT CAVOK 28/24 Q1001 NOSIG"}, "ROAH": {"temp": 27, "dewp": 27, "wdir": 220, "wspd": 7, "wgst": null, "reportTime": "2026-07-15T13:00:00.000Z", "rawOb": "METAR ROAH 151300Z 22007KT 9999 FEW005 BKN007 27/27 Q1010"}, "RJAA": {"temp": 26, "dewp": 25, "wdir": 160, "wspd": 10, "wgst": null, "reportTime": "2026-07-15T13:00:00.000Z", "rawOb": "METAR RJAA 151300Z 16010KT 5000 BR FEW003 SCT006 26/25 Q1002 TEMPO 4000 BR FEW003 BKN005"}, "RJBB": {"temp": 28, "dewp": 25, "wdir": 230, "wspd": 6, "wgst": null, "reportTime": "2026-07-15T13:00:00.000Z", "rawOb": "METAR RJBB 151300Z 23006KT 9999 FEW030 SCT080 BKN/// 28/25 Q1002 NOSIG"}, "RJCK": {"temp": 18, "dewp": 18, "wdir": 70, "wspd": 1, "wgst": null, "reportTime": "2026-07-15T13:00:00.000Z", "rawOb": "METAR RJCK 151300Z AUTO 07001KT 0100 R35/0600N FG OVC000 18/18 Q1001"}, "RJOA": {"temp": 27, "dewp": 23, "wdir": 270, "wspd": 4, "wgst": null, "reportTime": "2026-07-15T13:00:00.000Z", "rawOb": "METAR RJOA 151300Z 27004KT 9999 FEW035 BKN/// 27/23 Q1004"}, "RJOM": {"temp": 29, "dewp": 25, "wdir": 210, "wspd": 3, "wgst": null, "reportTime": "2026-07-15T13:00:00.000Z", "rawOb": "METAR RJOM 151300Z AUTO 21003KT 160V250 9999 BKN050 29/25 Q1003"}, "RJOO": {"temp": 30, "dewp": 22, "wdir": 240, "wspd": 6, "wgst": null, "reportTime": "2026-07-15T13:00:00.000Z", "rawOb": "METAR RJOO 151300Z AUTO 24006KT 180V280 9999 NSC 30/22 Q1002"}, "RJOT": {"temp": 28, "dewp": 24, "wdir": 140, "wspd": 4, "wgst": null, "reportTime": "2026-07-15T13:00:00.000Z", "rawOb": "METAR RJOT 151300Z AUTO 14004KT 9999 SCT060 BKN070 28/24 Q1004"}, "RJSS": {"temp": 26, "dewp": 24, "wdir": "VRB", "wspd": 2, "wgst": null, "reportTime": "2026-07-15T13:00:00.000Z", "rawOb": "METAR RJSS 151300Z AUTO VRB02KT 9999 FEW090 SCT130 BKN140 //////TCU 26/24 Q1000"}, "RJEC": {"temp": 25, "dewp": 22, "wdir": 170, "wspd": 11, "wgst": null, "reportTime": "2026-07-15T13:00:00.000Z", "rawOb": "METAR RJEC 151300Z AUTO 17011KT 9999 FEW047 25/22 Q0997"}, "RJBE": {"temp": 27, "dewp": 25, "wdir": 260, "wspd": 8, "wgst": null, "reportTime": "2026-07-15T13:00:00.000Z", "rawOb": "METAR RJBE 151300Z 26008KT 9999 FEW030 SCT100 BKN/// 27/25 Q1002"}, "_updated": "2026-07-15T15:51:58Z"}