{"RJGG": {"temp": 28, "dewp": 25, "wdir": 290, "wspd": 9, "wgst": null, "reportTime": "2026-07-12T15:00:00.000Z", "rawOb": "METAR RJGG 121500Z AUTO 29009KT 9999 NSC 28/25 Q1010 NOSIG"}, "ROAH": {"temp": 27, "dewp": 26, "wdir": 150, "wspd": 19, "wgst": null, "reportTime": "2026-07-12T15:00:00.000Z", "rawOb": "METAR ROAH 121500Z AUTO 15019KT 9999 BKN008 BKN010 27/26 Q1012"}, "RJFF": {"temp": 29, "dewp": 24, "wdir": 100, "wspd": 4, "wgst": null, "reportTime": "2026-07-12T15:00:00.000Z", "rawOb": "METAR RJFF 121500Z AUTO 10004KT 9999 NCD 29/24 Q1013 NOSIG"}, "RJBB": {"temp": 26, "dewp": 24, "wdir": 230, "wspd": 6, "wgst": null, "reportTime": "2026-07-12T15:00:00.000Z", "rawOb": "METAR RJBB 121500Z AUTO 23006KT 9999 NSC 26/24 Q1012 NOSIG"}, "RJAA": {"temp": 25, "dewp": 23, "wdir": 240, "wspd": 3, "wgst": null, "reportTime": "2026-07-12T15:00:00.000Z", "rawOb": "METAR RJAA 121500Z AUTO 24003KT 180V310 9999 -RA NSC 25/23 Q1007 NOSIG"}, "RJTT": {"temp": 26, "dewp": 24, "wdir": 190, "wspd": 9, "wgst": null, "reportTime": "2026-07-12T15:00:00.000Z", "rawOb": "METAR RJTT 121500Z 19009KT 9999 FEW010 BKN150 26/24 Q1008 NOSIG"}, "RJSS": {"temp": 24, "dewp": 21, "wdir": 230, "wspd": 2, "wgst": null, "reportTime": "2026-07-12T15:00:00.000Z", "rawOb": "METAR RJSS 121500Z AUTO 23002KT 9999 NSC 24/21 Q1005"}, "RJCK": {"temp": 18, "dewp": 18, "wdir": 0, "wspd": 0, "wgst": null, "reportTime": "2026-07-12T15:00:00.000Z", "rawOb": "METAR RJCK 121500Z AUTO 00000KT 0200 R17/0650V0900D FG OVC001 18/18 Q1006"}, "RJEC": {"temp": 21, "dewp": 21, "wdir": 160, "wspd": 4, "wgst": null, "reportTime": "2026-07-12T15:00:00.000Z", "rawOb": "METAR RJEC 121500Z AUTO 16004KT 4900 BR FEW014 BKN015 OVC023 21/21 Q1005"}, "RJOA": {"temp": 26, "dewp": 24, "wdir": 330, "wspd": 4, "wgst": null, "reportTime": "2026-07-12T15:00:00.000Z", "rawOb": "METAR RJOA 121500Z AUTO 33004KT 9999 NCD 26/24 Q1014"}, "RJOM": {"temp": 26, "dewp": 25, "wdir": "VRB", "wspd": 1, "wgst": null, "reportTime": "2026-07-12T15:00:00.000Z", "rawOb": "METAR RJOM 121500Z AUTO VRB01KT 9999 NCD 26/25 Q1013"}, "RJOO": {"temp": 28, "dewp": 24, "wdir": 240, "wspd": 3, "wgst": null, "reportTime": "2026-07-12T15:00:00.000Z", "rawOb": "METAR RJOO 121500Z AUTO 24003KT 210V280 9999 BKN042 BKN240 OVC250 28/24 Q1012"}, "RJOT": {"temp": 26, "dewp": 23, "wdir": 230, "wspd": 8, "wgst": null, "reportTime": "2026-07-12T15:00:00.000Z", "rawOb": "METAR RJOT 121500Z AUTO 23008KT 9999 NCD 26/23 Q1013"}, "_updated": "2026-07-12T17:43:19Z"}