{"ROAH": {"temp": 27, "dewp": 25, "wdir": 170, "wspd": 12, "wgst": null, "reportTime": "2026-07-13T15:30:00.000Z", "rawOb": "METAR ROAH 131530Z AUTO 17012KT 9999 FEW008 27/25 Q1012"}, "RJTT": {"temp": 27, "dewp": 24, "wdir": 230, "wspd": 6, "wgst": null, "reportTime": "2026-07-13T15:30:00.000Z", "rawOb": "METAR RJTT 131530Z 23006KT 9999 FEW010 SCT120 BKN/// 27/24 Q1007 NOSIG"}, "RJGG": {"temp": 26, "dewp": 23, "wdir": 310, "wspd": 17, "wgst": null, "reportTime": "2026-07-13T15:30:00.000Z", "rawOb": "METAR RJGG 131530Z AUTO 31017KT 9999 NCD 26/23 Q1009 NOSIG"}, "RJFF": {"temp": 29, "dewp": 23, "wdir": 170, "wspd": 8, "wgst": null, "reportTime": "2026-07-13T15:30:00.000Z", "rawOb": "METAR RJFF 131530Z AUTO 17008KT 9999 NCD 29/23 Q1011 NOSIG"}, "RJBB": {"temp": 26, "dewp": 25, "wdir": "VRB", "wspd": 1, "wgst": null, "reportTime": "2026-07-13T15:30:00.000Z", "rawOb": "METAR RJBB 131530Z AUTO VRB01KT 9999 NCD 26/25 Q1010 NOSIG"}, "RJAA": {"temp": 25, "dewp": 24, "wdir": 240, "wspd": 2, "wgst": null, "reportTime": "2026-07-13T15:30:00.000Z", "rawOb": "METAR RJAA 131530Z AUTO 24002KT 9999 NCD 25/24 Q1007 NOSIG"}, "RJEC": {"temp": 21, "dewp": 21, "wdir": 300, "wspd": 4, "wgst": null, "reportTime": "2026-07-13T16:00:00.000Z", "rawOb": "METAR RJEC 131600Z AUTO 30004KT 9999 OVC022 21/21 Q1005"}, "RJOA": {"temp": 26, "dewp": 24, "wdir": "VRB", "wspd": 1, "wgst": null, "reportTime": "2026-07-13T16:00:00.000Z", "rawOb": "METAR RJOA 131600Z AUTO VRB01KT 9999 NCD 26/24 Q1012"}, "RJOM": {"temp": 29, "dewp": 24, "wdir": 130, "wspd": 4, "wgst": null, "reportTime": "2026-07-13T16:00:00.000Z", "rawOb": "METAR RJOM 131600Z AUTO 13004KT 9999 NCD 29/24 Q1010"}, "RJOT": {"temp": 26, "dewp": 23, "wdir": 210, "wspd": 5, "wgst": null, "reportTime": "2026-07-13T16:00:00.000Z", "rawOb": "METAR RJOT 131600Z AUTO 21005KT 9999 FEW050 26/23 Q1011"}, "RJSS": {"temp": 23, "dewp": 22, "wdir": 200, "wspd": 3, "wgst": null, "reportTime": "2026-07-13T16:00:00.000Z", "rawOb": "METAR RJSS 131600Z AUTO 20003KT 9999 FEW070 SCT080 BKN110 23/22 Q1007"}, "RJCK": {"temp": 18, "dewp": 18, "wdir": 190, "wspd": 3, "wgst": null, "reportTime": "2026-07-13T16:00:00.000Z", "rawOb": "METAR RJCK 131600Z AUTO 19003KT 9999 R17/P2000N NSC 18/18 Q1004"}, "RJOO": {"temp": null, "dewp": null, "wdir": 310, "wspd": 4, "wgst": null, "reportTime": "2026-07-13T16:00:00.000Z", "rawOb": "METAR RJOO 131600Z AUTO 31004KT 280V350 //// // ////// ///// Q////"}, "_updated": "2026-07-13T18:02:03Z"}