{"RJAA": {"temp": 26, "dewp": 25, "wdir": 130, "wspd": 10, "wgst": null, "reportTime": "2026-07-17T08:30:00.000Z", "rawOb": "METAR RJAA 170830Z 13010KT 8000 -SHRA FEW004 SCT006 BKN008 26/25 Q1005 NOSIG"}, "RJOO": {"temp": 34, "dewp": 22, "wdir": 210, "wspd": 7, "wgst": null, "reportTime": "2026-07-17T09:00:00.000Z", "rawOb": "METAR RJOO 170900Z 21007KT 120V290 9999 FEW035 SCT090 BKN/// 34/22 Q1001"}, "RJOM": {"temp": 28, "dewp": 25, "wdir": 230, "wspd": 3, "wgst": null, "reportTime": "2026-07-17T09:00:00.000Z", "rawOb": "METAR RJOM 170900Z 23003KT 140V290 9999 FEW030 BKN/// 28/25 Q1002"}, "RJOB": {"temp": 31, "dewp": 20, "wdir": 220, "wspd": 6, "wgst": null, "reportTime": "2026-07-17T09:00:00.000Z", "rawOb": "METAR RJOB 170900Z 22006KT 9999 FEW020 FEW025CB SCT080 BKN090 31/20 Q1003"}, "RJOA": {"temp": 29, "dewp": 23, "wdir": "VRB", "wspd": 1, "wgst": null, "reportTime": "2026-07-17T09:00:00.000Z", "rawOb": "METAR RJOA 170900Z VRB01KT 9999 FEW030 SCT090 BKN/// 29/23 Q1004"}, "RJGG": {"temp": 30, "dewp": 26, "wdir": 150, "wspd": 13, "wgst": null, "reportTime": "2026-07-17T08:30:00.000Z", "rawOb": "METAR RJGG 170830Z 15013KT 9999 FEW020 BKN/// 30/26 Q1002 NOSIG"}, "ROAH": {"temp": 30, "dewp": 28, "wdir": 230, "wspd": 9, "wgst": null, "reportTime": "2026-07-17T08:30:00.000Z", "rawOb": "METAR ROAH 170830Z 23009KT 9999 FEW007 BKN/// 30/28 Q1005"}, "RJTT": {"temp": 28, "dewp": 26, "wdir": 160, "wspd": 9, "wgst": null, "reportTime": "2026-07-17T08:30:00.000Z", "rawOb": "METAR RJTT 170830Z 16009KT 8000 FEW012 SCT014 BKN020 28/26 Q1004 NOSIG"}, "RJSS": {"temp": 24, "dewp": 23, "wdir": 130, "wspd": 8, "wgst": null, "reportTime": "2026-07-17T09:00:00.000Z", "rawOb": "METAR RJSS 170900Z 13008KT 9999 FEW005 BKN010 BKN013 24/23 Q1006"}, "RJSK": {"temp": 29, "dewp": 24, "wdir": 120, "wspd": 7, "wgst": null, "reportTime": "2026-07-17T09:00:00.000Z", "rawOb": "METAR RJSK 170900Z 12007KT 9999 FEW020 BKN/// 29/24 Q1004"}, "RJOT": {"temp": 31, "dewp": 22, "wdir": 250, "wspd": 4, "wgst": null, "reportTime": "2026-07-17T09:00:00.000Z", "rawOb": "METAR RJOT 170900Z 25004KT 9999 FEW025 BKN/// 31/22 Q1003"}, "RJFF": {"temp": 31, "dewp": 26, "wdir": 100, "wspd": 5, "wgst": null, "reportTime": "2026-07-17T08:30:00.000Z", "rawOb": "METAR RJFF 170830Z 10005KT 060V120 9999 FEW010 SCT035 BKN/// 31/26 Q1001 BECMG 31006KT"}, "RJEC": {"temp": 28, "dewp": 23, "wdir": 160, "wspd": 4, "wgst": null, "reportTime": "2026-07-17T09:00:00.000Z", "rawOb": "METAR RJEC 170900Z 16004KT 110V210 9999 FEW030 SCT120 BKN/// 28/23 Q1007"}, "RJCO": {"temp": 25, "dewp": 22, "wdir": 130, "wspd": 14, "wgst": null, "reportTime": "2026-07-17T09:00:00.000Z", "rawOb": "METAR RJCO 170900Z 13014KT 9999 FEW010 SCT025 BKN250 25/22 Q1006"}, "RJCK": {"temp": 18, "dewp": 18, "wdir": "VRB", "wspd": 2, "wgst": null, "reportTime": "2026-07-17T09:00:00.000Z", "rawOb": "METAR RJCK 170900Z VRB02KT 0800 R17/1900N FG VV001 18/18 Q1010"}, "RJCB": {"temp": 20, "dewp": 19, "wdir": 180, "wspd": 4, "wgst": null, "reportTime": "2026-07-17T09:00:00.000Z", "rawOb": "METAR RJCB 170900Z 18004KT 5000 BR FEW002 BKN003 20/19 Q1009"}, "RJBE": {"temp": 30, "dewp": 25, "wdir": 230, "wspd": 9, "wgst": null, "reportTime": "2026-07-17T09:00:00.000Z", "rawOb": "METAR RJBE 170900Z 23009KT 9999 FEW035 BKN/// 30/25 Q1001"}, "RJBB": {"temp": 31, "dewp": 25, "wdir": 240, "wspd": 8, "wgst": null, "reportTime": "2026-07-17T08:30:00.000Z", "rawOb": "METAR RJBB 170830Z 24008KT 9999 FEW030 SCT100 BKN/// 31/25 Q1002 NOSIG"}, "_updated": "2026-07-17T11:05:50Z"}