{"RJFF": {"temp": 25, "dewp": 21, "wdir": 310, "wspd": 4, "wgst": null, "reportTime": "2026-06-30T11:00:00.000Z", "rawOb": "METAR RJFF 301100Z 31004KT 260V340 9999 FEW025 SCT040 BKN050 25/21 Q1011 NOSIG"}, "RJGG": {"temp": 24, "dewp": 21, "wdir": 120, "wspd": 8, "wgst": null, "reportTime": "2026-06-30T11:00:00.000Z", "rawOb": "METAR RJGG 301100Z 12008KT 9999 FEW020 BKN/// 24/21 Q1011 NOSIG"}, "RJEC": {"temp": 18, "dewp": 14, "wdir": "VRB", "wspd": 2, "wgst": null, "reportTime": "2026-06-30T11:00:00.000Z", "rawOb": "METAR RJEC 301100Z VRB02KT 9999 FEW015 SCT040 BKN090 18/14 Q1012"}, "RJCK": {"temp": 12, "dewp": 12, "wdir": 330, "wspd": 3, "wgst": null, "reportTime": "2026-06-30T11:00:00.000Z", "rawOb": "METAR RJCK 301100Z 33003KT 0400 R17/0650V1000U FG VV001 12/12 Q1012"}, "RJSS": {"temp": 21, "dewp": 20, "wdir": 150, "wspd": 4, "wgst": null, "reportTime": "2026-06-30T11:00:00.000Z", "rawOb": "METAR RJSS 301100Z 15004KT 9999 FEW001 BKN003 BKN005 21/20 Q1012"}, "RJOT": {"temp": 24, "dewp": 22, "wdir": 270, "wspd": 3, "wgst": null, "reportTime": "2026-06-30T11:00:00.000Z", "rawOb": "METAR RJOT 301100Z 27003KT 9999 FEW030 BKN/// 24/22 Q1012"}, "RJOM": {"temp": 24, "dewp": 21, "wdir": 340, "wspd": 2, "wgst": null, "reportTime": "2026-06-30T11:00:00.000Z", "rawOb": "METAR RJOM 301100Z 34002KT 9999 FEW040 SCT060 BKN/// 24/21 Q1011"}, "RJOA": {"temp": 23, "dewp": 19, "wdir": 200, "wspd": 2, "wgst": null, "reportTime": "2026-06-30T11:00:00.000Z", "rawOb": "METAR RJOA 301100Z 20002KT 9999 FEW008 SCT150 BKN/// 23/19 Q1013"}, "ROAH": {"temp": 28, "dewp": 26, "wdir": 170, "wspd": 7, "wgst": null, "reportTime": "2026-06-30T11:00:00.000Z", "rawOb": "METAR ROAH 301100Z 17007KT 9999 FEW010 BKN/// 28/26 Q1013"}, "RJAA": {"temp": 22, "dewp": 21, "wdir": "VRB", "wspd": 1, "wgst": null, "reportTime": "2026-06-30T11:00:00.000Z", "rawOb": "METAR RJAA 301100Z VRB01KT 9999 FEW015 22/21 Q1012 NOSIG"}, "RJBB": {"temp": 24, "dewp": 22, "wdir": 230, "wspd": 9, "wgst": null, "reportTime": "2026-06-30T11:00:00.000Z", "rawOb": "METAR RJBB 301100Z 23009KT 9999 FEW030 SCT180 BKN/// 24/22 Q1011 NOSIG"}, "RJBE": {"temp": 24, "dewp": 22, "wdir": 260, "wspd": 7, "wgst": null, "reportTime": "2026-06-30T11:00:00.000Z", "rawOb": "METAR RJBE 301100Z 26007KT 9999 FEW025 BKN/// 24/22 Q1011"}, "RJTT": {"temp": 26, "dewp": 21, "wdir": 200, "wspd": 8, "wgst": null, "reportTime": "2026-06-30T11:00:00.000Z", "rawOb": "METAR RJTT 301100Z 20008KT 9999 FEW020 BKN025 26/21 Q1011 NOSIG"}, "RJOO": {"temp": 26, "dewp": 20, "wdir": 240, "wspd": 4, "wgst": null, "reportTime": "2026-06-30T11:00:00.000Z", "rawOb": "METAR RJOO 301100Z 24004KT 180V290 9999 FEW025 BKN/// 26/20 Q1011"}, "RJSK": {"temp": 21, "dewp": 16, "wdir": 300, "wspd": 7, "wgst": null, "reportTime": "2026-06-30T11:00:00.000Z", "rawOb": "METAR RJSK 301100Z 30007KT CAVOK 21/16 Q1013"}, "RJOB": {"temp": 24, "dewp": 19, "wdir": "VRB", "wspd": 1, "wgst": null, "reportTime": "2026-06-30T11:00:00.000Z", "rawOb": "METAR RJOB 301100Z VRB01KT 9999 FEW030 BKN/// 24/19 Q1012"}, "RJCO": {"temp": 18, "dewp": 15, "wdir": 30, "wspd": 2, "wgst": null, "reportTime": "2026-06-30T11:00:00.000Z", "rawOb": "METAR RJCO 301100Z 03002KT 9999 FEW230 18/15 Q1012"}, "RJCB": {"temp": 16, "dewp": 15, "wdir": "VRB", "wspd": 2, "wgst": null, "reportTime": "2026-06-30T11:00:00.000Z", "rawOb": "METAR RJCB 301100Z VRB02KT 9999 FEW040 SCT/// 16/15 Q1011"}, "_updated": "2026-06-30T13:30:06Z"}