{"RJFF": {"temp": 29, "dewp": 24, "wdir": 170, "wspd": 10, "wgst": null, "reportTime": "2026-07-14T13:00:00.000Z", "rawOb": "METAR RJFF 141300Z 17010KT 9999 FEW030 SCT040 29/24 Q1008 NOSIG"}, "RJBB": {"temp": 28, "dewp": 24, "wdir": 210, "wspd": 8, "wgst": null, "reportTime": "2026-07-14T13:00:00.000Z", "rawOb": "METAR RJBB 141300Z 21008KT CAVOK 28/24 Q1006 NOSIG"}, "RJCK": {"temp": 18, "dewp": 17, "wdir": "VRB", "wspd": 2, "wgst": null, "reportTime": "2026-07-14T13:00:00.000Z", "rawOb": "METAR RJCK 141300Z AUTO VRB02KT 9999 SCT035 OVC060 18/17 Q1004"}, "RJEC": {"temp": 22, "dewp": 21, "wdir": 170, "wspd": 3, "wgst": null, "reportTime": "2026-07-14T13:00:00.000Z", "rawOb": "METAR RJEC 141300Z AUTO 17003KT 9999 NSC 22/21 Q1004"}, "ROAH": {"temp": 27, "dewp": 25, "wdir": 180, "wspd": 10, "wgst": null, "reportTime": "2026-07-14T13:00:00.000Z", "rawOb": "METAR ROAH 141300Z 18010KT 9999 FEW010 27/25 Q1012"}, "RJGG": {"temp": 27, "dewp": 23, "wdir": 320, "wspd": 9, "wgst": null, "reportTime": "2026-07-14T13:00:00.000Z", "rawOb": "METAR RJGG 141300Z 32009KT 9999 FEW020 BKN/// 27/23 Q1006 NOSIG"}, "RJTT": {"temp": 28, "dewp": 25, "wdir": 200, "wspd": 12, "wgst": null, "reportTime": "2026-07-14T13:00:00.000Z", "rawOb": "METAR RJTT 141300Z 20012KT 9999 FEW010 BKN080 28/25 Q1006 NOSIG"}, "RJOT": {"temp": 27, "dewp": 22, "wdir": 190, "wspd": 5, "wgst": null, "reportTime": "2026-07-14T13:00:00.000Z", "rawOb": "METAR RJOT 141300Z AUTO 19005KT 9999 BKN042 27/22 Q1008"}, "RJSS": {"temp": 25, "dewp": 23, "wdir": "VRB", "wspd": 1, "wgst": null, "reportTime": "2026-07-14T13:00:00.000Z", "rawOb": "METAR RJSS 141300Z AUTO VRB01KT 9999 NCD 25/23 Q1006"}, "RJOA": {"temp": 27, "dewp": 23, "wdir": "VRB", "wspd": 2, "wgst": null, "reportTime": "2026-07-14T13:00:00.000Z", "rawOb": "METAR RJOA 141300Z VRB02KT CAVOK 27/23 Q1009"}, "RJOM": {"temp": 27, "dewp": 24, "wdir": 250, "wspd": 7, "wgst": null, "reportTime": "2026-07-14T13:00:00.000Z", "rawOb": "METAR RJOM 141300Z AUTO 25007KT 9999 NCD 27/24 Q1007"}, "RJOO": {"temp": 31, "dewp": 23, "wdir": 240, "wspd": 3, "wgst": null, "reportTime": "2026-07-14T13:00:00.000Z", "rawOb": "METAR RJOO 141300Z AUTO 24003KT 180V280 9999 NCD 31/23 Q1006"}, "RJAA": {"temp": 26, "dewp": 23, "wdir": 160, "wspd": 4, "wgst": null, "reportTime": "2026-07-14T13:00:00.000Z", "rawOb": "METAR RJAA 141300Z 16004KT CAVOK 26/23 Q1006 NOSIG"}, "RJBE": {"temp": 27, "dewp": 25, "wdir": 260, "wspd": 7, "wgst": null, "reportTime": "2026-07-14T13:00:00.000Z", "rawOb": "METAR RJBE 141300Z 26007KT CAVOK 27/25 Q1006"}, "_updated": "2026-07-14T15:37:24Z"}