{"RJTT": {"temp": 25, "dewp": 24, "wdir": 170, "wspd": 8, "wgst": null, "reportTime": "2026-07-13T17:00:00.000Z", "rawOb": "METAR RJTT 131700Z 17008KT CAVOK 25/24 Q1007 NOSIG"}, "RJAA": {"temp": 25, "dewp": 23, "wdir": 250, "wspd": 2, "wgst": null, "reportTime": "2026-07-13T17:00:00.000Z", "rawOb": "METAR RJAA 131700Z AUTO 25002KT 9999 NCD 25/23 Q1007 NOSIG"}, "RJFF": {"temp": 28, "dewp": 24, "wdir": 170, "wspd": 9, "wgst": null, "reportTime": "2026-07-13T17:00:00.000Z", "rawOb": "METAR RJFF 131700Z AUTO 17009KT 9999 NCD 28/24 Q1011 NOSIG"}, "RJGG": {"temp": 26, "dewp": 22, "wdir": 320, "wspd": 17, "wgst": null, "reportTime": "2026-07-13T17:00:00.000Z", "rawOb": "METAR RJGG 131700Z AUTO 32017KT 9999 NCD 26/22 Q1008 NOSIG"}, "ROAH": {"temp": 27, "dewp": 25, "wdir": 170, "wspd": 10, "wgst": null, "reportTime": "2026-07-13T17:00:00.000Z", "rawOb": "METAR ROAH 131700Z AUTO 17010KT 9999 NCD 27/25 Q1011"}, "RJBB": {"temp": 27, "dewp": 25, "wdir": 300, "wspd": 1, "wgst": null, "reportTime": "2026-07-13T17:00:00.000Z", "rawOb": "METAR RJBB 131700Z AUTO 30001KT 9999 NCD 27/25 Q1009 NOSIG"}, "RJOA": {"temp": 26, "dewp": 23, "wdir": 350, "wspd": 2, "wgst": null, "reportTime": "2026-07-13T17:00:00.000Z", "rawOb": "METAR RJOA 131700Z AUTO 35002KT 9999 NCD 26/23 Q1012"}, "RJOM": {"temp": 27, "dewp": 24, "wdir": 150, "wspd": 4, "wgst": null, "reportTime": "2026-07-13T17:00:00.000Z", "rawOb": "METAR RJOM 131700Z AUTO 15004KT 9999 NCD 27/24 Q1010"}, "RJOT": {"temp": 26, "dewp": 23, "wdir": 220, "wspd": 7, "wgst": null, "reportTime": "2026-07-13T17:00:00.000Z", "rawOb": "METAR RJOT 131700Z AUTO 22007KT 9999 FEW049 26/23 Q1011"}, "RJSS": {"temp": 23, "dewp": 22, "wdir": "VRB", "wspd": 2, "wgst": null, "reportTime": "2026-07-13T17:00:00.000Z", "rawOb": "METAR RJSS 131700Z AUTO VRB02KT 9999 SCT060 BKN090 OVC100 23/22 Q1006"}, "RJCK": {"temp": 18, "dewp": 18, "wdir": "VRB", "wspd": 1, "wgst": null, "reportTime": "2026-07-13T17:00:00.000Z", "rawOb": "METAR RJCK 131700Z AUTO VRB01KT 5000 R17/0900VP2000U BR BKN001 OVC200 18/18 Q1004"}, "RJOO": {"temp": null, "dewp": null, "wdir": 330, "wspd": 3, "wgst": null, "reportTime": "2026-07-13T17:00:00.000Z", "rawOb": "METAR RJOO 131700Z AUTO 33003KT //// // ////// ///// Q////"}, "RJEC": {"temp": 20, "dewp": 19, "wdir": 350, "wspd": 4, "wgst": null, "reportTime": "2026-07-13T17:00:00.000Z", "rawOb": "METAR RJEC 131700Z AUTO 35004KT 9999 FEW024 20/19 Q1006"}, "_updated": "2026-07-13T19:50:08Z"}