{"ROAH": {"temp": 27, "dewp": 26, "wdir": 150, "wspd": 20, "wgst": null, "reportTime": "2026-07-12T17:00:00.000Z", "rawOb": "METAR ROAH 121700Z AUTO 15020KT 9999 BKN008 BKN010 27/26 Q1011"}, "RJTT": {"temp": 26, "dewp": 24, "wdir": 180, "wspd": 8, "wgst": null, "reportTime": "2026-07-12T17:00:00.000Z", "rawOb": "METAR RJTT 121700Z 18008KT 9999 -SHRA FEW010 SCT120 BKN140 26/24 Q1007 NOSIG"}, "RJGG": {"temp": 28, "dewp": 24, "wdir": 280, "wspd": 11, "wgst": null, "reportTime": "2026-07-12T17:00:00.000Z", "rawOb": "METAR RJGG 121700Z AUTO 28011KT 9999 NSC 28/24 Q1009 NOSIG"}, "RJFF": {"temp": 29, "dewp": 24, "wdir": 130, "wspd": 5, "wgst": null, "reportTime": "2026-07-12T17:00:00.000Z", "rawOb": "METAR RJFF 121700Z AUTO 13005KT 9999 NCD 29/24 Q1012 NOSIG"}, "RJBB": {"temp": 26, "dewp": 24, "wdir": 220, "wspd": 5, "wgst": null, "reportTime": "2026-07-12T17:00:00.000Z", "rawOb": "METAR RJBB 121700Z AUTO 22005KT 9999 NSC 26/24 Q1011 NOSIG"}, "RJAA": {"temp": 25, "dewp": 23, "wdir": 210, "wspd": 5, "wgst": null, "reportTime": "2026-07-12T17:00:00.000Z", "rawOb": "METAR RJAA 121700Z AUTO 21005KT 9999 -RA NSC 25/23 Q1007 NOSIG"}, "RJCK": {"temp": 18, "dewp": 18, "wdir": 30, "wspd": 2, "wgst": null, "reportTime": "2026-07-12T17:00:00.000Z", "rawOb": "METAR RJCK 121700Z AUTO 03002KT 0100 R17/0375N FG OVC001 18/18 Q1005"}, "RJEC": {"temp": 21, "dewp": 21, "wdir": 170, "wspd": 2, "wgst": null, "reportTime": "2026-07-12T17:00:00.000Z", "rawOb": "METAR RJEC 121700Z AUTO 17002KT 2400 BR FEW003 OVC006 21/21 Q1005"}, "RJOA": {"temp": 25, "dewp": 24, "wdir": 290, "wspd": 4, "wgst": null, "reportTime": "2026-07-12T17:00:00.000Z", "rawOb": "METAR RJOA 121700Z AUTO 29004KT 9999 NCD 25/24 Q1014"}, "RJOM": {"temp": 26, "dewp": 25, "wdir": "VRB", "wspd": 1, "wgst": null, "reportTime": "2026-07-12T17:00:00.000Z", "rawOb": "METAR RJOM 121700Z AUTO VRB01KT 9999 NCD 26/25 Q1012"}, "RJOO": {"temp": 28, "dewp": 23, "wdir": "VRB", "wspd": 1, "wgst": null, "reportTime": "2026-07-12T17:00:00.000Z", "rawOb": "METAR RJOO 121700Z AUTO VRB01KT 9999 FEW033 SCT220 BKN230 28/23 Q1011"}, "RJOT": {"temp": 25, "dewp": 24, "wdir": 220, "wspd": 5, "wgst": null, "reportTime": "2026-07-12T17:00:00.000Z", "rawOb": "METAR RJOT 121700Z AUTO 22005KT 9999 NSC 25/24 Q1013"}, "RJSS": {"temp": 23, "dewp": 21, "wdir": 220, "wspd": 5, "wgst": null, "reportTime": "2026-07-12T17:00:00.000Z", "rawOb": "METAR RJSS 121700Z AUTO 22005KT 9999 -RA FEW070 BKN110 BKN150 23/21 Q1004"}, "_updated": "2026-07-12T19:53:29Z"}