{"RJTT": {"temp": 29, "dewp": 24, "wdir": 190, "wspd": 15, "wgst": null, "reportTime": "2026-07-19T09:00:00.000Z", "rawOb": "METAR RJTT 190900Z 19015KT 9999 FEW030 BKN/// 29/24 Q1007 NOSIG"}, "RJAA": {"temp": 29, "dewp": 25, "wdir": 150, "wspd": 7, "wgst": null, "reportTime": "2026-07-19T09:00:00.000Z", "rawOb": "METAR RJAA 190900Z 15007KT 9999 FEW025 BKN/// 29/25 Q1007 NOSIG"}, "ROAH": {"temp": 30, "dewp": 27, "wdir": 220, "wspd": 6, "wgst": null, "reportTime": "2026-07-19T09:00:00.000Z", "rawOb": "METAR ROAH 190900Z 22006KT 9999 VCSH FEW020 BKN030 30/27 Q1006"}, "RJGG": {"temp": 29, "dewp": 24, "wdir": 150, "wspd": 11, "wgst": null, "reportTime": "2026-07-19T09:00:00.000Z", "rawOb": "METAR RJGG 190900Z 15011KT 9999 FEW020 29/24 Q1007 NOSIG"}, "RJBB": {"temp": 30, "dewp": 26, "wdir": 230, "wspd": 13, "wgst": null, "reportTime": "2026-07-19T09:00:00.000Z", "rawOb": "METAR RJBB 190900Z 23013KT 9999 FEW020 SCT/// 30/26 Q1006 NOSIG"}, "RJFF": {"temp": 32, "dewp": 26, "wdir": 350, "wspd": 11, "wgst": null, "reportTime": "2026-07-19T09:00:00.000Z", "rawOb": "METAR RJFF 190900Z 35011KT 9999 FEW015 SCT060 32/26 Q1004 NOSIG"}, "RJCO": {"temp": 22, "dewp": 20, "wdir": 150, "wspd": 14, "wgst": null, "reportTime": "2026-07-19T09:00:00.000Z", "rawOb": "METAR RJCO 190900Z 15014KT 9999 FEW010 BKN050 BKN070 22/20 Q1002"}, "RJEC": {"temp": 22, "dewp": 19, "wdir": 170, "wspd": 13, "wgst": null, "reportTime": "2026-07-19T09:00:00.000Z", "rawOb": "METAR RJEC 190900Z 17013KT 9999 FEW012 SCT025 BKN040 22/19 Q1004"}, "RJSS": {"temp": 25, "dewp": 22, "wdir": 90, "wspd": 4, "wgst": null, "reportTime": "2026-07-19T09:00:00.000Z", "rawOb": "METAR RJSS 190900Z 09004KT 050V130 9999 FEW040 25/22 Q1006"}, "RJBE": {"temp": 28, "dewp": 26, "wdir": 230, "wspd": 13, "wgst": null, "reportTime": "2026-07-19T09:00:00.000Z", "rawOb": "METAR RJBE 190900Z 23013KT 9999 FEW025 28/26 Q1006"}, "RJCB": {"temp": 19, "dewp": 19, "wdir": 140, "wspd": 9, "wgst": null, "reportTime": "2026-07-19T09:00:00.000Z", "rawOb": "METAR RJCB 190900Z 14009KT 0500 R35/0650N FG -SHRA VV002 19/19 Q1006"}, "RJCK": {"temp": 19, "dewp": 19, "wdir": 130, "wspd": 14, "wgst": null, "reportTime": "2026-07-19T09:00:00.000Z", "rawOb": "METAR RJCK 190900Z 13014KT 0800 R17/P2000N FG SHRA BKN001 BKN002 19/19 Q1008"}, "RJOA": {"temp": 29, "dewp": 23, "wdir": "VRB", "wspd": 2, "wgst": null, "reportTime": "2026-07-19T09:00:00.000Z", "rawOb": "METAR RJOA 190900Z VRB02KT 9999 FEW025 SCT050 29/23 Q1007"}, "RJOB": {"temp": 30, "dewp": 24, "wdir": 130, "wspd": 5, "wgst": null, "reportTime": "2026-07-19T09:00:00.000Z", "rawOb": "METAR RJOB 190900Z 13005KT 9999 FEW030 30/24 Q1007"}, "RJOM": {"temp": 30, "dewp": 25, "wdir": 300, "wspd": 6, "wgst": null, "reportTime": "2026-07-19T09:00:00.000Z", "rawOb": "METAR RJOM 190900Z 30006KT 9999 FEW030 SCT050 BKN080 30/25 Q1005"}, "RJOO": {"temp": 32, "dewp": 24, "wdir": "VRB", "wspd": 6, "wgst": null, "reportTime": "2026-07-19T09:00:00.000Z", "rawOb": "METAR RJOO 190900Z VRB06KT 9999 FEW030 32/24 Q1006"}, "RJOT": {"temp": 30, "dewp": 26, "wdir": 80, "wspd": 3, "wgst": null, "reportTime": "2026-07-19T09:00:00.000Z", "rawOb": "METAR RJOT 190900Z 08003KT 040V110 9999 VCSH FEW025 SCT050 BKN070 30/26 Q1006"}, "RJSK": {"temp": 26, "dewp": 24, "wdir": 250, "wspd": 4, "wgst": null, "reportTime": "2026-07-19T09:00:00.000Z", "rawOb": "METAR RJSK 190900Z 25004KT 230V290 9999 FEW010 SCT015 BKN020 26/24 Q1006"}, "_updated": "2026-07-19T11:42:49Z"}