{"RJFF": {"temp": 26, "dewp": 24, "wdir": 140, "wspd": 9, "wgst": null, "reportTime": "2026-07-05T08:00:00.000Z", "rawOb": "METAR RJFF 050800Z 14009KT 9999 FEW004 BKN050 BKN150 26/24 Q1007 TEMPO 4000 -TSRA BR"}, "RJAA": {"temp": 24, "dewp": 20, "wdir": 140, "wspd": 9, "wgst": null, "reportTime": "2026-07-05T08:00:00.000Z", "rawOb": "METAR RJAA 050800Z 14009KT 9999 FEW020 BKN/// 24/20 Q1011 NOSIG"}, "RJGG": {"temp": 24, "dewp": 22, "wdir": 140, "wspd": 10, "wgst": null, "reportTime": "2026-07-05T08:00:00.000Z", "rawOb": "METAR RJGG 050800Z 14010KT 9999 FEW012 BKN040 24/22 Q1009 NOSIG"}, "ROAH": {"temp": 30, "dewp": 27, "wdir": 240, "wspd": 6, "wgst": null, "reportTime": "2026-07-05T08:00:00.000Z", "rawOb": "METAR ROAH 050800Z 24006KT 9999 FEW014 30/27 Q1011"}, "RJTT": {"temp": 25, "dewp": 20, "wdir": 130, "wspd": 10, "wgst": null, "reportTime": "2026-07-05T08:00:00.000Z", "rawOb": "METAR RJTT 050800Z 13010KT 9999 FEW030 SCT035 BKN/// 25/20 Q1010 NOSIG"}, "RJBB": {"temp": 24, "dewp": 23, "wdir": 250, "wspd": 12, "wgst": null, "reportTime": "2026-07-05T08:00:00.000Z", "rawOb": "METAR RJBB 050800Z 25012KT 9999 -SHRA FEW004 SCT008 BKN012 FEW020CB 24/23 Q1008 NOSIG"}, "RJBE": {"temp": 24, "dewp": 24, "wdir": 270, "wspd": 5, "wgst": null, "reportTime": "2026-07-05T08:00:00.000Z", "rawOb": "METAR RJBE 050800Z 27005KT 9999 VCSH FEW002 BKN040 BKN050 24/24 Q1007"}, "RJOA": {"temp": 22, "dewp": 22, "wdir": 180, "wspd": 4, "wgst": null, "reportTime": "2026-07-05T08:00:00.000Z", "rawOb": "METAR RJOA 050800Z 18004KT 130V220 0100 R10/0300N FG VV001 22/22 Q1008"}, "RJCB": {"temp": 17, "dewp": 15, "wdir": 150, "wspd": 10, "wgst": null, "reportTime": "2026-07-05T08:00:00.000Z", "rawOb": "METAR RJCB 050800Z 15010KT 9999 FEW005 SCT015 BKN025 17/15 Q1015"}, "RJCK": {"temp": 16, "dewp": 14, "wdir": 200, "wspd": 7, "wgst": null, "reportTime": "2026-07-05T08:00:00.000Z", "rawOb": "METAR RJCK 050800Z 20007KT 9999 FEW006 SCT010 BKN015 16/14 Q1015"}, "RJSK": {"temp": 26, "dewp": 18, "wdir": 120, "wspd": 9, "wgst": null, "reportTime": "2026-07-05T08:00:00.000Z", "rawOb": "METAR RJSK 050800Z 12009KT 9999 FEW030 BKN/// 26/18 Q1010"}, "RJOT": {"temp": 26, "dewp": 23, "wdir": 270, "wspd": 3, "wgst": null, "reportTime": "2026-07-05T08:00:00.000Z", "rawOb": "METAR RJOT 050800Z 27003KT 9999 FEW010 SCT040 BKN070 26/23 Q1008"}, "RJSS": {"temp": 22, "dewp": 20, "wdir": 110, "wspd": 7, "wgst": null, "reportTime": "2026-07-05T08:00:00.000Z", "rawOb": "METAR RJSS 050800Z 11007KT 070V130 9999 FEW005 BKN007 BKN015 22/20 Q1011"}, "RJOB": {"temp": 24, "dewp": 23, "wdir": 200, "wspd": 5, "wgst": null, "reportTime": "2026-07-05T08:00:00.000Z", "rawOb": "METAR RJOB 050800Z 20005KT 6000 PRFG FEW000 BKN007 BKN010 24/23 Q1008"}, "RJEC": {"temp": 24, "dewp": 15, "wdir": 330, "wspd": 7, "wgst": null, "reportTime": "2026-07-05T08:00:00.000Z", "rawOb": "METAR RJEC 050800Z 33007KT 9999 FEW030 SCT140 BKN/// 24/15 Q1012"}, "RJCO": {"temp": 22, "dewp": 15, "wdir": 170, "wspd": 17, "wgst": null, "reportTime": "2026-07-05T08:00:00.000Z", "rawOb": "METAR RJCO 050800Z 17017KT 9999 FEW050 BKN160 22/15 Q1012"}, "RJOM": {"temp": 26, "dewp": 23, "wdir": 200, "wspd": 4, "wgst": null, "reportTime": "2026-07-05T08:00:00.000Z", "rawOb": "METAR RJOM 050800Z 20004KT 9999 FEW006 SCT025 BKN035 26/23 Q1008"}, "RJOO": {"temp": 24, "dewp": 23, "wdir": 80, "wspd": 4, "wgst": null, "reportTime": "2026-07-05T08:00:00.000Z", "rawOb": "METAR RJOO 050800Z 08004KT 010V110 3500 SHRA BR FEW003 BKN008 BKN010 24/23 Q1008"}, "_updated": "2026-07-05T10:52:40Z"}