{"ROAH": {"temp": 30, "dewp": 27, "wdir": 230, "wspd": 8, "wgst": null, "reportTime": "2026-07-04T05:30:00.000Z", "rawOb": "METAR ROAH 040530Z 23008KT 9999 FEW010 30/27 Q1013"}, "RJTT": {"temp": 28, "dewp": 22, "wdir": 190, "wspd": 14, "wgst": null, "reportTime": "2026-07-04T05:30:00.000Z", "rawOb": "METAR RJTT 040530Z 19014KT 9999 FEW020 SCT050 BKN/// 28/22 Q1011 NOSIG"}, "RJCK": {"temp": 17, "dewp": 14, "wdir": 200, "wspd": 11, "wgst": null, "reportTime": "2026-07-04T06:00:00.000Z", "rawOb": "METAR RJCK 040600Z 20011KT 170V240 9999 FEW010 17/14 Q1013"}, "RJCO": {"temp": 25, "dewp": 15, "wdir": 140, "wspd": 15, "wgst": null, "reportTime": "2026-07-04T06:00:00.000Z", "rawOb": "METAR RJCO 040600Z 14015KT 9999 FEW030 25/15 Q1011"}, "RJSK": {"temp": 28, "dewp": 19, "wdir": 280, "wspd": 7, "wgst": null, "reportTime": "2026-07-04T06:00:00.000Z", "rawOb": "METAR RJSK 040600Z 28007KT 9999 FEW030 28/19 Q1010"}, "RJEC": {"temp": 26, "dewp": 16, "wdir": 310, "wspd": 6, "wgst": null, "reportTime": "2026-07-04T06:00:00.000Z", "rawOb": "METAR RJEC 040600Z 31006KT 280V350 9999 FEW025 SCT050 26/16 Q1011"}, "RJGG": {"temp": 25, "dewp": 22, "wdir": 160, "wspd": 11, "wgst": null, "reportTime": "2026-07-04T05:30:00.000Z", "rawOb": "METAR RJGG 040530Z 16011KT 9999 -RA FEW015 BKN040 BKN100 25/22 Q1010 NOSIG"}, "RJOA": {"temp": 20, "dewp": 20, "wdir": 70, "wspd": 7, "wgst": null, "reportTime": "2026-07-04T06:00:00.000Z", "rawOb": "METAR RJOA 040600Z 07007KT 2000 -SHRA BCFG BR FEW000 SCT006 BKN025 20/20 Q1009"}, "RJBB": {"temp": 23, "dewp": 22, "wdir": 100, "wspd": 3, "wgst": null, "reportTime": "2026-07-04T05:30:00.000Z", "rawOb": "METAR RJBB 040530Z 10003KT 050V150 7000 -SHRA FEW005 SCT020 BKN035 23/22 Q1009 TEMPO 3000 SHRA BR FEW003 SCT005 BKN008"}, "RJBE": {"temp": 23, "dewp": 22, "wdir": 30, "wspd": 9, "wgst": null, "reportTime": "2026-07-04T06:00:00.000Z", "rawOb": "METAR RJBE 040600Z 03009KT 9999 -RA FEW005 BKN030 BKN045 23/22 Q1008"}, "RJSS": {"temp": 21, "dewp": 18, "wdir": 130, "wspd": 9, "wgst": null, "reportTime": "2026-07-04T06:00:00.000Z", "rawOb": "METAR RJSS 040600Z 13009KT 9999 FEW010 BKN015 BKN025 21/18 Q1012"}, "RJCB": {"temp": 24, "dewp": 16, "wdir": 130, "wspd": 7, "wgst": null, "reportTime": "2026-07-04T06:00:00.000Z", "rawOb": "METAR RJCB 040600Z 13007KT 100V180 9999 FEW030 24/16 Q1012"}, "RJOT": {"temp": 21, "dewp": 21, "wdir": 10, "wspd": 4, "wgst": null, "reportTime": "2026-07-04T06:00:00.000Z", "rawOb": "METAR RJOT 040600Z 01004KT 1500 R26/1000VP2000D -SHRA BR FEW000 SCT001 BKN002 21/21 Q1008"}, "RJFF": {"temp": 30, "dewp": 23, "wdir": 250, "wspd": 11, "wgst": null, "reportTime": "2026-07-04T05:30:00.000Z", "rawOb": "METAR RJFF 040530Z 25011KT 200V290 9999 FEW015 BKN030 30/23 Q1007 NOSIG"}, "RJOO": {"temp": 23, "dewp": 22, "wdir": 270, "wspd": 4, "wgst": null, "reportTime": "2026-07-04T06:00:00.000Z", "rawOb": "METAR RJOO 040600Z 27004KT 230V310 3000 RA BR FEW006 SCT030 BKN045 23/22 Q1009"}, "RJOB": {"temp": 21, "dewp": 20, "wdir": 40, "wspd": 6, "wgst": null, "reportTime": "2026-07-04T06:00:00.000Z", "rawOb": "METAR RJOB 040600Z 04006KT 2500 -SHRA BR BCFG FEW000 SCT001 BKN003 21/20 Q1009"}, "RJAA": {"temp": 25, "dewp": 21, "wdir": 140, "wspd": 10, "wgst": null, "reportTime": "2026-07-04T05:30:00.000Z", "rawOb": "METAR RJAA 040530Z 14010KT 9999 VCSH FEW018 SCT035 BKN050 25/21 Q1011 NOSIG"}, "RJOM": {"temp": 22, "dewp": 22, "wdir": 360, "wspd": 11, "wgst": null, "reportTime": "2026-07-04T06:00:00.000Z", "rawOb": "METAR RJOM 040600Z 36011KT 320V030 9999 FEW003 SCT015 BKN040 22/22 Q1008"}, "_updated": "2026-07-04T08:06:26Z"}