{"RJCK": {"temp": 16, "dewp": 16, "wdir": "VRB", "wspd": 1, "wgst": null, "reportTime": "2026-07-12T12:00:00.000Z", "rawOb": "METAR RJCK 121200Z AUTO VRB01KT 0200 R17/0500V0800N FG OVC000 16/16 Q1006"}, "RJFF": {"temp": 31, "dewp": 24, "wdir": 310, "wspd": 4, "wgst": null, "reportTime": "2026-07-12T11:30:00.000Z", "rawOb": "METAR RJFF 121130Z 31004KT 240V360 9999 FEW030 SCT/// 31/24 Q1012 NOSIG"}, "RJEC": {"temp": 22, "dewp": 21, "wdir": 170, "wspd": 4, "wgst": null, "reportTime": "2026-07-12T12:00:00.000Z", "rawOb": "METAR RJEC 121200Z AUTO 17004KT 6000 SCT040 BKN045 BKN046 22/21 Q1005"}, "RJSS": {"temp": 25, "dewp": 23, "wdir": 90, "wspd": 3, "wgst": null, "reportTime": "2026-07-12T12:00:00.000Z", "rawOb": "METAR RJSS 121200Z 09003KT 060V170 9999 -SHRA FEW020 SCT050 BKN100 25/23 Q1006"}, "RJOT": {"temp": 27, "dewp": 24, "wdir": 190, "wspd": 4, "wgst": null, "reportTime": "2026-07-12T12:00:00.000Z", "rawOb": "METAR RJOT 121200Z 19004KT 9999 FEW025 BKN/// 27/24 Q1014"}, "RJOO": {"temp": 29, "dewp": 24, "wdir": 220, "wspd": 3, "wgst": null, "reportTime": "2026-07-12T12:00:00.000Z", "rawOb": "METAR RJOO 121200Z AUTO 22003KT 150V300 9999 NSC 29/24 Q1012"}, "RJOM": {"temp": 27, "dewp": 26, "wdir": 360, "wspd": 4, "wgst": null, "reportTime": "2026-07-12T12:00:00.000Z", "rawOb": "METAR RJOM 121200Z 36004KT CAVOK 27/26 Q1013"}, "RJOA": {"temp": 26, "dewp": 24, "wdir": "VRB", "wspd": 1, "wgst": null, "reportTime": "2026-07-12T12:00:00.000Z", "rawOb": "METAR RJOA 121200Z VRB01KT 9999 FEW020 BKN/// 26/24 Q1015"}, "ROAH": {"temp": 28, "dewp": 26, "wdir": 150, "wspd": 18, "wgst": null, "reportTime": "2026-07-12T11:30:00.000Z", "rawOb": "METAR ROAH 121130Z 15018KT 9999 FEW008 BKN010 28/26 Q1010"}, "RJTT": {"temp": 27, "dewp": 24, "wdir": 180, "wspd": 8, "wgst": null, "reportTime": "2026-07-12T11:30:00.000Z", "rawOb": "METAR RJTT 121130Z 18008KT 9999 -SHRA FEW020 BKN150 27/24 Q1009 NOSIG"}, "RJAA": {"temp": 25, "dewp": 23, "wdir": "VRB", "wspd": 2, "wgst": null, "reportTime": "2026-07-12T11:30:00.000Z", "rawOb": "METAR RJAA 121130Z VRB02KT 9999 -RA FEW020 OVC120 25/23 Q1009 NOSIG"}, "RJBB": {"temp": 28, "dewp": 24, "wdir": 220, "wspd": 8, "wgst": null, "reportTime": "2026-07-12T11:30:00.000Z", "rawOb": "METAR RJBB 121130Z 22008KT 9999 FEW030 BKN180 BKN/// 28/24 Q1012 NOSIG"}, "RJGG": {"temp": 29, "dewp": 25, "wdir": 320, "wspd": 10, "wgst": null, "reportTime": "2026-07-12T11:30:00.000Z", "rawOb": "METAR RJGG 121130Z 32010KT 9999 FEW020 BKN/// 29/25 Q1011 NOSIG"}, "RJBE": {"temp": 27, "dewp": 25, "wdir": 240, "wspd": 8, "wgst": null, "reportTime": "2026-07-12T12:00:00.000Z", "rawOb": "METAR RJBE 121200Z 24008KT 9999 FEW030 BKN/// 27/25 Q1012"}, "RJSK": {"temp": 22, "dewp": 22, "wdir": 300, "wspd": 10, "wgst": null, "reportTime": "2026-07-12T12:00:00.000Z", "rawOb": "METAR RJSK 121200Z 30010KT 2000 R28/2000N +SHRA BR FEW000 BKN003 BKN004 22/22 Q1007"}, "RJOB": {"temp": 27, "dewp": 24, "wdir": 260, "wspd": 3, "wgst": null, "reportTime": "2026-07-12T12:00:00.000Z", "rawOb": "METAR RJOB 121200Z 26003KT 9999 FEW025 BKN/// 27/24 Q1014"}, "_updated": "2026-07-12T14:16:52Z"}