{"RJCK": {"temp": 20, "dewp": 20, "wdir": 320, "wspd": 6, "wgst": null, "reportTime": "2026-07-22T13:00:00.000Z", "rawOb": "METAR RJCK 221300Z AUTO 32006KT 9999 BKN017 OVC026 20/20 Q1007"}, "RJOT": {"temp": 28, "dewp": 23, "wdir": 170, "wspd": 5, "wgst": null, "reportTime": "2026-07-22T13:00:00.000Z", "rawOb": "METAR RJOT 221300Z AUTO 17005KT 9999 NCD 28/23 Q1010"}, "RJSS": {"temp": 29, "dewp": 23, "wdir": 250, "wspd": 4, "wgst": null, "reportTime": "2026-07-22T13:00:00.000Z", "rawOb": "METAR RJSS 221300Z AUTO 25004KT 9999 NSC 29/23 Q1006"}, "RJAA": {"temp": 30, "dewp": 27, "wdir": 220, "wspd": 3, "wgst": null, "reportTime": "2026-07-22T12:30:00.000Z", "rawOb": "METAR RJAA 221230Z 22003KT 9999 FEW030 30/27 Q1006 NOSIG"}, "RJTT": {"temp": 30, "dewp": 26, "wdir": 190, "wspd": 13, "wgst": null, "reportTime": "2026-07-22T12:30:00.000Z", "rawOb": "METAR RJTT 221230Z 19013KT 9999 FEW030 30/26 Q1006 NOSIG"}, "ROAH": {"temp": 29, "dewp": 26, "wdir": 120, "wspd": 5, "wgst": null, "reportTime": "2026-07-22T12:30:00.000Z", "rawOb": "METAR ROAH 221230Z 12005KT 9999 FEW020 29/26 Q1010"}, "RJEC": {"temp": 20, "dewp": 19, "wdir": "VRB", "wspd": 1, "wgst": null, "reportTime": "2026-07-22T13:00:00.000Z", "rawOb": "METAR RJEC 221300Z AUTO VRB01KT 9999 FEW032 20/19 Q1007"}, "RJFF": {"temp": 29, "dewp": 24, "wdir": 50, "wspd": 5, "wgst": null, "reportTime": "2026-07-22T12:30:00.000Z", "rawOb": "METAR RJFF 221230Z 05005KT 020V080 9999 FEW040 29/24 Q1010 BECMG 15004KT"}, "RJGG": {"temp": 32, "dewp": 26, "wdir": 310, "wspd": 5, "wgst": null, "reportTime": "2026-07-22T12:30:00.000Z", "rawOb": "METAR RJGG 221230Z 31005KT CAVOK 32/26 Q1007 NOSIG"}, "RJBB": {"temp": 30, "dewp": 26, "wdir": 230, "wspd": 9, "wgst": null, "reportTime": "2026-07-22T12:30:00.000Z", "rawOb": "METAR RJBB 221230Z 23009KT CAVOK 30/26 Q1008 NOSIG"}, "RJOA": {"temp": 28, "dewp": 23, "wdir": 360, "wspd": 8, "wgst": null, "reportTime": "2026-07-22T13:00:00.000Z", "rawOb": "METAR RJOA 221300Z 36008KT CAVOK 28/23 Q1011"}, "RJOM": {"temp": 28, "dewp": 24, "wdir": 190, "wspd": 3, "wgst": null, "reportTime": "2026-07-22T13:00:00.000Z", "rawOb": "METAR RJOM 221300Z AUTO 19003KT 9999 NCD 28/24 Q1009"}, "RJOO": {"temp": 31, "dewp": 25, "wdir": 340, "wspd": 6, "wgst": null, "reportTime": "2026-07-22T13:00:00.000Z", "rawOb": "METAR RJOO 221300Z AUTO 34006KT 9999 NCD 31/25 Q1008"}, "RJBE": {"temp": 29, "dewp": 27, "wdir": 230, "wspd": 10, "wgst": null, "reportTime": "2026-07-22T13:00:00.000Z", "rawOb": "METAR RJBE 221300Z 23010KT CAVOK 29/27 Q1008"}, "_updated": "2026-07-22T15:16:58Z"}