{"RJGG": {"temp": 28, "dewp": 25, "wdir": 320, "wspd": 6, "wgst": null, "reportTime": "2026-07-15T20:30:00.000Z", "rawOb": "METAR RJGG 152030Z AUTO 32006KT 9999 FEW050 28/25 Q1001 NOSIG"}, "RJSS": {"temp": 26, "dewp": 25, "wdir": "VRB", "wspd": 2, "wgst": null, "reportTime": "2026-07-15T21:00:00.000Z", "rawOb": "METAR RJSS 152100Z AUTO VRB02KT 8000 FEW050 SCT080 26/25 Q1000"}, "RJOM": {"temp": 28, "dewp": 25, "wdir": 130, "wspd": 5, "wgst": null, "reportTime": "2026-07-15T21:00:00.000Z", "rawOb": "METAR RJOM 152100Z AUTO 13005KT 9999 FEW029 SCT040 BKN043 28/25 Q1003"}, "RJSK": {"temp": 24, "dewp": 24, "wdir": 290, "wspd": 8, "wgst": null, "reportTime": "2026-07-15T22:00:00.000Z", "rawOb": "METAR RJSK 152200Z 29008KT 3000 -SHRA BR FEW000 BKN003 BKN005 24/24 Q1001"}, "RJOO": {"temp": 28, "dewp": 24, "wdir": "VRB", "wspd": 1, "wgst": null, "reportTime": "2026-07-15T21:00:00.000Z", "rawOb": "METAR RJOO 152100Z AUTO VRB01KT 9999 NCD 28/24 Q1002"}, "RJBB": {"temp": 28, "dewp": 24, "wdir": 230, "wspd": 5, "wgst": null, "reportTime": "2026-07-15T20:30:00.000Z", "rawOb": "METAR RJBB 152030Z AUTO 23005KT 9999 FEW046 28/24 Q1002 NOSIG"}, "RJBE": {"temp": 29, "dewp": 25, "wdir": 220, "wspd": 6, "wgst": null, "reportTime": "2026-07-15T22:00:00.000Z", "rawOb": "METAR RJBE 152200Z 22006KT 9999 FEW025 BKN/// 29/25 Q1002"}, "RJCB": {"temp": 20, "dewp": 20, "wdir": 310, "wspd": 5, "wgst": null, "reportTime": "2026-07-15T23:00:00.000Z", "rawOb": "METAR RJCB 152300Z 31005KT 260V330 9000 FEW002 BKN003 BKN004 20/20 Q0997"}, "RJCK": {"temp": 18, "dewp": 18, "wdir": 180, "wspd": 13, "wgst": null, "reportTime": "2026-07-15T21:00:00.000Z", "rawOb": "METAR RJCK 152100Z AUTO 18013KT 0100 R17/0250V0550D FG OVC000 18/18 Q0998"}, "RJCO": {"temp": 24, "dewp": 22, "wdir": 350, "wspd": 7, "wgst": null, "reportTime": "2026-07-15T22:00:00.000Z", "rawOb": "METAR RJCO 152200Z 35007KT 320V020 9999 FEW008 BKN010 BKN030 24/22 Q0996"}, "RJEC": {"temp": 22, "dewp": 20, "wdir": 180, "wspd": 10, "wgst": null, "reportTime": "2026-07-15T21:00:00.000Z", "rawOb": "METAR RJEC 152100Z AUTO 18010KT 9999 FEW023 SCT026 BKN029 22/20 Q0994"}, "RJFF": {"temp": 28, "dewp": 25, "wdir": 150, "wspd": 9, "wgst": null, "reportTime": "2026-07-15T20:30:00.000Z", "rawOb": "METAR RJFF 152030Z AUTO 15009KT 9999 FEW024 BKN031 OVC038 28/25 Q1003 NOSIG"}, "RJTT": {"temp": 28, "dewp": 25, "wdir": 200, "wspd": 6, "wgst": null, "reportTime": "2026-07-15T20:30:00.000Z", "rawOb": "METAR RJTT 152030Z 20006KT 180V270 9999 FEW010 BKN/// 28/25 Q1000 NOSIG"}, "ROAH": {"temp": 27, "dewp": 26, "wdir": 240, "wspd": 11, "wgst": null, "reportTime": "2026-07-15T20:30:00.000Z", "rawOb": "METAR ROAH 152030Z AUTO 24011KT 9999 BKN007 OVC010 27/26 Q1009"}, "RJOA": {"temp": 25, "dewp": 24, "wdir": 320, "wspd": 4, "wgst": null, "reportTime": "2026-07-15T21:00:00.000Z", "rawOb": "METAR RJOA 152100Z AUTO 32004KT 9999 NCD 25/24 Q1004"}, "RJOB": {"temp": 27, "dewp": 24, "wdir": 270, "wspd": 3, "wgst": null, "reportTime": "2026-07-15T22:00:00.000Z", "rawOb": "METAR RJOB 152200Z 27003KT 220V310 9999 FEW015 BKN/// 27/24 Q1004"}, "RJOT": {"temp": 26, "dewp": 24, "wdir": 210, "wspd": 5, "wgst": null, "reportTime": "2026-07-15T21:00:00.000Z", "rawOb": "METAR RJOT 152100Z AUTO 21005KT 9999 NCD 26/24 Q1004"}, "RJAA": {"temp": 26, "dewp": 25, "wdir": 140, "wspd": 4, "wgst": null, "reportTime": "2026-07-15T20:30:00.000Z", "rawOb": "METAR RJAA 152030Z AUTO 14004KT 6000 FEW019 BKN023 26/25 Q1000 NOSIG"}, "_updated": "2026-07-15T23:15:19Z"}