{"RJAA": {"temp": 29, "dewp": 24, "wdir": 240, "wspd": 4, "wgst": null, "reportTime": "2026-07-20T12:30:00.000Z", "rawOb": "METAR RJAA 201230Z 24004KT CAVOK 29/24 Q1008 NOSIG"}, "ROAH": {"temp": 28, "dewp": 27, "wdir": 200, "wspd": 7, "wgst": null, "reportTime": "2026-07-20T12:30:00.000Z", "rawOb": "METAR ROAH 201230Z 20007KT 9999 FEW010 28/27 Q1009"}, "RJTT": {"temp": 28, "dewp": 26, "wdir": 190, "wspd": 11, "wgst": null, "reportTime": "2026-07-20T12:30:00.000Z", "rawOb": "METAR RJTT 201230Z 19011KT CAVOK 28/26 Q1008 NOSIG"}, "RJSS": {"temp": 27, "dewp": 24, "wdir": "VRB", "wspd": 1, "wgst": null, "reportTime": "2026-07-20T13:00:00.000Z", "rawOb": "METAR RJSS 201300Z AUTO VRB01KT 9999 FEW050 27/24 Q1008"}, "RJOT": {"temp": 27, "dewp": 25, "wdir": 140, "wspd": 6, "wgst": null, "reportTime": "2026-07-20T13:00:00.000Z", "rawOb": "METAR RJOT 201300Z AUTO 14006KT 9999 NCD 27/25 Q1010"}, "RJOO": {"temp": 30, "dewp": 24, "wdir": 240, "wspd": 5, "wgst": null, "reportTime": "2026-07-20T13:00:00.000Z", "rawOb": "METAR RJOO 201300Z AUTO 24005KT 190V290 9999 NCD 30/24 Q1009"}, "RJOM": {"temp": 27, "dewp": 26, "wdir": 350, "wspd": 3, "wgst": null, "reportTime": "2026-07-20T13:00:00.000Z", "rawOb": "METAR RJOM 201300Z AUTO 35003KT 9999 NCD 27/26 Q1009"}, "RJOA": {"temp": 28, "dewp": 24, "wdir": 280, "wspd": 3, "wgst": null, "reportTime": "2026-07-20T13:00:00.000Z", "rawOb": "METAR RJOA 201300Z 28003KT 9999 FEW025 BKN/// 28/24 Q1011"}, "RJGG": {"temp": 30, "dewp": 26, "wdir": 100, "wspd": 6, "wgst": null, "reportTime": "2026-07-20T12:30:00.000Z", "rawOb": "METAR RJGG 201230Z 10006KT 9999 FEW020 30/26 Q1008 NOSIG"}, "RJFF": {"temp": 29, "dewp": 24, "wdir": 320, "wspd": 4, "wgst": null, "reportTime": "2026-07-20T12:30:00.000Z", "rawOb": "METAR RJFF 201230Z 32004KT 240V020 CAVOK 29/24 Q1009 NOSIG"}, "RJEC": {"temp": 21, "dewp": 20, "wdir": 100, "wspd": 3, "wgst": null, "reportTime": "2026-07-20T13:00:00.000Z", "rawOb": "METAR RJEC 201300Z AUTO 10003KT 9999 NSC 21/20 Q1007"}, "RJCK": {"temp": 20, "dewp": 20, "wdir": "VRB", "wspd": 1, "wgst": null, "reportTime": "2026-07-20T13:00:00.000Z", "rawOb": "METAR RJCK 201300Z AUTO VRB01KT 9999 FEW010 SCT038 BKN042 20/20 Q1006"}, "RJBB": {"temp": 29, "dewp": 25, "wdir": 210, "wspd": 7, "wgst": null, "reportTime": "2026-07-20T12:30:00.000Z", "rawOb": "METAR RJBB 201230Z 21007KT 9999 FEW025 29/25 Q1009 NOSIG"}, "RJBE": {"temp": 28, "dewp": 26, "wdir": 250, "wspd": 6, "wgst": null, "reportTime": "2026-07-20T13:00:00.000Z", "rawOb": "METAR RJBE 201300Z 25006KT 9999 FEW025 28/26 Q1009"}, "_updated": "2026-07-20T15:13:47Z"}