{"RJFF": {"temp": 35, "dewp": 25, "wdir": 300, "wspd": 9, "wgst": null, "reportTime": "2026-07-11T08:30:00.000Z", "rawOb": "METAR RJFF 110830Z 30009KT 250V330 9999 FEW025 35/25 Q1010 BECMG 12004KT"}, "RJBB": {"temp": 27, "dewp": 23, "wdir": 230, "wspd": 12, "wgst": null, "reportTime": "2026-07-11T08:30:00.000Z", "rawOb": "METAR RJBB 110830Z 23012KT 9999 FEW020 BKN180 BKN/// 27/23 Q1013 NOSIG"}, "RJTT": {"temp": 27, "dewp": 23, "wdir": 180, "wspd": 16, "wgst": null, "reportTime": "2026-07-11T08:30:00.000Z", "rawOb": "METAR RJTT 110830Z 18016KT 9999 FEW020 BKN/// 27/23 Q1012 NOSIG"}, "RJCO": {"temp": 23, "dewp": 23, "wdir": 120, "wspd": 5, "wgst": null, "reportTime": "2026-07-11T09:00:00.000Z", "rawOb": "METAR RJCO 110900Z 12005KT 9999 -SHRA FEW010 BKN060 BKN080 23/23 Q1008"}, "RJCB": {"temp": 25, "dewp": 23, "wdir": 130, "wspd": 3, "wgst": null, "reportTime": "2026-07-11T09:00:00.000Z", "rawOb": "METAR RJCB 110900Z 13003KT 9999 FEW004 SCT010 BKN060 25/23 Q1009"}, "RJBE": {"temp": 26, "dewp": 24, "wdir": 220, "wspd": 12, "wgst": null, "reportTime": "2026-07-11T09:00:00.000Z", "rawOb": "METAR RJBE 110900Z 22012KT 9999 FEW030 BKN/// 26/24 Q1013"}, "RJGG": {"temp": 28, "dewp": 23, "wdir": 160, "wspd": 9, "wgst": null, "reportTime": "2026-07-11T08:30:00.000Z", "rawOb": "METAR RJGG 110830Z 16009KT 9999 FEW025 BKN/// 28/23 Q1013 NOSIG"}, "RJOO": {"temp": 28, "dewp": 22, "wdir": 230, "wspd": 7, "wgst": null, "reportTime": "2026-07-11T09:00:00.000Z", "rawOb": "METAR RJOO 110900Z 23007KT 160V300 9999 FEW030 BKN/// 28/22 Q1013"}, "RJCK": {"temp": 17, "dewp": 17, "wdir": 200, "wspd": 4, "wgst": null, "reportTime": "2026-07-11T09:00:00.000Z", "rawOb": "METAR RJCK 110900Z 20004KT 0800 R17/1200VP2000U FG -SHRA BKN001 BKN002 17/17 Q1009"}, "RJOM": {"temp": 28, "dewp": 24, "wdir": 350, "wspd": 3, "wgst": null, "reportTime": "2026-07-11T09:00:00.000Z", "rawOb": "METAR RJOM 110900Z 35003KT 9999 FEW025 SCT/// 28/24 Q1013"}, "RJOT": {"temp": 29, "dewp": 24, "wdir": 90, "wspd": 3, "wgst": null, "reportTime": "2026-07-11T09:00:00.000Z", "rawOb": "METAR RJOT 110900Z 09003KT 9999 FEW025 SCT035 BKN/// 29/24 Q1014"}, "RJOA": {"temp": 28, "dewp": 23, "wdir": 190, "wspd": 5, "wgst": null, "reportTime": "2026-07-11T09:00:00.000Z", "rawOb": "METAR RJOA 110900Z 19005KT 150V240 9999 FEW030 BKN/// 28/23 Q1015"}, "RJAA": {"temp": 28, "dewp": 22, "wdir": 150, "wspd": 10, "wgst": null, "reportTime": "2026-07-11T08:30:00.000Z", "rawOb": "METAR RJAA 110830Z 15010KT 9999 FEW030 BKN/// 28/22 Q1012 NOSIG"}, "RJOB": {"temp": 28, "dewp": 23, "wdir": 120, "wspd": 6, "wgst": null, "reportTime": "2026-07-11T09:00:00.000Z", "rawOb": "METAR RJOB 110900Z 12006KT 9999 FEW030 BKN/// 28/23 Q1014"}, "RJSK": {"temp": 23, "dewp": 22, "wdir": "VRB", "wspd": 2, "wgst": null, "reportTime": "2026-07-11T09:00:00.000Z", "rawOb": "METAR RJSK 110900Z VRB02KT 4000 -SHRA BR FEW000 SCT010 BKN030 23/22 Q1012"}, "RJSS": {"temp": 24, "dewp": 23, "wdir": 50, "wspd": 4, "wgst": null, "reportTime": "2026-07-11T09:00:00.000Z", "rawOb": "METAR RJSS 110900Z 05004KT 010V080 6000 -SHRA FEW010 SCT020 BKN050 24/23 Q1012"}, "ROAH": {"temp": 28, "dewp": 26, "wdir": 140, "wspd": 36, "wgst": 52, "reportTime": "2026-07-11T08:30:00.000Z", "rawOb": "METAR ROAH 110830Z 14036G52KT 6000 BKN015 BKN025 28/26 Q0999"}, "RJEC": {"temp": 24, "dewp": 21, "wdir": 160, "wspd": 5, "wgst": null, "reportTime": "2026-07-11T09:00:00.000Z", "rawOb": "METAR RJEC 110900Z 16005KT 9999 FEW010 SCT025 BKN150 24/21 Q1009"}, "_updated": "2026-07-11T11:19:39Z"}