{"RJBB": {"temp": 23, "dewp": 23, "wdir": 20, "wspd": 12, "wgst": null, "reportTime": "2026-07-06T03:30:00.000Z", "rawOb": "METAR RJBB 060330Z 02012KT 4500 -SHRA BR FEW001 SCT003 BKN005 23/23 Q1008 TEMPO 3000 SHRA BR"}, "RJFF": {"temp": 27, "dewp": 25, "wdir": 310, "wspd": 3, "wgst": null, "reportTime": "2026-07-06T03:30:00.000Z", "rawOb": "METAR RJFF 060330Z 31003KT 210V010 9999 FEW005 SCT010 BKN015 27/25 Q1008 NOSIG"}, "RJGG": {"temp": 22, "dewp": 21, "wdir": 70, "wspd": 6, "wgst": null, "reportTime": "2026-07-06T03:30:00.000Z", "rawOb": "METAR RJGG 060330Z 07006KT 030V110 3000 -RA BR FEW002 SCT005 BKN008 22/21 Q1009 TEMPO RA BR"}, "ROAH": {"temp": 30, "dewp": 27, "wdir": 240, "wspd": 6, "wgst": null, "reportTime": "2026-07-06T03:30:00.000Z", "rawOb": "METAR ROAH 060330Z 24006KT 9999 FEW015 30/27 Q1011"}, "RJAA": {"temp": 26, "dewp": 18, "wdir": 120, "wspd": 8, "wgst": null, "reportTime": "2026-07-06T03:30:00.000Z", "rawOb": "METAR RJAA 060330Z 12008KT 080V160 9999 SCT030 BKN/// 26/18 Q1012 NOSIG"}, "RJTT": {"temp": 26, "dewp": 20, "wdir": 70, "wspd": 11, "wgst": null, "reportTime": "2026-07-06T03:30:00.000Z", "rawOb": "METAR RJTT 060330Z 07011KT 9999 FEW025 BKN070 26/20 Q1012 NOSIG"}, "RJBE": {"temp": 24, "dewp": 23, "wdir": 60, "wspd": 10, "wgst": null, "reportTime": "2026-07-06T04:00:00.000Z", "rawOb": "METAR RJBE 060400Z 06010KT 8000 -SHRA FEW002 SCT005 BKN015 24/23 Q1007"}, "RJCB": {"temp": 20, "dewp": 16, "wdir": 160, "wspd": 9, "wgst": null, "reportTime": "2026-07-06T04:00:00.000Z", "rawOb": "METAR RJCB 060400Z 16009KT 130V200 9999 FEW015 BKN020 BKN030 20/16 Q1016"}, "RJCK": {"temp": 21, "dewp": 16, "wdir": 210, "wspd": 12, "wgst": null, "reportTime": "2026-07-06T04:00:00.000Z", "rawOb": "METAR RJCK 060400Z 21012KT 9999 FEW015 SCT020 BKN150 21/16 Q1017"}, "RJCO": {"temp": 23, "dewp": 16, "wdir": 160, "wspd": 17, "wgst": null, "reportTime": "2026-07-06T04:00:00.000Z", "rawOb": "METAR RJCO 060400Z 16017KT 9999 FEW015 SCT050 23/16 Q1014"}, "RJEC": {"temp": 26, "dewp": 16, "wdir": 170, "wspd": 9, "wgst": null, "reportTime": "2026-07-06T04:00:00.000Z", "rawOb": "METAR RJEC 060400Z 17009KT 140V210 9999 FEW030 SCT040 BKN120 26/16 Q1014"}, "RJOM": {"temp": 27, "dewp": 25, "wdir": 200, "wspd": 6, "wgst": null, "reportTime": "2026-07-06T04:00:00.000Z", "rawOb": "METAR RJOM 060400Z 20006KT 9999 FEW007 SCT030 BKN045 27/25 Q1007"}, "RJOO": {"temp": 24, "dewp": 22, "wdir": 60, "wspd": 9, "wgst": null, "reportTime": "2026-07-06T04:00:00.000Z", "rawOb": "METAR RJOO 060400Z 06009KT 020V100 6000 -SHRA BR FEW003 SCT006 BKN015 24/22 Q1008"}, "RJOT": {"temp": 24, "dewp": 24, "wdir": 280, "wspd": 5, "wgst": null, "reportTime": "2026-07-06T04:00:00.000Z", "rawOb": "METAR RJOT 060400Z 28005KT 7000 -SHRA BR FEW000 SCT004 BKN008 24/24 Q1008"}, "RJSK": {"temp": 30, "dewp": 19, "wdir": 110, "wspd": 12, "wgst": null, "reportTime": "2026-07-06T04:00:00.000Z", "rawOb": "METAR RJSK 060400Z 11012KT 080V150 9999 SCT040 30/19 Q1010"}, "RJOA": {"temp": 23, "dewp": 23, "wdir": 120, "wspd": 4, "wgst": null, "reportTime": "2026-07-06T04:00:00.000Z", "rawOb": "METAR RJOA 060400Z 12004KT 2000 R10/P2000N BCFG BR FEW000 SCT001 BKN002 23/23 Q1009"}, "RJOB": {"temp": 24, "dewp": 24, "wdir": "VRB", "wspd": 2, "wgst": null, "reportTime": "2026-07-06T04:00:00.000Z", "rawOb": "METAR RJOB 060400Z VRB02KT 6000 -SHRA FEW001 SCT004 BKN007 24/24 Q1008"}, "RJSS": {"temp": 24, "dewp": 20, "wdir": 140, "wspd": 14, "wgst": null, "reportTime": "2026-07-06T04:00:00.000Z", "rawOb": "METAR RJSS 060400Z 14014KT 9999 FEW020 SCT130 BKN/// 24/20 Q1012"}, "_updated": "2026-07-06T06:01:13Z"}