{"RJTT": {"temp": 28, "dewp": 25, "wdir": 180, "wspd": 7, "wgst": null, "reportTime": "2026-07-19T21:30:00.000Z", "rawOb": "METAR RJTT 192130Z 18007KT 9999 FEW012 28/25 Q1009 NOSIG"}, "RJFF": {"temp": 29, "dewp": 26, "wdir": 140, "wspd": 9, "wgst": null, "reportTime": "2026-07-19T21:30:00.000Z", "rawOb": "METAR RJFF 192130Z 14009KT 9999 FEW015 SCT040 BKN045 29/26 Q1008 NOSIG"}, "RJSK": {"temp": 25, "dewp": 24, "wdir": 270, "wspd": 5, "wgst": null, "reportTime": "2026-07-19T22:00:00.000Z", "rawOb": "METAR RJSK 192200Z 27005KT 230V290 8000 FEW003 BKN006 BKN007 25/24 Q1008"}, "RJOB": {"temp": 26, "dewp": 25, "wdir": 80, "wspd": 4, "wgst": null, "reportTime": "2026-07-19T22:00:00.000Z", "rawOb": "METAR RJOB 192200Z 08004KT 020V120 6000 FEW005 BKN007 BKN010 26/25 Q1010"}, "RJOM": {"temp": 28, "dewp": 25, "wdir": 360, "wspd": 3, "wgst": null, "reportTime": "2026-07-19T22:00:00.000Z", "rawOb": "METAR RJOM 192200Z 36003KT 9999 FEW025 28/25 Q1009"}, "RJCK": {"temp": 19, "dewp": 19, "wdir": 30, "wspd": 3, "wgst": null, "reportTime": "2026-07-19T22:00:00.000Z", "rawOb": "METAR RJCK 192200Z AUTO 03003KT 360V070 1300 R35/2000N BR OVC001 19/19 Q1006"}, "RJCO": {"temp": 21, "dewp": 21, "wdir": 320, "wspd": 5, "wgst": null, "reportTime": "2026-07-19T22:00:00.000Z", "rawOb": "METAR RJCO 192200Z 32005KT 1500 R32/1500VP2000D -DZ BR SCT002 OVC003 21/21 Q1007"}, "RJOT": {"temp": 27, "dewp": 24, "wdir": 140, "wspd": 3, "wgst": null, "reportTime": "2026-07-19T22:00:00.000Z", "rawOb": "METAR RJOT 192200Z 14003KT 9999 FEW015 SCT030 27/24 Q1010"}, "RJEC": {"temp": 22, "dewp": 21, "wdir": 170, "wspd": 3, "wgst": null, "reportTime": "2026-07-19T22:00:00.000Z", "rawOb": "METAR RJEC 192200Z AUTO 17003KT 140V210 9999 BKN017 OVC019 22/21 Q1007"}, "ROAH": {"temp": 28, "dewp": 27, "wdir": 200, "wspd": 7, "wgst": null, "reportTime": "2026-07-19T21:30:00.000Z", "rawOb": "METAR ROAH 192130Z 20007KT 9999 FEW010 28/27 Q1008"}, "RJBB": {"temp": 29, "dewp": 24, "wdir": 140, "wspd": 4, "wgst": null, "reportTime": "2026-07-19T21:30:00.000Z", "rawOb": "METAR RJBB 192130Z 14004KT 9999 FEW020 29/24 Q1009 NOSIG"}, "RJAA": {"temp": 27, "dewp": 25, "wdir": 230, "wspd": 3, "wgst": null, "reportTime": "2026-07-19T21:30:00.000Z", "rawOb": "METAR RJAA 192130Z 23003KT 200V280 9999 FEW030 27/25 Q1009 NOSIG"}, "RJSS": {"temp": 27, "dewp": 24, "wdir": "VRB", "wspd": 2, "wgst": null, "reportTime": "2026-07-19T22:00:00.000Z", "rawOb": "METAR RJSS 192200Z AUTO VRB02KT 9000 NCD 27/24 Q1007"}, "RJOO": {"temp": 31, "dewp": 25, "wdir": 250, "wspd": 3, "wgst": null, "reportTime": "2026-07-19T22:00:00.000Z", "rawOb": "METAR RJOO 192200Z 25003KT 200V300 9999 FEW025 31/25 Q1009"}, "RJGG": {"temp": 28, "dewp": 25, "wdir": 30, "wspd": 3, "wgst": null, "reportTime": "2026-07-19T21:30:00.000Z", "rawOb": "METAR RJGG 192130Z 03003KT 8000 FEW009 BKN018 28/25 Q1009 NOSIG"}, "RJBE": {"temp": 30, "dewp": 25, "wdir": "VRB", "wspd": 1, "wgst": null, "reportTime": "2026-07-19T22:00:00.000Z", "rawOb": "METAR RJBE 192200Z VRB01KT 9999 FEW015 30/25 Q1009"}, "RJOA": {"temp": 27, "dewp": 24, "wdir": "VRB", "wspd": 1, "wgst": null, "reportTime": "2026-07-19T22:00:00.000Z", "rawOb": "METAR RJOA 192200Z AUTO VRB01KT 9999 NCD 27/24 Q1011"}, "RJCB": {"temp": 20, "dewp": 20, "wdir": "VRB", "wspd": 2, "wgst": null, "reportTime": "2026-07-19T23:00:00.000Z", "rawOb": "METAR RJCB 192300Z VRB02KT 6000 FEW003 BKN004 BKN005 20/20 Q1006"}, "_updated": "2026-07-20T00:12:58Z"}