{"RJAA": {"temp": 28, "dewp": 26, "wdir": 320, "wspd": 4, "wgst": null, "reportTime": "2026-07-22T18:30:00.000Z", "rawOb": "METAR RJAA 221830Z AUTO 32004KT 8000 NSC 28/26 Q1006 NOSIG"}, "RJTT": {"temp": 28, "dewp": 27, "wdir": 140, "wspd": 2, "wgst": null, "reportTime": "2026-07-22T18:30:00.000Z", "rawOb": "METAR RJTT 221830Z 14002KT 9000 FEW020 28/27 Q1006 NOSIG"}, "ROAH": {"temp": 29, "dewp": 26, "wdir": 90, "wspd": 3, "wgst": null, "reportTime": "2026-07-22T18:30:00.000Z", "rawOb": "METAR ROAH 221830Z AUTO 09003KT 9999 NCD 29/26 Q1009"}, "RJOA": {"temp": 25, "dewp": 23, "wdir": 110, "wspd": 2, "wgst": null, "reportTime": "2026-07-22T19:00:00.000Z", "rawOb": "METAR RJOA 221900Z AUTO 11002KT 9999 NCD 25/23 Q1011"}, "RJGG": {"temp": 30, "dewp": 25, "wdir": 300, "wspd": 10, "wgst": null, "reportTime": "2026-07-22T18:30:00.000Z", "rawOb": "METAR RJGG 221830Z AUTO 30010KT 9999 FEW046 SCT060 30/25 Q1007 NOSIG"}, "RJFF": {"temp": 28, "dewp": 24, "wdir": 110, "wspd": 4, "wgst": null, "reportTime": "2026-07-22T18:30:00.000Z", "rawOb": "METAR RJFF 221830Z AUTO 11004KT 9999 NCD 28/24 Q1009 NOSIG"}, "RJOM": {"temp": 28, "dewp": 22, "wdir": 120, "wspd": 5, "wgst": null, "reportTime": "2026-07-22T19:00:00.000Z", "rawOb": "METAR RJOM 221900Z AUTO 12005KT 9999 NCD 28/22 Q1009"}, "RJOO": {"temp": 29, "dewp": 24, "wdir": 340, "wspd": 3, "wgst": null, "reportTime": "2026-07-22T19:00:00.000Z", "rawOb": "METAR RJOO 221900Z AUTO 34003KT 310V050 9999 FEW041 29/24 Q1009"}, "RJEC": {"temp": 18, "dewp": 18, "wdir": 320, "wspd": 2, "wgst": null, "reportTime": "2026-07-22T19:00:00.000Z", "rawOb": "METAR RJEC 221900Z AUTO 32002KT 9999 SCT002 OVC011 18/18 Q1009"}, "RJOT": {"temp": 27, "dewp": 22, "wdir": 220, "wspd": 7, "wgst": null, "reportTime": "2026-07-22T19:00:00.000Z", "rawOb": "METAR RJOT 221900Z AUTO 22007KT 9999 SCT023 SCT027 BKN030 27/22 Q1010"}, "RJCK": {"temp": 18, "dewp": 18, "wdir": 290, "wspd": 4, "wgst": null, "reportTime": "2026-07-22T19:00:00.000Z", "rawOb": "METAR RJCK 221900Z AUTO 29004KT 6000 R17/0500VP2000U SCT000 BKN003 BKN010 18/18 Q1008"}, "RJBB": {"temp": 28, "dewp": 27, "wdir": 210, "wspd": 2, "wgst": null, "reportTime": "2026-07-22T18:30:00.000Z", "rawOb": "METAR RJBB 221830Z AUTO 21002KT 9999 NCD 28/27 Q1009 NOSIG"}, "RJSS": {"temp": 25, "dewp": 23, "wdir": 250, "wspd": 3, "wgst": null, "reportTime": "2026-07-22T19:00:00.000Z", "rawOb": "METAR RJSS 221900Z AUTO 25003KT 220V290 9999 FEW060 25/23 Q1006"}, "_updated": "2026-07-22T21:12:49Z"}