{"RJAA": {"temp": 28, "dewp": 23, "wdir": 140, "wspd": 12, "wgst": null, "reportTime": "2026-07-18T08:00:00.000Z", "rawOb": "METAR RJAA 180800Z 14012KT 9999 FEW015 BKN/// 28/23 Q1007 NOSIG"}, "RJGG": {"temp": 30, "dewp": 25, "wdir": 150, "wspd": 14, "wgst": null, "reportTime": "2026-07-18T08:00:00.000Z", "rawOb": "METAR RJGG 180800Z 15014KT 9999 FEW015 30/25 Q1005 NOSIG"}, "RJFF": {"temp": 34, "dewp": 25, "wdir": 180, "wspd": 12, "wgst": null, "reportTime": "2026-07-18T08:00:00.000Z", "rawOb": "METAR RJFF 180800Z 18012KT 9999 FEW025 BKN/// 34/25 Q1001 NOSIG"}, "ROAH": {"temp": 30, "dewp": 28, "wdir": 210, "wspd": 8, "wgst": null, "reportTime": "2026-07-18T08:00:00.000Z", "rawOb": "METAR ROAH 180800Z 21008KT 9999 FEW006 SCT008 30/28 Q1005"}, "RJBB": {"temp": 32, "dewp": 25, "wdir": 210, "wspd": 19, "wgst": null, "reportTime": "2026-07-18T08:00:00.000Z", "rawOb": "METAR RJBB 180800Z 21019KT 9999 FEW020 FEW025CB BKN/// 32/25 Q1003 NOSIG"}, "RJTT": {"temp": 29, "dewp": 24, "wdir": 190, "wspd": 12, "wgst": null, "reportTime": "2026-07-18T08:00:00.000Z", "rawOb": "METAR RJTT 180800Z 19012KT 9999 FEW010 BKN050 BKN/// 29/24 Q1006 NOSIG"}, "RJBE": {"temp": 29, "dewp": 26, "wdir": 230, "wspd": 15, "wgst": null, "reportTime": "2026-07-18T08:00:00.000Z", "rawOb": "METAR RJBE 180800Z 23015KT 9999 FEW030 BKN/// 29/26 Q1003"}, "RJCB": {"temp": 20, "dewp": 20, "wdir": 140, "wspd": 8, "wgst": null, "reportTime": "2026-07-18T08:00:00.000Z", "rawOb": "METAR RJCB 180800Z 14008KT 2300 R35/2000N -SHRA BR FEW002 SCT003 BKN004 20/20 Q1011"}, "RJCK": {"temp": 19, "dewp": 19, "wdir": 140, "wspd": 8, "wgst": null, "reportTime": "2026-07-18T08:00:00.000Z", "rawOb": "METAR RJCK 180800Z 14008KT 0200 R17/0550V0800N FG -SHRA VV001 19/19 Q1012"}, "RJCO": {"temp": 23, "dewp": 21, "wdir": 150, "wspd": 11, "wgst": null, "reportTime": "2026-07-18T08:00:00.000Z", "rawOb": "METAR RJCO 180800Z 15011KT 9999 -SHRA FEW012 BKN030 BKN100 23/21 Q1008"}, "RJEC": {"temp": 23, "dewp": 21, "wdir": "VRB", "wspd": 2, "wgst": null, "reportTime": "2026-07-18T08:00:00.000Z", "rawOb": "METAR RJEC 180800Z VRB02KT 9999 -SHRA FEW003 SCT025 BKN100 23/21 Q1009"}, "RJOB": {"temp": 31, "dewp": 25, "wdir": 120, "wspd": 6, "wgst": null, "reportTime": "2026-07-18T08:00:00.000Z", "rawOb": "METAR RJOB 180800Z 12006KT 090V160 9999 FEW030 SCT/// 31/25 Q1004"}, "RJSS": {"temp": 24, "dewp": 22, "wdir": 150, "wspd": 11, "wgst": null, "reportTime": "2026-07-18T08:00:00.000Z", "rawOb": "METAR RJSS 180800Z 15011KT 9999 FEW008 SCT040 BKN060 24/22 Q1007"}, "RJOT": {"temp": 29, "dewp": 27, "wdir": 220, "wspd": 4, "wgst": null, "reportTime": "2026-07-18T08:00:00.000Z", "rawOb": "METAR RJOT 180800Z 22004KT 9999 SHRA FEW002 SCT025 BKN040 29/27 Q1004"}, "RJOA": {"temp": 31, "dewp": 24, "wdir": 190, "wspd": 4, "wgst": null, "reportTime": "2026-07-18T08:00:00.000Z", "rawOb": "METAR RJOA 180800Z 19004KT 140V230 9999 FEW030 BKN/// 31/24 Q1005"}, "RJOM": {"temp": 31, "dewp": 25, "wdir": 340, "wspd": 7, "wgst": null, "reportTime": "2026-07-18T08:00:00.000Z", "rawOb": "METAR RJOM 180800Z 34007KT 9999 FEW035 SCT/// 31/25 Q1002"}, "RJOO": {"temp": 32, "dewp": 24, "wdir": 250, "wspd": 11, "wgst": null, "reportTime": "2026-07-18T08:00:00.000Z", "rawOb": "METAR RJOO 180800Z 25011KT 200V280 9999 FEW020 BKN/// 32/24 Q1003"}, "RJSK": {"temp": 27, "dewp": 23, "wdir": 130, "wspd": 6, "wgst": null, "reportTime": "2026-07-18T08:00:00.000Z", "rawOb": "METAR RJSK 180800Z 13006KT 9999 FEW025 BKN100 27/23 Q1005"}, "_updated": "2026-07-18T10:49:45Z"}