{"RJTT": {"temp": 27, "dewp": 25, "wdir": 210, "wspd": 4, "wgst": null, "reportTime": "2026-07-13T01:30:00.000Z", "rawOb": "METAR RJTT 130130Z 21004KT 160V310 9999 -SHRA FEW030 SCT100 BKN150 27/25 Q1006 NOSIG"}, "RJFF": {"temp": 33, "dewp": 24, "wdir": 160, "wspd": 7, "wgst": null, "reportTime": "2026-07-13T01:30:00.000Z", "rawOb": "METAR RJFF 130130Z 16007KT 110V230 9999 FEW030 BKN040 33/24 Q1012 BECMG 32010KT"}, "RJBB": {"temp": 29, "dewp": 25, "wdir": 220, "wspd": 5, "wgst": null, "reportTime": "2026-07-13T01:30:00.000Z", "rawOb": "METAR RJBB 130130Z 22005KT 180V260 9999 FEW030 BKN/// 29/25 Q1011 NOSIG"}, "ROAH": {"temp": 30, "dewp": 26, "wdir": 160, "wspd": 15, "wgst": null, "reportTime": "2026-07-13T01:30:00.000Z", "rawOb": "METAR ROAH 130130Z 16015KT 9999 SCT012 BKN025 30/26 Q1012"}, "RJGG": {"temp": 30, "dewp": 25, "wdir": 320, "wspd": 15, "wgst": null, "reportTime": "2026-07-13T01:30:00.000Z", "rawOb": "METAR RJGG 130130Z 32015KT 9999 FEW015 BKN/// 30/25 Q1009 NOSIG"}, "RJAA": {"temp": 28, "dewp": 24, "wdir": "VRB", "wspd": 1, "wgst": null, "reportTime": "2026-07-13T01:30:00.000Z", "rawOb": "METAR RJAA 130130Z VRB01KT 6000 FEW030 SCT100 BKN/// 28/24 Q1006 BECMG 26006KT"}, "RJBE": {"temp": 30, "dewp": 26, "wdir": 230, "wspd": 11, "wgst": null, "reportTime": "2026-07-13T02:00:00.000Z", "rawOb": "METAR RJBE 130200Z 23011KT 9999 FEW015 BKN/// 30/26 Q1011"}, "RJCB": {"temp": 23, "dewp": 21, "wdir": 90, "wspd": 3, "wgst": null, "reportTime": "2026-07-13T02:00:00.000Z", "rawOb": "METAR RJCB 130200Z 09003KT 020V160 9999 FEW006 SCT010 BKN015 23/21 Q1006"}, "RJCK": {"temp": 23, "dewp": 21, "wdir": 30, "wspd": 6, "wgst": null, "reportTime": "2026-07-13T02:00:00.000Z", "rawOb": "METAR RJCK 130200Z 03006KT 360V060 9999 FEW005 SCT008 BKN012 23/21 Q1006"}, "RJCO": {"temp": 26, "dewp": 22, "wdir": "VRB", "wspd": 3, "wgst": null, "reportTime": "2026-07-13T02:00:00.000Z", "rawOb": "METAR RJCO 130200Z VRB03KT 9999 FEW010 SCT015 BKN020 26/22 Q1005"}, "RJOO": {"temp": 32, "dewp": 25, "wdir": 210, "wspd": 6, "wgst": null, "reportTime": "2026-07-13T02:00:00.000Z", "rawOb": "METAR RJOO 130200Z 21006KT 150V260 9999 FEW030 SCT040 BKN/// 32/25 Q1010"}, "RJOT": {"temp": 32, "dewp": 26, "wdir": 260, "wspd": 7, "wgst": null, "reportTime": "2026-07-13T02:00:00.000Z", "rawOb": "METAR RJOT 130200Z 26007KT 230V300 9999 FEW020 SCT030 BKN/// 32/26 Q1012"}, "RJSS": {"temp": 28, "dewp": 22, "wdir": 290, "wspd": 13, "wgst": null, "reportTime": "2026-07-13T02:00:00.000Z", "rawOb": "METAR RJSS 130200Z 29013KT 9999 FEW020 BKN050 BKN/// 28/22 Q1005"}, "RJOB": {"temp": 31, "dewp": 25, "wdir": 230, "wspd": 6, "wgst": null, "reportTime": "2026-07-13T02:00:00.000Z", "rawOb": "METAR RJOB 130200Z 23006KT 9999 FEW020 BKN/// 31/25 Q1012"}, "RJEC": {"temp": 26, "dewp": 21, "wdir": "VRB", "wspd": 2, "wgst": null, "reportTime": "2026-07-13T02:00:00.000Z", "rawOb": "METAR RJEC 130200Z VRB02KT 9999 FEW020 SCT030 BKN/// 26/21 Q1005"}, "RJOA": {"temp": 29, "dewp": 26, "wdir": "VRB", "wspd": 3, "wgst": null, "reportTime": "2026-07-13T02:00:00.000Z", "rawOb": "METAR RJOA 130200Z VRB03KT 9999 FEW015 BKN020 BKN/// 29/26 Q1014"}, "RJOM": {"temp": 29, "dewp": 26, "wdir": 230, "wspd": 4, "wgst": null, "reportTime": "2026-07-13T02:00:00.000Z", "rawOb": "METAR RJOM 130200Z 23004KT 180V280 9999 FEW025 BKN/// 29/26 Q1012"}, "RJSK": {"temp": 26, "dewp": 22, "wdir": 280, "wspd": 10, "wgst": null, "reportTime": "2026-07-13T02:00:00.000Z", "rawOb": "METAR RJSK 130200Z 28010KT 9999 FEW005 SCT010 BKN020 26/22 Q1007"}, "_updated": "2026-07-13T04:02:07Z"}