{"RJTT": {"temp": 29, "dewp": 22, "wdir": 180, "wspd": 16, "wgst": null, "reportTime": "2026-07-11T05:30:00.000Z", "rawOb": "METAR RJTT 110530Z 18016KT 9999 FEW020 BKN/// 29/22 Q1013 NOSIG"}, "RJCB": {"temp": 24, "dewp": 24, "wdir": "VRB", "wspd": 2, "wgst": null, "reportTime": "2026-07-11T06:00:00.000Z", "rawOb": "METAR RJCB 110600Z VRB02KT 6000 -SHRA FEW004 SCT008 BKN040 24/24 Q1009"}, "RJSK": {"temp": 24, "dewp": 23, "wdir": 220, "wspd": 3, "wgst": null, "reportTime": "2026-07-11T06:00:00.000Z", "rawOb": "METAR RJSK 110600Z 22003KT 180V270 9999 -SHRA FEW003 SCT015 BKN035 24/23 Q1012"}, "RJBE": {"temp": 28, "dewp": 23, "wdir": 210, "wspd": 14, "wgst": null, "reportTime": "2026-07-11T06:00:00.000Z", "rawOb": "METAR RJBE 110600Z 21014KT 9999 FEW025 BKN/// 28/23 Q1013"}, "RJOO": {"temp": 31, "dewp": 21, "wdir": 230, "wspd": 7, "wgst": null, "reportTime": "2026-07-11T06:00:00.000Z", "rawOb": "METAR RJOO 110600Z 23007KT 170V290 9999 FEW030 BKN/// 31/21 Q1013"}, "RJGG": {"temp": 28, "dewp": 23, "wdir": 170, "wspd": 13, "wgst": null, "reportTime": "2026-07-11T05:30:00.000Z", "rawOb": "METAR RJGG 110530Z 17013KT 9999 FEW025 BKN/// 28/23 Q1013 NOSIG"}, "RJBB": {"temp": 28, "dewp": 23, "wdir": 240, "wspd": 14, "wgst": null, "reportTime": "2026-07-11T05:30:00.000Z", "rawOb": "METAR RJBB 110530Z 24014KT 9999 FEW025 BKN/// 28/23 Q1014 NOSIG"}, "RJFF": {"temp": 36, "dewp": 21, "wdir": "VRB", "wspd": 5, "wgst": null, "reportTime": "2026-07-11T05:30:00.000Z", "rawOb": "METAR RJFF 110530Z VRB05KT 9999 FEW020 SCT040 36/21 Q1010 BECMG 36008KT"}, "RJOM": {"temp": 29, "dewp": 24, "wdir": 270, "wspd": 6, "wgst": null, "reportTime": "2026-07-11T06:00:00.000Z", "rawOb": "METAR RJOM 110600Z 27006KT 9999 FEW030 29/24 Q1013"}, "RJCK": {"temp": 19, "dewp": 18, "wdir": 190, "wspd": 8, "wgst": null, "reportTime": "2026-07-11T06:00:00.000Z", "rawOb": "METAR RJCK 110600Z 19008KT 2000 R17/P2000N BCFG BR FEW001 SCT002 BKN003 19/18 Q1009"}, "RJOB": {"temp": 30, "dewp": 23, "wdir": 140, "wspd": 6, "wgst": null, "reportTime": "2026-07-11T06:00:00.000Z", "rawOb": "METAR RJOB 110600Z 14006KT 9999 FEW020 BKN/// 30/23 Q1014"}, "RJAA": {"temp": 30, "dewp": 23, "wdir": 130, "wspd": 10, "wgst": null, "reportTime": "2026-07-11T05:30:00.000Z", "rawOb": "METAR RJAA 110530Z 13010KT 9999 SCT030 BKN/// 30/23 Q1012 NOSIG"}, "RJSS": {"temp": 25, "dewp": 23, "wdir": "VRB", "wspd": 2, "wgst": null, "reportTime": "2026-07-11T06:00:00.000Z", "rawOb": "METAR RJSS 110600Z VRB02KT 9999 -SHRA FEW020 SCT040 BKN090 25/23 Q1012"}, "RJEC": {"temp": 24, "dewp": 22, "wdir": 170, "wspd": 7, "wgst": null, "reportTime": "2026-07-11T06:00:00.000Z", "rawOb": "METAR RJEC 110600Z 17007KT 9999 -SHRA FEW005 SCT015 BKN050 24/22 Q1009"}, "ROAH": {"temp": 29, "dewp": 26, "wdir": 140, "wspd": 34, "wgst": 48, "reportTime": "2026-07-11T05:30:00.000Z", "rawOb": "METAR ROAH 110530Z 14034G48KT 6000 VCSH FEW015 BKN025 BKN070 29/26 Q0998"}, "RJCO": {"temp": 24, "dewp": 23, "wdir": 120, "wspd": 8, "wgst": null, "reportTime": "2026-07-11T06:00:00.000Z", "rawOb": "METAR RJCO 110600Z 12008KT 9999 FEW006 BKN050 BKN100 24/23 Q1008"}, "RJOA": {"temp": 30, "dewp": 22, "wdir": 220, "wspd": 6, "wgst": null, "reportTime": "2026-07-11T06:00:00.000Z", "rawOb": "METAR RJOA 110600Z 22006KT 170V270 9999 SCT035 BKN/// 30/22 Q1015"}, "RJOT": {"temp": 31, "dewp": 25, "wdir": 60, "wspd": 7, "wgst": null, "reportTime": "2026-07-11T06:00:00.000Z", "rawOb": "METAR RJOT 110600Z 06007KT 030V090 9999 FEW025 SCT035 BKN/// 31/25 Q1014"}, "_updated": "2026-07-11T08:29:55Z"}