{"RJGG": {"temp": 31, "dewp": 25, "wdir": 310, "wspd": 7, "wgst": null, "reportTime": "2026-07-12T09:00:00.000Z", "rawOb": "METAR RJGG 120900Z 31007KT 9999 FEW020 BKN/// 31/25 Q1010 NOSIG"}, "RJBB": {"temp": 28, "dewp": 25, "wdir": 240, "wspd": 6, "wgst": null, "reportTime": "2026-07-12T09:00:00.000Z", "rawOb": "METAR RJBB 120900Z 24006KT 9999 FEW030 BKN/// 28/25 Q1012 NOSIG"}, "RJTT": {"temp": 27, "dewp": 24, "wdir": 220, "wspd": 8, "wgst": null, "reportTime": "2026-07-12T09:00:00.000Z", "rawOb": "METAR RJTT 120900Z 22008KT 9999 FEW030 SCT130 BKN150 27/24 Q1010 NOSIG"}, "RJFF": {"temp": 32, "dewp": 23, "wdir": 320, "wspd": 8, "wgst": null, "reportTime": "2026-07-12T09:00:00.000Z", "rawOb": "METAR RJFF 120900Z 32008KT 9999 FEW030 BKN/// 32/23 Q1012 TEMPO TL1000 -TSRA"}, "ROAH": {"temp": 28, "dewp": 26, "wdir": 150, "wspd": 19, "wgst": null, "reportTime": "2026-07-12T09:00:00.000Z", "rawOb": "METAR ROAH 120900Z 15019KT 9999 FEW009 SCT011 BKN/// 28/26 Q1009"}, "RJAA": {"temp": 27, "dewp": 24, "wdir": 210, "wspd": 4, "wgst": null, "reportTime": "2026-07-12T09:00:00.000Z", "rawOb": "METAR RJAA 120900Z 21004KT 170V240 9999 FEW020 BKN150 BKN/// 27/24 Q1009 NOSIG"}, "RJSS": {"temp": 28, "dewp": 21, "wdir": "VRB", "wspd": 2, "wgst": null, "reportTime": "2026-07-12T09:00:00.000Z", "rawOb": "METAR RJSS 120900Z VRB02KT 9999 FEW020 BKN050 BKN120 28/21 Q1005"}, "RJOO": {"temp": 31, "dewp": 23, "wdir": 180, "wspd": 6, "wgst": null, "reportTime": "2026-07-12T09:00:00.000Z", "rawOb": "METAR RJOO 120900Z 18006KT 150V210 9999 FEW030 SCT080 BKN/// 31/23 Q1011"}, "RJOM": {"temp": 27, "dewp": 25, "wdir": 290, "wspd": 6, "wgst": null, "reportTime": "2026-07-12T09:00:00.000Z", "rawOb": "METAR RJOM 120900Z 29006KT 9999 FEW040 BKN/// 27/25 Q1012"}, "RJSK": {"temp": 22, "dewp": 22, "wdir": 260, "wspd": 14, "wgst": null, "reportTime": "2026-07-12T09:00:00.000Z", "rawOb": "METAR RJSK 120900Z 26014KT 8000 -SHRA BR FEW000 SCT004 BKN005 22/22 Q1006"}, "RJCO": {"temp": 24, "dewp": 21, "wdir": 360, "wspd": 6, "wgst": null, "reportTime": "2026-07-12T09:00:00.000Z", "rawOb": "METAR RJCO 120900Z 36006KT 9999 FEW010 BKN025 BKN150 24/21 Q1004"}, "RJCK": {"temp": 17, "dewp": 17, "wdir": 170, "wspd": 6, "wgst": null, "reportTime": "2026-07-12T09:00:00.000Z", "rawOb": "METAR RJCK 120900Z 17006KT 0200 R17/0350V0500N FG VV001 17/17 Q1005"}, "RJOT": {"temp": 31, "dewp": 24, "wdir": 240, "wspd": 6, "wgst": null, "reportTime": "2026-07-12T09:00:00.000Z", "rawOb": "METAR RJOT 120900Z 24006KT 9999 FEW025 BKN/// 31/24 Q1013"}, "RJEC": {"temp": 23, "dewp": 22, "wdir": 180, "wspd": 2, "wgst": null, "reportTime": "2026-07-12T09:00:00.000Z", "rawOb": "METAR RJEC 120900Z 18002KT 9999 FEW001 SCT030 BKN/// 23/22 Q1004"}, "RJCB": {"temp": 22, "dewp": 21, "wdir": 90, "wspd": 3, "wgst": null, "reportTime": "2026-07-12T09:00:00.000Z", "rawOb": "METAR RJCB 120900Z 09003KT 9999 -SHRA FEW005 SCT010 BKN020 22/21 Q1005"}, "RJBE": {"temp": 28, "dewp": 25, "wdir": 220, "wspd": 8, "wgst": null, "reportTime": "2026-07-12T09:00:00.000Z", "rawOb": "METAR RJBE 120900Z 22008KT 9999 FEW030 BKN/// 28/25 Q1011"}, "RJOA": {"temp": 29, "dewp": 24, "wdir": "VRB", "wspd": 2, "wgst": null, "reportTime": "2026-07-12T09:00:00.000Z", "rawOb": "METAR RJOA 120900Z VRB02KT 9999 FEW025 BKN/// 29/24 Q1014"}, "RJOB": {"temp": 30, "dewp": 25, "wdir": 210, "wspd": 5, "wgst": null, "reportTime": "2026-07-12T09:00:00.000Z", "rawOb": "METAR RJOB 120900Z 21005KT 140V240 9999 FEW025 BKN/// 30/25 Q1013"}, "_updated": "2026-07-12T11:44:25Z"}