{"ROAH": {"temp": 28, "dewp": 27, "wdir": 230, "wspd": 8, "wgst": null, "reportTime": "2026-07-20T20:00:00.000Z", "rawOb": "METAR ROAH 202000Z AUTO 23008KT 9999 NCD 28/27 Q1009"}, "RJTT": {"temp": 27, "dewp": 26, "wdir": 180, "wspd": 6, "wgst": null, "reportTime": "2026-07-20T20:00:00.000Z", "rawOb": "METAR RJTT 202000Z 18006KT 9999 FEW006 BKN140 27/26 Q1008 NOSIG"}, "RJOA": {"temp": 25, "dewp": 24, "wdir": 310, "wspd": 2, "wgst": null, "reportTime": "2026-07-20T20:00:00.000Z", "rawOb": "METAR RJOA 202000Z AUTO 31002KT 6000 NCD 25/24 Q1011"}, "RJSS": {"temp": 26, "dewp": 25, "wdir": 210, "wspd": 4, "wgst": null, "reportTime": "2026-07-20T20:00:00.000Z", "rawOb": "METAR RJSS 202000Z AUTO 21004KT 8000 FEW070 26/25 Q1007"}, "RJAA": {"temp": 25, "dewp": 24, "wdir": 200, "wspd": 3, "wgst": null, "reportTime": "2026-07-20T20:00:00.000Z", "rawOb": "METAR RJAA 202000Z AUTO 20003KT 9999 NSC 25/24 Q1008 NOSIG"}, "RJBB": {"temp": 27, "dewp": 26, "wdir": 260, "wspd": 4, "wgst": null, "reportTime": "2026-07-20T20:00:00.000Z", "rawOb": "METAR RJBB 202000Z AUTO 26004KT 240V330 9999 NCD 27/26 Q1009 NOSIG"}, "RJGG": {"temp": 28, "dewp": 27, "wdir": 100, "wspd": 3, "wgst": null, "reportTime": "2026-07-20T20:00:00.000Z", "rawOb": "METAR RJGG 202000Z AUTO 10003KT 9999 NCD 28/27 Q1008 NOSIG"}, "RJFF": {"temp": 28, "dewp": 24, "wdir": "VRB", "wspd": 2, "wgst": null, "reportTime": "2026-07-20T20:00:00.000Z", "rawOb": "METAR RJFF 202000Z AUTO VRB02KT 9999 NSC 28/24 Q1009 NOSIG"}, "RJBE": {"temp": 29, "dewp": 26, "wdir": "VRB", "wspd": 2, "wgst": null, "reportTime": "2026-07-20T22:00:00.000Z", "rawOb": "METAR RJBE 202200Z VRB02KT 9999 FEW020 29/26 Q1010"}, "RJCK": {"temp": 19, "dewp": 19, "wdir": "VRB", "wspd": 2, "wgst": null, "reportTime": "2026-07-20T20:00:00.000Z", "rawOb": "METAR RJCK 202000Z AUTO VRB02KT 0300 R35/0200V0400D FG OVC000 19/19 Q1006"}, "RJOM": {"temp": 27, "dewp": 26, "wdir": 30, "wspd": 3, "wgst": null, "reportTime": "2026-07-20T20:00:00.000Z", "rawOb": "METAR RJOM 202000Z AUTO 03003KT 9999 NCD 27/26 Q1009"}, "RJEC": {"temp": 20, "dewp": 19, "wdir": 10, "wspd": 3, "wgst": null, "reportTime": "2026-07-20T20:00:00.000Z", "rawOb": "METAR RJEC 202000Z AUTO 01003KT 9999 OVC011 20/19 Q1008"}, "RJCO": {"temp": 23, "dewp": 21, "wdir": "VRB", "wspd": 1, "wgst": null, "reportTime": "2026-07-20T22:00:00.000Z", "rawOb": "METAR RJCO 202200Z VRB01KT 9999 FEW015 SCT020 23/21 Q1007"}, "RJOB": {"temp": 27, "dewp": 25, "wdir": 0, "wspd": 0, "wgst": null, "reportTime": "2026-07-20T22:00:00.000Z", "rawOb": "METAR RJOB 202200Z 00000KT 7000 PRFG FEW000 SCT050 27/25 Q1011"}, "RJOO": {"temp": 29, "dewp": 25, "wdir": "VRB", "wspd": 2, "wgst": null, "reportTime": "2026-07-20T20:00:00.000Z", "rawOb": "METAR RJOO 202000Z AUTO VRB02KT 9999 NCD 29/25 Q1009"}, "RJOT": {"temp": 26, "dewp": 25, "wdir": 220, "wspd": 5, "wgst": null, "reportTime": "2026-07-20T20:00:00.000Z", "rawOb": "METAR RJOT 202000Z AUTO 22005KT 9999 FEW035 SCT036 BKN038 26/25 Q1010"}, "RJSK": {"temp": 26, "dewp": 25, "wdir": 270, "wspd": 8, "wgst": null, "reportTime": "2026-07-20T22:00:00.000Z", "rawOb": "METAR RJSK 202200Z 27008KT 9000 FEW002 SCT004 BKN006 26/25 Q1009"}, "_updated": "2026-07-20T22:41:20Z"}