{"RJCK": {"temp": 21, "dewp": 21, "wdir": 50, "wspd": 4, "wgst": null, "reportTime": "2026-07-16T23:00:00.000Z", "rawOb": "METAR RJCK 162300Z 05004KT 0800 R17/1300VP2000N FG VV001 21/21 Q1007"}, "RJOA": {"temp": 26, "dewp": 21, "wdir": 320, "wspd": 3, "wgst": null, "reportTime": "2026-07-16T22:30:00.000Z", "rawOb": "METAR RJOA 162230Z 32003KT 9999 FEW025 BKN/// 26/21 Q1005"}, "RJOT": {"temp": 29, "dewp": 21, "wdir": 290, "wspd": 5, "wgst": null, "reportTime": "2026-07-16T23:00:00.000Z", "rawOb": "METAR RJOT 162300Z 29005KT 250V350 CAVOK 29/21 Q1004"}, "RJOO": {"temp": 30, "dewp": 22, "wdir": 40, "wspd": 5, "wgst": null, "reportTime": "2026-07-16T23:00:00.000Z", "rawOb": "METAR RJOO 162300Z 04005KT 360V090 9999 FEW030 BKN/// 30/22 Q1003"}, "RJBE": {"temp": 30, "dewp": 21, "wdir": 70, "wspd": 8, "wgst": null, "reportTime": "2026-07-16T23:00:00.000Z", "rawOb": "METAR RJBE 162300Z 07008KT CAVOK 30/21 Q1003"}, "RJCB": {"temp": 24, "dewp": 21, "wdir": "VRB", "wspd": 1, "wgst": null, "reportTime": "2026-07-16T23:00:00.000Z", "rawOb": "METAR RJCB 162300Z VRB01KT 9999 FEW003 24/21 Q1007"}, "RJCO": {"temp": 25, "dewp": 21, "wdir": 140, "wspd": 11, "wgst": null, "reportTime": "2026-07-16T23:00:00.000Z", "rawOb": "METAR RJCO 162300Z 14011KT 9999 FEW005 BKN230 25/21 Q1005"}, "RJOB": {"temp": 27, "dewp": 23, "wdir": 120, "wspd": 4, "wgst": null, "reportTime": "2026-07-16T23:00:00.000Z", "rawOb": "METAR RJOB 162300Z 12004KT 090V180 9999 FEW020 SCT110 BKN/// 27/23 Q1004"}, "RJOM": {"temp": 27, "dewp": 22, "wdir": 320, "wspd": 5, "wgst": null, "reportTime": "2026-07-16T23:00:00.000Z", "rawOb": "METAR RJOM 162300Z 32005KT 9999 FEW035 BKN/// 27/22 Q1003"}, "RJBB": {"temp": 29, "dewp": 24, "wdir": 310, "wspd": 3, "wgst": null, "reportTime": "2026-07-16T22:30:00.000Z", "rawOb": "METAR RJBB 162230Z 31003KT 280V340 9999 FEW025 BKN/// 29/24 Q1003 NOSIG"}, "RJAA": {"temp": 26, "dewp": 26, "wdir": 140, "wspd": 6, "wgst": null, "reportTime": "2026-07-16T22:30:00.000Z", "rawOb": "METAR RJAA 162230Z 14006KT 2500 -SHRA BR SCT003 BKN005 BKN015 26/26 Q1003 BECMG 4000 -SHRA BR"}, "RJSK": {"temp": 26, "dewp": 24, "wdir": "VRB", "wspd": 2, "wgst": null, "reportTime": "2026-07-16T23:00:00.000Z", "rawOb": "METAR RJSK 162300Z VRB02KT 9999 FEW030 BKN/// 26/24 Q1004"}, "RJTT": {"temp": 29, "dewp": 27, "wdir": 70, "wspd": 4, "wgst": null, "reportTime": "2026-07-16T22:30:00.000Z", "rawOb": "METAR RJTT 162230Z 07004KT 9999 FEW020 SCT030 BKN050 29/27 Q1003 NOSIG"}, "RJSS": {"temp": 24, "dewp": 24, "wdir": 40, "wspd": 6, "wgst": null, "reportTime": "2026-07-16T22:30:00.000Z", "rawOb": "METAR RJSS 162230Z 04006KT 0400 R27/0600V1100N FG VV002 24/24 Q1004"}, "RJGG": {"temp": 28, "dewp": 26, "wdir": 130, "wspd": 3, "wgst": null, "reportTime": "2026-07-16T22:30:00.000Z", "rawOb": "METAR RJGG 162230Z 13003KT 070V190 9999 FEW025 BKN/// 28/26 Q1003 NOSIG"}, "RJEC": {"temp": 23, "dewp": 21, "wdir": 280, "wspd": 4, "wgst": null, "reportTime": "2026-07-16T23:00:00.000Z", "rawOb": "METAR RJEC 162300Z 28004KT 230V340 9999 FEW004 BKN/// 23/21 Q1006"}, "RJFF": {"temp": 28, "dewp": 25, "wdir": 150, "wspd": 11, "wgst": null, "reportTime": "2026-07-16T22:30:00.000Z", "rawOb": "METAR RJFF 162230Z 15011KT 9999 FEW008 BKN180 28/25 Q1003 NOSIG"}, "ROAH": {"temp": 28, "dewp": 27, "wdir": 230, "wspd": 9, "wgst": null, "reportTime": "2026-07-16T22:30:00.000Z", "rawOb": "METAR ROAH 162230Z 23009KT 9999 FEW006 SCT007 BKN011 28/27 Q1007"}, "_updated": "2026-07-17T01:12:35Z"}