{"RJBB": {"temp": 32, "dewp": 27, "wdir": 260, "wspd": 4, "wgst": null, "reportTime": "2026-07-24T09:00:00.000Z", "rawOb": "METAR RJBB 240900Z 26004KT 9999 FEW035 32/27 Q1009 NOSIG"}, "RJGG": {"temp": 33, "dewp": 26, "wdir": 220, "wspd": 4, "wgst": null, "reportTime": "2026-07-24T09:00:00.000Z", "rawOb": "METAR RJGG 240900Z 22004KT 9999 FEW020 33/26 Q1008 BECMG TL0930 30014KT"}, "RJFF": {"temp": 32, "dewp": 25, "wdir": 310, "wspd": 7, "wgst": null, "reportTime": "2026-07-24T09:00:00.000Z", "rawOb": "METAR RJFF 240900Z 31007KT 280V350 9999 FEW035 32/25 Q1011 NOSIG"}, "RJAA": {"temp": 28, "dewp": 25, "wdir": 150, "wspd": 8, "wgst": null, "reportTime": "2026-07-24T09:00:00.000Z", "rawOb": "METAR RJAA 240900Z 15008KT 9999 TS VCSH FEW015 FEW020CB SCT040 BKN180 28/25 Q1009 TEMPO 4000 -TSRA BR"}, "RJTT": {"temp": 30, "dewp": 26, "wdir": 200, "wspd": 12, "wgst": null, "reportTime": "2026-07-24T09:00:00.000Z", "rawOb": "METAR RJTT 240900Z 20012KT 9999 FEW010 FEW030CB BKN/// 30/26 Q1009 TEMPO FM1030 -TSRA"}, "ROAH": {"temp": 30, "dewp": 28, "wdir": 140, "wspd": 12, "wgst": null, "reportTime": "2026-07-24T09:00:00.000Z", "rawOb": "METAR ROAH 240900Z 14012KT 9999 SHRA BR FEW015 SCT020 BKN/// 30/28 Q1010"}, "RJSK": {"temp": 25, "dewp": 21, "wdir": 160, "wspd": 4, "wgst": null, "reportTime": "2026-07-24T09:00:00.000Z", "rawOb": "METAR RJSK 240900Z 16004KT 120V200 9999 -SHRA FEW010 SCT015 BKN050 25/21 Q1010"}, "RJSS": {"temp": 24, "dewp": 23, "wdir": 100, "wspd": 6, "wgst": null, "reportTime": "2026-07-24T09:00:00.000Z", "rawOb": "METAR RJSS 240900Z 10006KT 4000 -SHRA BR FEW005 BKN007 BKN035 24/23 Q1011"}, "RJBE": {"temp": 34, "dewp": 25, "wdir": 250, "wspd": 9, "wgst": null, "reportTime": "2026-07-24T09:00:00.000Z", "rawOb": "METAR RJBE 240900Z 25009KT 9999 FEW035 34/25 Q1009"}, "RJCB": {"temp": 17, "dewp": 16, "wdir": 140, "wspd": 8, "wgst": null, "reportTime": "2026-07-24T09:00:00.000Z", "rawOb": "METAR RJCB 240900Z 14008KT 9999 FEW005 SCT007 BKN009 17/16 Q1015"}, "RJCK": {"temp": 14, "dewp": 14, "wdir": 190, "wspd": 7, "wgst": null, "reportTime": "2026-07-24T09:00:00.000Z", "rawOb": "METAR RJCK 240900Z 19007KT 2000 -SHRA BR FEW001 SCT002 BKN003 14/14 Q1015"}, "RJCO": {"temp": 24, "dewp": 20, "wdir": 130, "wspd": 8, "wgst": null, "reportTime": "2026-07-24T09:00:00.000Z", "rawOb": "METAR RJCO 240900Z 13008KT 9999 FEW030 BKN250 24/20 Q1012"}, "RJOA": {"temp": 33, "dewp": 23, "wdir": 230, "wspd": 4, "wgst": null, "reportTime": "2026-07-24T09:00:00.000Z", "rawOb": "METAR RJOA 240900Z 23004KT 190V260 9999 FEW030 33/23 Q1012"}, "RJOB": {"temp": 32, "dewp": 24, "wdir": 240, "wspd": 7, "wgst": null, "reportTime": "2026-07-24T09:00:00.000Z", "rawOb": "METAR RJOB 240900Z 24007KT 9999 FEW020 FEW025CB BKN/// 32/24 Q1011"}, "RJOM": {"temp": 32, "dewp": 23, "wdir": 200, "wspd": 6, "wgst": null, "reportTime": "2026-07-24T09:00:00.000Z", "rawOb": "METAR RJOM 240900Z 20006KT 9999 FEW035 32/23 Q1010"}, "RJOO": {"temp": 36, "dewp": 24, "wdir": 240, "wspd": 5, "wgst": null, "reportTime": "2026-07-24T09:00:00.000Z", "rawOb": "METAR RJOO 240900Z 24005KT 160V320 9999 FEW035 BKN045 36/24 Q1009"}, "RJEC": {"temp": 22, "dewp": 18, "wdir": 350, "wspd": 8, "wgst": null, "reportTime": "2026-07-24T09:00:00.000Z", "rawOb": "METAR RJEC 240900Z 35008KT 9999 FEW015 SCT030 BKN050 22/18 Q1012"}, "RJOT": {"temp": 31, "dewp": 22, "wdir": 240, "wspd": 7, "wgst": null, "reportTime": "2026-07-24T09:00:00.000Z", "rawOb": "METAR RJOT 240900Z 24007KT 9999 FEW030 31/22 Q1011"}, "_updated": "2026-07-24T11:48:34Z"}