{"RJFF": {"temp": 28, "dewp": 24, "wdir": "VRB", "wspd": 2, "wgst": null, "reportTime": "2026-07-22T17:00:00.000Z", "rawOb": "METAR RJFF 221700Z AUTO VRB02KT 9999 NCD 28/24 Q1009 NOSIG"}, "ROAH": {"temp": 29, "dewp": 26, "wdir": 120, "wspd": 3, "wgst": null, "reportTime": "2026-07-22T17:00:00.000Z", "rawOb": "METAR ROAH 221700Z AUTO 12003KT 9999 NCD 29/26 Q1009"}, "RJGG": {"temp": 30, "dewp": 26, "wdir": 310, "wspd": 15, "wgst": null, "reportTime": "2026-07-22T17:00:00.000Z", "rawOb": "METAR RJGG 221700Z AUTO 31015KT 9999 NCD 30/26 Q1007 NOSIG"}, "RJAA": {"temp": 27, "dewp": 26, "wdir": 250, "wspd": 2, "wgst": null, "reportTime": "2026-07-22T17:00:00.000Z", "rawOb": "METAR RJAA 221700Z AUTO 25002KT 9000 NSC 27/26 Q1006 NOSIG"}, "RJTT": {"temp": 29, "dewp": 27, "wdir": 200, "wspd": 4, "wgst": null, "reportTime": "2026-07-22T17:00:00.000Z", "rawOb": "METAR RJTT 221700Z 20004KT 160V250 CAVOK 29/27 Q1006 NOSIG"}, "RJBB": {"temp": 28, "dewp": 26, "wdir": 240, "wspd": 5, "wgst": null, "reportTime": "2026-07-22T17:00:00.000Z", "rawOb": "METAR RJBB 221700Z AUTO 24005KT 9999 NSC 28/26 Q1009 BECMG 09004KT"}, "RJCK": {"temp": 18, "dewp": 18, "wdir": 20, "wspd": 4, "wgst": null, "reportTime": "2026-07-22T17:00:00.000Z", "rawOb": "METAR RJCK 221700Z AUTO 02004KT 350V050 0100 R17/0275V0500D FG OVC000 18/18 Q1007"}, "RJOM": {"temp": 28, "dewp": 23, "wdir": 120, "wspd": 4, "wgst": null, "reportTime": "2026-07-22T17:00:00.000Z", "rawOb": "METAR RJOM 221700Z AUTO 12004KT 9999 NCD 28/23 Q1009"}, "RJOO": {"temp": 29, "dewp": 24, "wdir": 310, "wspd": 6, "wgst": null, "reportTime": "2026-07-22T17:00:00.000Z", "rawOb": "METAR RJOO 221700Z AUTO 31006KT 9999 FEW048 29/24 Q1008"}, "RJOT": {"temp": 27, "dewp": 24, "wdir": 230, "wspd": 7, "wgst": null, "reportTime": "2026-07-22T17:00:00.000Z", "rawOb": "METAR RJOT 221700Z AUTO 23007KT 9999 SCT060 27/24 Q1010"}, "RJSS": {"temp": 27, "dewp": 23, "wdir": "VRB", "wspd": 1, "wgst": null, "reportTime": "2026-07-22T17:00:00.000Z", "rawOb": "METAR RJSS 221700Z AUTO VRB01KT 9999 NCD 27/23 Q1006"}, "RJEC": {"temp": 19, "dewp": 18, "wdir": 250, "wspd": 1, "wgst": null, "reportTime": "2026-07-22T17:00:00.000Z", "rawOb": "METAR RJEC 221700Z AUTO 25001KT 9999 BKN003 OVC007 19/18 Q1008"}, "RJOA": {"temp": 26, "dewp": 23, "wdir": 30, "wspd": 2, "wgst": null, "reportTime": "2026-07-22T17:00:00.000Z", "rawOb": "METAR RJOA 221700Z AUTO 03002KT 9999 NCD 26/23 Q1011"}, "_updated": "2026-07-22T19:48:38Z"}