{"RJGG": {"temp": 27, "dewp": 24, "wdir": 70, "wspd": 2, "wgst": null, "reportTime": "2026-07-16T20:00:00.000Z", "rawOb": "METAR RJGG 162000Z AUTO 07002KT 9999 NCD 27/24 Q1002 NOSIG"}, "RJFF": {"temp": 28, "dewp": 25, "wdir": 150, "wspd": 10, "wgst": null, "reportTime": "2026-07-16T20:00:00.000Z", "rawOb": "METAR RJFF 162000Z AUTO 15010KT 9999 NSC 28/25 Q1002 NOSIG"}, "RJSS": {"temp": 23, "dewp": 23, "wdir": 40, "wspd": 4, "wgst": null, "reportTime": "2026-07-16T20:00:00.000Z", "rawOb": "METAR RJSS 162000Z AUTO 04004KT 0000 R27/0075V0400N FG OVC000 23/23 Q1004"}, "RJTT": {"temp": 28, "dewp": 26, "wdir": 10, "wspd": 4, "wgst": null, "reportTime": "2026-07-16T20:00:00.000Z", "rawOb": "METAR RJTT 162000Z 01004KT 9999 FEW015 BKN030 28/26 Q1003 NOSIG"}, "ROAH": {"temp": 27, "dewp": 27, "wdir": 240, "wspd": 11, "wgst": null, "reportTime": "2026-07-16T20:00:00.000Z", "rawOb": "METAR ROAH 162000Z AUTO 24011KT 9999 BKN005 27/27 Q1007"}, "RJAA": {"temp": 26, "dewp": 25, "wdir": 160, "wspd": 4, "wgst": null, "reportTime": "2026-07-16T20:00:00.000Z", "rawOb": "METAR RJAA 162000Z AUTO 16004KT 3900 BR OVC002 26/25 Q1003 NOSIG"}, "RJOA": {"temp": 24, "dewp": 21, "wdir": "VRB", "wspd": 1, "wgst": null, "reportTime": "2026-07-16T20:00:00.000Z", "rawOb": "METAR RJOA 162000Z AUTO VRB01KT 9999 NCD 24/21 Q1005"}, "RJBB": {"temp": 28, "dewp": 24, "wdir": 140, "wspd": 4, "wgst": null, "reportTime": "2026-07-16T20:00:00.000Z", "rawOb": "METAR RJBB 162000Z AUTO 14004KT 9999 NCD 28/24 Q1002 NOSIG"}, "RJSK": {"temp": 25, "dewp": 23, "wdir": 170, "wspd": 3, "wgst": null, "reportTime": "2026-07-16T22:00:00.000Z", "rawOb": "METAR RJSK 162200Z 17003KT 130V220 9999 FEW001 BKN/// 25/23 Q1004"}, "RJEC": {"temp": 19, "dewp": 18, "wdir": 220, "wspd": 2, "wgst": null, "reportTime": "2026-07-16T20:00:00.000Z", "rawOb": "METAR RJEC 162000Z AUTO 22002KT //// // NCD 19/18 Q1006"}, "RJCO": {"temp": 24, "dewp": 21, "wdir": 130, "wspd": 9, "wgst": null, "reportTime": "2026-07-16T22:00:00.000Z", "rawOb": "METAR RJCO 162200Z 13009KT 9999 FEW005 BKN230 24/21 Q1005"}, "RJCK": {"temp": 20, "dewp": 20, "wdir": 60, "wspd": 3, "wgst": null, "reportTime": "2026-07-16T20:00:00.000Z", "rawOb": "METAR RJCK 162000Z AUTO 06003KT 0100 R35/0325N FG OVC000 20/20 Q1006"}, "RJBE": {"temp": 29, "dewp": 21, "wdir": 50, "wspd": 7, "wgst": null, "reportTime": "2026-07-16T22:00:00.000Z", "rawOb": "METAR RJBE 162200Z 05007KT 9999 FEW025 BKN/// 29/21 Q1002"}, "RJOT": {"temp": 23, "dewp": 21, "wdir": 140, "wspd": 7, "wgst": null, "reportTime": "2026-07-16T20:00:00.000Z", "rawOb": "METAR RJOT 162000Z AUTO 14007KT 9999 NCD 23/21 Q1004"}, "RJOO": {"temp": 26, "dewp": 20, "wdir": 310, "wspd": 5, "wgst": null, "reportTime": "2026-07-16T20:00:00.000Z", "rawOb": "METAR RJOO 162000Z AUTO 31005KT 9999 NCD 26/20 Q1002"}, "RJOB": {"temp": 26, "dewp": 23, "wdir": "VRB", "wspd": 2, "wgst": null, "reportTime": "2026-07-16T22:00:00.000Z", "rawOb": "METAR RJOB 162200Z VRB02KT 9999 FEW020 BKN/// 26/23 Q1004"}, "RJOM": {"temp": 27, "dewp": 21, "wdir": 110, "wspd": 7, "wgst": null, "reportTime": "2026-07-16T20:00:00.000Z", "rawOb": "METAR RJOM 162000Z AUTO 11007KT 9999 NCD 27/21 Q1002"}, "_updated": "2026-07-16T22:39:20Z"}