{"RJCB": {"temp": 22, "dewp": 20, "wdir": 320, "wspd": 3, "wgst": null, "reportTime": "2026-07-22T23:00:00.000Z", "rawOb": "METAR RJCB 222300Z 32003KT 270V010 9999 FEW005 SCT009 BKN010 22/20 Q1009"}, "RJAA": {"temp": 30, "dewp": 26, "wdir": 60, "wspd": 5, "wgst": null, "reportTime": "2026-07-22T22:30:00.000Z", "rawOb": "METAR RJAA 222230Z 06005KT 010V100 9999 FEW020 30/26 Q1007 NOSIG"}, "RJCK": {"temp": 22, "dewp": 20, "wdir": "VRB", "wspd": 2, "wgst": null, "reportTime": "2026-07-22T23:00:00.000Z", "rawOb": "METAR RJCK 222300Z VRB02KT 9999 FEW006 SCT010 22/20 Q1009"}, "RJFF": {"temp": 29, "dewp": 24, "wdir": 140, "wspd": 6, "wgst": null, "reportTime": "2026-07-22T22:30:00.000Z", "rawOb": "METAR RJFF 222230Z 14006KT 090V180 9999 FEW015 29/24 Q1010 NOSIG"}, "RJCO": {"temp": 23, "dewp": 21, "wdir": 340, "wspd": 3, "wgst": null, "reportTime": "2026-07-22T23:00:00.000Z", "rawOb": "METAR RJCO 222300Z 34003KT 9999 FEW010 BKN015 23/21 Q1009"}, "RJEC": {"temp": 20, "dewp": 19, "wdir": "VRB", "wspd": 2, "wgst": null, "reportTime": "2026-07-22T23:00:00.000Z", "rawOb": "METAR RJEC 222300Z VRB02KT 6000 FEW001 SCT005 BKN011 20/19 Q1010"}, "RJOT": {"temp": 30, "dewp": 24, "wdir": 250, "wspd": 4, "wgst": null, "reportTime": "2026-07-22T23:00:00.000Z", "rawOb": "METAR RJOT 222300Z 25004KT 210V280 9999 FEW035 30/24 Q1011"}, "RJSK": {"temp": 25, "dewp": 24, "wdir": 270, "wspd": 7, "wgst": null, "reportTime": "2026-07-22T23:00:00.000Z", "rawOb": "METAR RJSK 222300Z 27007KT 9999 FEW003 SCT025 BKN030 25/24 Q1008"}, "RJOB": {"temp": 29, "dewp": 23, "wdir": "VRB", "wspd": 1, "wgst": null, "reportTime": "2026-07-22T23:00:00.000Z", "rawOb": "METAR RJOB 222300Z VRB01KT 9999 FEW010 29/23 Q1011"}, "RJSS": {"temp": 29, "dewp": 23, "wdir": "VRB", "wspd": 2, "wgst": null, "reportTime": "2026-07-22T22:30:00.000Z", "rawOb": "METAR RJSS 222230Z VRB02KT 9999 FEW030 SCT/// 29/23 Q1007"}, "RJBB": {"temp": 30, "dewp": 26, "wdir": 250, "wspd": 4, "wgst": null, "reportTime": "2026-07-22T22:30:00.000Z", "rawOb": "METAR RJBB 222230Z 25004KT 9999 FEW040 SCT/// 30/26 Q1009 NOSIG"}, "RJTT": {"temp": 31, "dewp": 26, "wdir": 70, "wspd": 6, "wgst": null, "reportTime": "2026-07-22T22:30:00.000Z", "rawOb": "METAR RJTT 222230Z 07006KT CAVOK 31/26 Q1007 NOSIG"}, "RJOM": {"temp": 30, "dewp": 25, "wdir": 230, "wspd": 3, "wgst": null, "reportTime": "2026-07-22T23:00:00.000Z", "rawOb": "METAR RJOM 222300Z 23003KT 150V260 CAVOK 30/25 Q1010"}, "ROAH": {"temp": 30, "dewp": 27, "wdir": 100, "wspd": 5, "wgst": null, "reportTime": "2026-07-22T22:30:00.000Z", "rawOb": "METAR ROAH 222230Z 10005KT 9999 FEW020 30/27 Q1009"}, "RJOO": {"temp": 32, "dewp": 23, "wdir": 320, "wspd": 5, "wgst": null, "reportTime": "2026-07-22T23:00:00.000Z", "rawOb": "METAR RJOO 222300Z 32005KT 9999 FEW030 32/23 Q1009"}, "RJOA": {"temp": 28, "dewp": 24, "wdir": "VRB", "wspd": 1, "wgst": null, "reportTime": "2026-07-22T22:30:00.000Z", "rawOb": "METAR RJOA 222230Z VRB01KT 9999 FEW010 28/24 Q1012"}, "RJBE": {"temp": 30, "dewp": 26, "wdir": "VRB", "wspd": 5, "wgst": null, "reportTime": "2026-07-22T23:00:00.000Z", "rawOb": "METAR RJBE 222300Z VRB05KT 9000 FEW030 30/26 Q1009"}, "RJGG": {"temp": 31, "dewp": 24, "wdir": 280, "wspd": 10, "wgst": null, "reportTime": "2026-07-22T22:30:00.000Z", "rawOb": "METAR RJGG 222230Z 28010KT 9999 FEW030 31/24 Q1008 NOSIG"}, "_updated": "2026-07-23T01:14:05Z"}