{"RJTT": {"temp": 27, "dewp": 25, "wdir": 190, "wspd": 11, "wgst": null, "reportTime": "2026-07-15T17:00:00.000Z", "rawOb": "METAR RJTT 151700Z 19011KT 9999 FEW007 SCT013 BKN017 27/25 Q1000 TEMPO FEW003 BKN012"}, "ROAH": {"temp": 27, "dewp": 27, "wdir": 240, "wspd": 11, "wgst": null, "reportTime": "2026-07-15T17:00:00.000Z", "rawOb": "METAR ROAH 151700Z AUTO 24011KT 9999 FEW004 SCT007 OVC010 27/27 Q1010"}, "RJFF": {"temp": 29, "dewp": 25, "wdir": 140, "wspd": 6, "wgst": null, "reportTime": "2026-07-15T17:00:00.000Z", "rawOb": "METAR RJFF 151700Z AUTO 14006KT 9999 BKN025 OVC032 29/25 Q1003 NOSIG"}, "RJAA": {"temp": 26, "dewp": 25, "wdir": 140, "wspd": 4, "wgst": null, "reportTime": "2026-07-15T17:00:00.000Z", "rawOb": "METAR RJAA 151700Z AUTO 14004KT 8000 OVC017 26/25 Q1000 TEMPO 4000 BR FEW008 BKN012"}, "RJBB": {"temp": 27, "dewp": 24, "wdir": 230, "wspd": 4, "wgst": null, "reportTime": "2026-07-15T17:00:00.000Z", "rawOb": "METAR RJBB 151700Z AUTO 23004KT 9999 NCD 27/24 Q1002 NOSIG"}, "RJGG": {"temp": 29, "dewp": 26, "wdir": 240, "wspd": 8, "wgst": null, "reportTime": "2026-07-15T17:00:00.000Z", "rawOb": "METAR RJGG 151700Z AUTO 24008KT 9999 NSC 29/26 Q1000 BECMG FM1800 28004KT"}, "RJOA": {"temp": 26, "dewp": 23, "wdir": 230, "wspd": 2, "wgst": null, "reportTime": "2026-07-15T17:00:00.000Z", "rawOb": "METAR RJOA 151700Z AUTO 23002KT 9999 BKN016 OVC018 26/23 Q1004"}, "RJCK": {"temp": 18, "dewp": 18, "wdir": 160, "wspd": 8, "wgst": null, "reportTime": "2026-07-15T17:00:00.000Z", "rawOb": "METAR RJCK 151700Z AUTO 16008KT 0100 R17/0500N FG OVC000 18/18 Q0999"}, "RJEC": {"temp": 22, "dewp": 21, "wdir": 160, "wspd": 11, "wgst": null, "reportTime": "2026-07-15T17:00:00.000Z", "rawOb": "METAR RJEC 151700Z AUTO 16011KT 9999 RA FEW060 BKN080 BKN090 22/21 Q0993"}, "RJSS": {"temp": 25, "dewp": 25, "wdir": 260, "wspd": 3, "wgst": null, "reportTime": "2026-07-15T17:00:00.000Z", "rawOb": "METAR RJSS 151700Z AUTO 26003KT 6000 NSC 25/25 Q0999"}, "RJOT": {"temp": 26, "dewp": 24, "wdir": 180, "wspd": 4, "wgst": null, "reportTime": "2026-07-15T17:00:00.000Z", "rawOb": "METAR RJOT 151700Z AUTO 18004KT 9999 FEW040 SCT045 BKN046 26/24 Q1003"}, "RJOO": {"temp": 29, "dewp": 23, "wdir": 220, "wspd": 4, "wgst": null, "reportTime": "2026-07-15T17:00:00.000Z", "rawOb": "METAR RJOO 151700Z AUTO 22004KT 150V280 9999 FEW047 BKN050 BKN060 29/23 Q1001"}, "RJOM": {"temp": 27, "dewp": 25, "wdir": "VRB", "wspd": 2, "wgst": null, "reportTime": "2026-07-15T17:00:00.000Z", "rawOb": "METAR RJOM 151700Z AUTO VRB02KT 9999 FEW038 SCT050 27/25 Q1002"}, "_updated": "2026-07-15T19:52:40Z"}