{"RJBB": {"temp": 28, "dewp": 26, "wdir": 50, "wspd": 2, "wgst": null, "reportTime": "2026-07-18T21:00:00.000Z", "rawOb": "METAR RJBB 182100Z 05002KT 9999 FEW030 28/26 Q1007 NOSIG"}, "RJTT": {"temp": 27, "dewp": 24, "wdir": 190, "wspd": 9, "wgst": null, "reportTime": "2026-07-18T21:00:00.000Z", "rawOb": "METAR RJTT 182100Z 19009KT 9999 FEW013 BKN060 BKN/// 27/24 Q1008 NOSIG"}, "RJAA": {"temp": 25, "dewp": 24, "wdir": 160, "wspd": 5, "wgst": null, "reportTime": "2026-07-18T21:00:00.000Z", "rawOb": "METAR RJAA 182100Z 16005KT 9999 FEW010 25/24 Q1008 NOSIG"}, "ROAH": {"temp": 27, "dewp": 27, "wdir": 200, "wspd": 5, "wgst": null, "reportTime": "2026-07-18T21:00:00.000Z", "rawOb": "METAR ROAH 182100Z 20005KT 8000 BKN003 27/27 Q1007"}, "RJGG": {"temp": 27, "dewp": 25, "wdir": 130, "wspd": 9, "wgst": null, "reportTime": "2026-07-18T21:00:00.000Z", "rawOb": "METAR RJGG 182100Z 13009KT 9999 -SHRA FEW010 SCT013 BKN030 27/25 Q1007 NOSIG"}, "RJFF": {"temp": 28, "dewp": 25, "wdir": 140, "wspd": 11, "wgst": null, "reportTime": "2026-07-18T21:00:00.000Z", "rawOb": "METAR RJFF 182100Z 14011KT 9999 FEW020 SCT030 28/25 Q1005 NOSIG"}, "RJBE": {"temp": 29, "dewp": 25, "wdir": 60, "wspd": 6, "wgst": null, "reportTime": "2026-07-18T22:00:00.000Z", "rawOb": "METAR RJBE 182200Z 06006KT 9999 FEW030 SCT050 29/25 Q1007"}, "RJCB": {"temp": 19, "dewp": 19, "wdir": 150, "wspd": 12, "wgst": null, "reportTime": "2026-07-18T23:00:00.000Z", "rawOb": "METAR RJCB 182300Z 15012KT 6000 SHRA FEW003 BKN004 BKN005 19/19 Q1008"}, "RJCK": {"temp": 19, "dewp": 19, "wdir": 140, "wspd": 14, "wgst": null, "reportTime": "2026-07-18T21:00:00.000Z", "rawOb": "METAR RJCK 182100Z AUTO 14014KT 0500 R17/0650V1200D -RA FG OVC001 19/19 Q1009"}, "RJCO": {"temp": 21, "dewp": 20, "wdir": 150, "wspd": 15, "wgst": null, "reportTime": "2026-07-18T22:00:00.000Z", "rawOb": "METAR RJCO 182200Z 15015KT 9999 FEW010 BKN040 BKN080 21/20 Q1004"}, "RJEC": {"temp": 20, "dewp": 19, "wdir": 60, "wspd": 3, "wgst": null, "reportTime": "2026-07-18T21:00:00.000Z", "rawOb": "METAR RJEC 182100Z AUTO 06003KT 030V110 9999 BKN060 BKN110 OVC160 20/19 Q1005"}, "RJOA": {"temp": 26, "dewp": 23, "wdir": 310, "wspd": 2, "wgst": null, "reportTime": "2026-07-18T21:00:00.000Z", "rawOb": "METAR RJOA 182100Z AUTO 31002KT 9999 NCD 26/23 Q1008"}, "RJOB": {"temp": 27, "dewp": 25, "wdir": 60, "wspd": 4, "wgst": null, "reportTime": "2026-07-18T22:00:00.000Z", "rawOb": "METAR RJOB 182200Z 06004KT 6000 FEW007 SCT030 27/25 Q1008"}, "RJOM": {"temp": 27, "dewp": 24, "wdir": 100, "wspd": 3, "wgst": null, "reportTime": "2026-07-18T21:00:00.000Z", "rawOb": "METAR RJOM 182100Z AUTO 10003KT 9999 NCD 27/24 Q1006"}, "RJOO": {"temp": 28, "dewp": 24, "wdir": 80, "wspd": 5, "wgst": null, "reportTime": "2026-07-18T21:00:00.000Z", "rawOb": "METAR RJOO 182100Z AUTO 08005KT 9999 NCD 28/24 Q1007"}, "RJOT": {"temp": 25, "dewp": 24, "wdir": 150, "wspd": 4, "wgst": null, "reportTime": "2026-07-18T21:00:00.000Z", "rawOb": "METAR RJOT 182100Z AUTO 15004KT 130V210 9999 NSC 25/24 Q1007"}, "RJSK": {"temp": 26, "dewp": 23, "wdir": 120, "wspd": 6, "wgst": null, "reportTime": "2026-07-18T22:00:00.000Z", "rawOb": "METAR RJSK 182200Z 12006KT 090V160 9999 -SHRA FEW020 SCT035 BKN040 26/23 Q1006"}, "RJSS": {"temp": 22, "dewp": 21, "wdir": "VRB", "wspd": 1, "wgst": null, "reportTime": "2026-07-18T21:00:00.000Z", "rawOb": "METAR RJSS 182100Z AUTO VRB01KT 9999 SCT002 OVC025 22/21 Q1007"}, "_updated": "2026-07-18T23:57:14Z"}