{"ROAH": {"temp": 29, "dewp": 24, "wdir": 50, "wspd": 16, "wgst": null, "reportTime": "2026-07-08T13:00:00.000Z", "rawOb": "METAR ROAH 081300Z 05016KT 9999 FEW020 29/24 Q1007"}, "RJOA": {"temp": 25, "dewp": 23, "wdir": "VRB", "wspd": 1, "wgst": null, "reportTime": "2026-07-08T13:00:00.000Z", "rawOb": "METAR RJOA 081300Z VRB01KT 9999 FEW010 25/23 Q1014"}, "RJOM": {"temp": 24, "dewp": 23, "wdir": 230, "wspd": 5, "wgst": null, "reportTime": "2026-07-08T13:00:00.000Z", "rawOb": "METAR RJOM 081300Z AUTO 23005KT 9999 FEW033 24/23 Q1012"}, "RJOO": {"temp": 26, "dewp": 21, "wdir": 230, "wspd": 4, "wgst": null, "reportTime": "2026-07-08T13:00:00.000Z", "rawOb": "METAR RJOO 081300Z AUTO 23004KT 140V300 9999 SCT040 26/21 Q1014"}, "RJOT": {"temp": 24, "dewp": 24, "wdir": "VRB", "wspd": 2, "wgst": null, "reportTime": "2026-07-08T13:00:00.000Z", "rawOb": "METAR RJOT 081300Z AUTO VRB02KT 9999 NCD 24/24 Q1013"}, "RJSS": {"temp": 22, "dewp": 20, "wdir": 150, "wspd": 3, "wgst": null, "reportTime": "2026-07-08T13:00:00.000Z", "rawOb": "METAR RJSS 081300Z AUTO 15003KT 9999 BKN006 OVC009 22/20 Q1014"}, "RJTT": {"temp": 24, "dewp": 20, "wdir": 160, "wspd": 7, "wgst": null, "reportTime": "2026-07-08T13:00:00.000Z", "rawOb": "METAR RJTT 081300Z 16007KT 110V200 9999 FEW020 BKN/// 24/20 Q1015 NOSIG"}, "RJBB": {"temp": 25, "dewp": 21, "wdir": 210, "wspd": 7, "wgst": null, "reportTime": "2026-07-08T13:00:00.000Z", "rawOb": "METAR RJBB 081300Z 21007KT 9999 FEW025 BKN/// 25/21 Q1014 NOSIG"}, "RJCK": {"temp": 16, "dewp": 16, "wdir": 200, "wspd": 2, "wgst": null, "reportTime": "2026-07-08T13:00:00.000Z", "rawOb": "METAR RJCK 081300Z AUTO 20002KT 0800 R35/0375V0800U FG OVC001 16/16 Q1016"}, "RJEC": {"temp": 21, "dewp": 18, "wdir": 100, "wspd": 4, "wgst": null, "reportTime": "2026-07-08T13:00:00.000Z", "rawOb": "METAR RJEC 081300Z AUTO 10004KT 9999 FEW028 SCT050 OVC200 21/18 Q1014"}, "RJAA": {"temp": 21, "dewp": 21, "wdir": 180, "wspd": 1, "wgst": null, "reportTime": "2026-07-08T13:00:00.000Z", "rawOb": "METAR RJAA 081300Z 18001KT 9999 FEW030 SCT080 21/21 Q1015 NOSIG"}, "RJFF": {"temp": 29, "dewp": 25, "wdir": 20, "wspd": 3, "wgst": null, "reportTime": "2026-07-08T13:00:00.000Z", "rawOb": "METAR RJFF 081300Z 02003KT 330V060 9999 FEW020 BKN030 29/25 Q1010 NOSIG"}, "RJGG": {"temp": 24, "dewp": 21, "wdir": 140, "wspd": 6, "wgst": null, "reportTime": "2026-07-08T13:00:00.000Z", "rawOb": "METAR RJGG 081300Z 14006KT 9999 FEW020 BKN/// 24/21 Q1014 NOSIG"}, "RJBE": {"temp": 25, "dewp": 22, "wdir": 210, "wspd": 7, "wgst": null, "reportTime": "2026-07-08T13:00:00.000Z", "rawOb": "METAR RJBE 081300Z 21007KT 9999 FEW015 SCT040 BKN060 25/22 Q1014"}, "_updated": "2026-07-08T15:35:44Z"}