{"ROAH": {"temp": 30, "dewp": 28, "wdir": 240, "wspd": 8, "wgst": null, "reportTime": "2026-07-16T06:30:00.000Z", "rawOb": "METAR ROAH 160630Z 24008KT 9999 FEW005 BKN/// 30/28 Q1008"}, "RJAA": {"temp": 31, "dewp": 26, "wdir": 130, "wspd": 8, "wgst": null, "reportTime": "2026-07-16T06:30:00.000Z", "rawOb": "METAR RJAA 160630Z 13008KT 100V160 9999 FEW015 BKN/// 31/26 Q1000 NOSIG"}, "RJBB": {"temp": 32, "dewp": 23, "wdir": 240, "wspd": 5, "wgst": null, "reportTime": "2026-07-16T06:30:00.000Z", "rawOb": "METAR RJBB 160630Z 24005KT 180V260 9999 FEW030 SCT/// 32/23 Q1001 NOSIG"}, "RJGG": {"temp": 34, "dewp": 25, "wdir": 250, "wspd": 3, "wgst": null, "reportTime": "2026-07-16T06:30:00.000Z", "rawOb": "METAR RJGG 160630Z 25003KT 9999 FEW020 BKN/// 34/25 Q0999 BECMG TL0730 28005KT"}, "RJTT": {"temp": 32, "dewp": 27, "wdir": 100, "wspd": 4, "wgst": null, "reportTime": "2026-07-16T06:30:00.000Z", "rawOb": "METAR RJTT 160630Z 10004KT 9999 FEW030 BKN/// 32/27 Q1000 NOSIG"}, "RJFF": {"temp": 32, "dewp": 26, "wdir": 330, "wspd": 15, "wgst": null, "reportTime": "2026-07-16T06:30:00.000Z", "rawOb": "METAR RJFF 160630Z 33015KT 9999 FEW025 BKN/// 32/26 Q1002 NOSIG"}, "RJCB": {"temp": 30, "dewp": 25, "wdir": 180, "wspd": 6, "wgst": null, "reportTime": "2026-07-16T07:00:00.000Z", "rawOb": "METAR RJCB 160700Z 18006KT 150V210 9999 FEW025 30/25 Q0999"}, "RJCK": {"temp": 20, "dewp": 18, "wdir": 160, "wspd": 3, "wgst": null, "reportTime": "2026-07-16T07:00:00.000Z", "rawOb": "METAR RJCK 160700Z 16003KT 110V210 9999 PRFG FEW001 20/18 Q0999"}, "RJOO": {"temp": 34, "dewp": 22, "wdir": 210, "wspd": 7, "wgst": null, "reportTime": "2026-07-16T07:00:00.000Z", "rawOb": "METAR RJOO 160700Z 21007KT 110V270 9999 FEW030 SCT070 34/22 Q1000"}, "RJSK": {"temp": 30, "dewp": 23, "wdir": 290, "wspd": 7, "wgst": null, "reportTime": "2026-07-16T07:00:00.000Z", "rawOb": "METAR RJSK 160700Z 29007KT 250V320 9999 FEW030 30/23 Q1001"}, "RJSS": {"temp": 25, "dewp": 23, "wdir": 140, "wspd": 9, "wgst": null, "reportTime": "2026-07-16T07:00:00.000Z", "rawOb": "METAR RJSS 160700Z 14009KT 9999 FEW005 SCT030 BKN/// 25/23 Q1001"}, "RJBE": {"temp": 32, "dewp": 24, "wdir": 230, "wspd": 10, "wgst": null, "reportTime": "2026-07-16T07:00:00.000Z", "rawOb": "METAR RJBE 160700Z 23010KT 9999 FEW030 32/24 Q1000"}, "RJCO": {"temp": 29, "dewp": 23, "wdir": 350, "wspd": 7, "wgst": null, "reportTime": "2026-07-16T07:00:00.000Z", "rawOb": "METAR RJCO 160700Z 35007KT 9999 FEW030 29/23 Q0999"}, "RJEC": {"temp": 29, "dewp": 21, "wdir": 260, "wspd": 7, "wgst": null, "reportTime": "2026-07-16T07:00:00.000Z", "rawOb": "METAR RJEC 160700Z 26007KT 9999 FEW025 SCT050 29/21 Q1000"}, "RJOA": {"temp": 30, "dewp": 23, "wdir": 210, "wspd": 5, "wgst": null, "reportTime": "2026-07-16T07:00:00.000Z", "rawOb": "METAR RJOA 160700Z 21005KT 160V270 9999 FEW030 SCT/// 30/23 Q1003"}, "RJOB": {"temp": 33, "dewp": 24, "wdir": 180, "wspd": 8, "wgst": null, "reportTime": "2026-07-16T07:00:00.000Z", "rawOb": "METAR RJOB 160700Z 18008KT 9999 FEW030 33/24 Q1002"}, "RJOT": {"temp": 33, "dewp": 21, "wdir": 250, "wspd": 8, "wgst": null, "reportTime": "2026-07-16T07:00:00.000Z", "rawOb": "METAR RJOT 160700Z 25008KT 200V290 9999 FEW030 33/21 Q1002"}, "RJOM": {"temp": 33, "dewp": 24, "wdir": 200, "wspd": 9, "wgst": null, "reportTime": "2026-07-16T07:00:00.000Z", "rawOb": "METAR RJOM 160700Z 20009KT 9999 FEW035 SCT/// 33/24 Q1001"}, "_updated": "2026-07-16T09:03:36Z"}