{"RJFF": {"temp": 29, "dewp": 26, "wdir": 140, "wspd": 8, "wgst": null, "reportTime": "2026-07-19T20:30:00.000Z", "rawOb": "METAR RJFF 192030Z AUTO 14008KT 9999 SCT038 SCT041 BKN043 29/26 Q1008 NOSIG"}, "RJSS": {"temp": 26, "dewp": 24, "wdir": "VRB", "wspd": 1, "wgst": null, "reportTime": "2026-07-19T21:00:00.000Z", "rawOb": "METAR RJSS 192100Z AUTO VRB01KT 9999 NCD 26/24 Q1007"}, "RJGG": {"temp": 27, "dewp": 25, "wdir": 0, "wspd": 0, "wgst": null, "reportTime": "2026-07-19T20:30:00.000Z", "rawOb": "METAR RJGG 192030Z AUTO 00000KT 9999 FEW009 27/25 Q1009 NOSIG"}, "ROAH": {"temp": 28, "dewp": 27, "wdir": 200, "wspd": 7, "wgst": null, "reportTime": "2026-07-19T20:30:00.000Z", "rawOb": "METAR ROAH 192030Z AUTO 20007KT 9999 SCT009 BKN015 BKN020 28/27 Q1008"}, "RJAA": {"temp": 25, "dewp": 24, "wdir": "VRB", "wspd": 2, "wgst": null, "reportTime": "2026-07-19T20:30:00.000Z", "rawOb": "METAR RJAA 192030Z AUTO VRB02KT 9999 NCD 25/24 Q1008 NOSIG"}, "RJOA": {"temp": 26, "dewp": 24, "wdir": 110, "wspd": 1, "wgst": null, "reportTime": "2026-07-19T21:00:00.000Z", "rawOb": "METAR RJOA 192100Z AUTO 11001KT 9999 NCD 26/24 Q1010"}, "RJTT": {"temp": 27, "dewp": 25, "wdir": 190, "wspd": 7, "wgst": null, "reportTime": "2026-07-19T20:30:00.000Z", "rawOb": "METAR RJTT 192030Z 19007KT 9999 FEW012 27/25 Q1008 NOSIG"}, "RJBB": {"temp": 29, "dewp": 24, "wdir": 130, "wspd": 5, "wgst": null, "reportTime": "2026-07-19T20:30:00.000Z", "rawOb": "METAR RJBB 192030Z AUTO 13005KT 9999 SCT042 29/24 Q1009 BECMG 17004KT"}, "RJEC": {"temp": 21, "dewp": 20, "wdir": "VRB", "wspd": 1, "wgst": null, "reportTime": "2026-07-19T21:00:00.000Z", "rawOb": "METAR RJEC 192100Z AUTO VRB01KT 9999 BKN020 OVC041 21/20 Q1006"}, "RJOO": {"temp": 29, "dewp": 24, "wdir": 290, "wspd": 4, "wgst": null, "reportTime": "2026-07-19T21:00:00.000Z", "rawOb": "METAR RJOO 192100Z AUTO 29004KT 9999 NSC 29/24 Q1009"}, "RJOT": {"temp": 25, "dewp": 23, "wdir": 140, "wspd": 6, "wgst": null, "reportTime": "2026-07-19T21:00:00.000Z", "rawOb": "METAR RJOT 192100Z AUTO 14006KT 9999 NCD 25/23 Q1010"}, "RJBE": {"temp": 30, "dewp": 25, "wdir": "VRB", "wspd": 1, "wgst": null, "reportTime": "2026-07-19T22:00:00.000Z", "rawOb": "METAR RJBE 192200Z VRB01KT 9999 FEW015 30/25 Q1009"}, "RJCK": {"temp": 19, "dewp": 19, "wdir": 70, "wspd": 4, "wgst": null, "reportTime": "2026-07-19T21:00:00.000Z", "rawOb": "METAR RJCK 192100Z AUTO 07004KT 0200 R35/0900VP2000U FG OVC001 19/19 Q1006"}, "RJCO": {"temp": 21, "dewp": 21, "wdir": 320, "wspd": 5, "wgst": null, "reportTime": "2026-07-19T22:00:00.000Z", "rawOb": "METAR RJCO 192200Z 32005KT 1500 R32/1500VP2000D -DZ BR SCT002 OVC003 21/21 Q1007"}, "RJOB": {"temp": 26, "dewp": 25, "wdir": 80, "wspd": 4, "wgst": null, "reportTime": "2026-07-19T22:00:00.000Z", "rawOb": "METAR RJOB 192200Z 08004KT 020V120 6000 FEW005 BKN007 BKN010 26/25 Q1010"}, "RJOM": {"temp": 28, "dewp": 24, "wdir": 20, "wspd": 3, "wgst": null, "reportTime": "2026-07-19T21:00:00.000Z", "rawOb": "METAR RJOM 192100Z AUTO 02003KT 9000 NCD 28/24 Q1008"}, "RJSK": {"temp": 25, "dewp": 24, "wdir": 270, "wspd": 5, "wgst": null, "reportTime": "2026-07-19T22:00:00.000Z", "rawOb": "METAR RJSK 192200Z 27005KT 230V290 8000 FEW003 BKN006 BKN007 25/24 Q1008"}, "_updated": "2026-07-19T23:01:27Z"}