{"RJBB": {"temp": 29, "dewp": 24, "wdir": 180, "wspd": 4, "wgst": null, "reportTime": "2026-07-19T16:00:00.000Z", "rawOb": "METAR RJBB 191600Z AUTO 18004KT 150V220 9999 BKN050 29/24 Q1008 NOSIG"}, "RJAA": {"temp": 24, "dewp": 23, "wdir": 170, "wspd": 3, "wgst": null, "reportTime": "2026-07-19T16:00:00.000Z", "rawOb": "METAR RJAA 191600Z AUTO 17003KT 9999 NCD 24/23 Q1007 NOSIG"}, "RJGG": {"temp": 27, "dewp": 25, "wdir": 130, "wspd": 5, "wgst": null, "reportTime": "2026-07-19T16:00:00.000Z", "rawOb": "METAR RJGG 191600Z AUTO 13005KT 9999 NCD 27/25 Q1008 NOSIG"}, "RJFF": {"temp": 29, "dewp": 25, "wdir": 130, "wspd": 7, "wgst": null, "reportTime": "2026-07-19T16:00:00.000Z", "rawOb": "METAR RJFF 191600Z AUTO 13007KT 9999 FEW025 29/25 Q1007 NOSIG"}, "RJTT": {"temp": 28, "dewp": 25, "wdir": 190, "wspd": 9, "wgst": null, "reportTime": "2026-07-19T16:00:00.000Z", "rawOb": "METAR RJTT 191600Z 19009KT 9999 FEW030 SCT/// 28/25 Q1007 NOSIG"}, "ROAH": {"temp": 28, "dewp": 28, "wdir": 220, "wspd": 7, "wgst": null, "reportTime": "2026-07-19T16:00:00.000Z", "rawOb": "METAR ROAH 191600Z AUTO 22007KT 9999 FEW007 28/28 Q1008"}, "RJOA": {"temp": 27, "dewp": 23, "wdir": 300, "wspd": 4, "wgst": null, "reportTime": "2026-07-19T16:00:00.000Z", "rawOb": "METAR RJOA 191600Z AUTO 30004KT 9999 NCD 27/23 Q1009"}, "RJOM": {"temp": 26, "dewp": 25, "wdir": 340, "wspd": 5, "wgst": null, "reportTime": "2026-07-19T16:00:00.000Z", "rawOb": "METAR RJOM 191600Z AUTO 34005KT 310V030 7000 NSC 26/25 Q1007"}, "RJOO": {"temp": 30, "dewp": 24, "wdir": 260, "wspd": 5, "wgst": null, "reportTime": "2026-07-19T16:00:00.000Z", "rawOb": "METAR RJOO 191600Z AUTO 26005KT 220V300 9999 FEW040 SCT042 BKN050 30/24 Q1007"}, "RJCK": {"temp": 18, "dewp": 18, "wdir": 130, "wspd": 3, "wgst": null, "reportTime": "2026-07-19T16:00:00.000Z", "rawOb": "METAR RJCK 191600Z AUTO 13003KT 080V160 2000 BR FEW002 OVC006 18/18 Q1007"}, "RJEC": {"temp": 21, "dewp": 19, "wdir": 160, "wspd": 9, "wgst": null, "reportTime": "2026-07-19T16:00:00.000Z", "rawOb": "METAR RJEC 191600Z AUTO 16009KT 9999 OVC020 21/19 Q1005"}, "RJOT": {"temp": 26, "dewp": 25, "wdir": 140, "wspd": 6, "wgst": null, "reportTime": "2026-07-19T16:00:00.000Z", "rawOb": "METAR RJOT 191600Z AUTO 14006KT 9999 NCD 26/25 Q1008"}, "RJSS": {"temp": 25, "dewp": 23, "wdir": 60, "wspd": 2, "wgst": null, "reportTime": "2026-07-19T16:00:00.000Z", "rawOb": "METAR RJSS 191600Z AUTO 06002KT 9999 NCD 25/23 Q1006"}, "_updated": "2026-07-19T18:39:31Z"}