{"RJTT": {"temp": 26, "dewp": 24, "wdir": 200, "wspd": 7, "wgst": null, "reportTime": "2026-07-12T19:00:00.000Z", "rawOb": "METAR RJTT 121900Z 20007KT 9999 -SHRA FEW010 BKN130 26/24 Q1006 NOSIG"}, "RJGG": {"temp": 28, "dewp": 24, "wdir": 280, "wspd": 10, "wgst": null, "reportTime": "2026-07-12T19:00:00.000Z", "rawOb": "METAR RJGG 121900Z AUTO 28010KT 9999 NSC 28/24 Q1009 NOSIG"}, "RJFF": {"temp": 28, "dewp": 24, "wdir": 100, "wspd": 3, "wgst": null, "reportTime": "2026-07-12T19:00:00.000Z", "rawOb": "METAR RJFF 121900Z AUTO 10003KT 9999 NCD 28/24 Q1012 NOSIG"}, "ROAH": {"temp": 27, "dewp": 26, "wdir": 160, "wspd": 19, "wgst": null, "reportTime": "2026-07-12T19:00:00.000Z", "rawOb": "METAR ROAH 121900Z AUTO 16019KT 9999 BKN008 OVC010 27/26 Q1010"}, "RJBB": {"temp": 26, "dewp": 24, "wdir": 180, "wspd": 2, "wgst": null, "reportTime": "2026-07-12T19:00:00.000Z", "rawOb": "METAR RJBB 121900Z AUTO 18002KT 9999 FEW045 SCT049 BKN240 26/24 Q1011 NOSIG"}, "RJAA": {"temp": 24, "dewp": 23, "wdir": 210, "wspd": 6, "wgst": null, "reportTime": "2026-07-12T19:00:00.000Z", "rawOb": "METAR RJAA 121900Z AUTO 21006KT 9999 -RA NSC 24/23 Q1005 NOSIG"}, "RJOT": {"temp": 25, "dewp": 23, "wdir": 230, "wspd": 7, "wgst": null, "reportTime": "2026-07-12T19:00:00.000Z", "rawOb": "METAR RJOT 121900Z AUTO 23007KT 9999 NSC 25/23 Q1012"}, "RJSS": {"temp": 23, "dewp": 22, "wdir": 200, "wspd": 2, "wgst": null, "reportTime": "2026-07-12T19:00:00.000Z", "rawOb": "METAR RJSS 121900Z AUTO 20002KT 9999 NSC 23/22 Q1005"}, "RJCK": {"temp": 18, "dewp": 18, "wdir": 30, "wspd": 3, "wgst": null, "reportTime": "2026-07-12T19:00:00.000Z", "rawOb": "METAR RJCK 121900Z AUTO 03003KT 0100 R17/0300N FG OVC000 18/18 Q1005"}, "RJEC": {"temp": 21, "dewp": 21, "wdir": 240, "wspd": 2, "wgst": null, "reportTime": "2026-07-12T19:00:00.000Z", "rawOb": "METAR RJEC 121900Z AUTO 24002KT 4700 BR OVC005 21/21 Q1005"}, "RJOA": {"temp": 25, "dewp": 24, "wdir": 300, "wspd": 5, "wgst": null, "reportTime": "2026-07-12T19:00:00.000Z", "rawOb": "METAR RJOA 121900Z AUTO 30005KT 9999 NCD 25/24 Q1013"}, "RJOM": {"temp": 25, "dewp": 25, "wdir": "VRB", "wspd": 1, "wgst": null, "reportTime": "2026-07-12T19:00:00.000Z", "rawOb": "METAR RJOM 121900Z AUTO VRB01KT 9999 NCD 25/25 Q1012"}, "RJOO": {"temp": 28, "dewp": 24, "wdir": 180, "wspd": 3, "wgst": null, "reportTime": "2026-07-12T19:00:00.000Z", "rawOb": "METAR RJOO 121900Z AUTO 18003KT 140V220 9999 BKN037 BKN050 28/24 Q1011"}, "_updated": "2026-07-12T21:56:03Z"}