{"ROAH": {"temp": 28, "dewp": 26, "wdir": 140, "wspd": 35, "wgst": 48, "reportTime": "2026-07-11T04:00:00.000Z", "rawOb": "METAR ROAH 110400Z 14035G48KT 5000 BR FEW015 BKN025 BKN070 28/26 Q0997"}, "RJTT": {"temp": 30, "dewp": 23, "wdir": 180, "wspd": 16, "wgst": null, "reportTime": "2026-07-11T04:00:00.000Z", "rawOb": "METAR RJTT 110400Z 18016KT 9999 FEW020 BKN/// 30/23 Q1013 NOSIG"}, "RJGG": {"temp": 28, "dewp": 24, "wdir": 180, "wspd": 12, "wgst": null, "reportTime": "2026-07-11T04:00:00.000Z", "rawOb": "METAR RJGG 110400Z 18012KT 9999 FEW020 BKN/// 28/24 Q1014 NOSIG"}, "RJBB": {"temp": 28, "dewp": 23, "wdir": 240, "wspd": 14, "wgst": null, "reportTime": "2026-07-11T04:00:00.000Z", "rawOb": "METAR RJBB 110400Z 24014KT 9999 FEW025 BKN/// 28/23 Q1014 NOSIG"}, "RJAA": {"temp": 29, "dewp": 23, "wdir": 140, "wspd": 10, "wgst": null, "reportTime": "2026-07-11T04:00:00.000Z", "rawOb": "METAR RJAA 110400Z 14010KT 9999 SCT030 BKN/// 29/23 Q1013 NOSIG"}, "RJFF": {"temp": 35, "dewp": 22, "wdir": "VRB", "wspd": 7, "wgst": null, "reportTime": "2026-07-11T04:00:00.000Z", "rawOb": "METAR RJFF 110400Z VRB07KT 9999 FEW015 SCT/// 35/22 Q1011 BECMG 33011KT"}, "RJOT": {"temp": 30, "dewp": 24, "wdir": 50, "wspd": 4, "wgst": null, "reportTime": "2026-07-11T04:00:00.000Z", "rawOb": "METAR RJOT 110400Z 05004KT 330V110 9999 FEW025 SCT035 BKN/// 30/24 Q1015"}, "RJOA": {"temp": 30, "dewp": 23, "wdir": 240, "wspd": 4, "wgst": null, "reportTime": "2026-07-11T04:00:00.000Z", "rawOb": "METAR RJOA 110400Z 24004KT 170V270 9999 SCT030 SCT/// 30/23 Q1015"}, "RJCB": {"temp": 25, "dewp": 23, "wdir": 170, "wspd": 3, "wgst": null, "reportTime": "2026-07-11T04:00:00.000Z", "rawOb": "METAR RJCB 110400Z 17003KT 140V230 9999 -SHRA FEW012 SCT030 BKN050 25/23 Q1010"}, "RJOB": {"temp": 30, "dewp": 24, "wdir": 240, "wspd": 5, "wgst": null, "reportTime": "2026-07-11T04:00:00.000Z", "rawOb": "METAR RJOB 110400Z 24005KT 140V300 9999 FEW015 SCT030 BKN/// 30/24 Q1015"}, "RJOM": {"temp": 29, "dewp": 24, "wdir": 340, "wspd": 6, "wgst": null, "reportTime": "2026-07-11T04:00:00.000Z", "rawOb": "METAR RJOM 110400Z 34006KT 9999 FEW030 SCT/// 29/24 Q1013"}, "RJBE": {"temp": 28, "dewp": 24, "wdir": 240, "wspd": 9, "wgst": null, "reportTime": "2026-07-11T04:00:00.000Z", "rawOb": "METAR RJBE 110400Z 24009KT 9999 FEW025 BKN/// 28/24 Q1014"}, "RJCK": {"temp": 19, "dewp": 19, "wdir": 190, "wspd": 9, "wgst": null, "reportTime": "2026-07-11T04:00:00.000Z", "rawOb": "METAR RJCK 110400Z 19009KT 2500 R17/P2000N BCFG BR FEW001 SCT002 BKN003 19/19 Q1010"}, "RJSS": {"temp": 26, "dewp": 23, "wdir": 140, "wspd": 6, "wgst": null, "reportTime": "2026-07-11T04:00:00.000Z", "rawOb": "METAR RJSS 110400Z 14006KT 9999 FEW050 BKN150 BKN/// 26/23 Q1012"}, "RJCO": {"temp": 25, "dewp": 24, "wdir": 80, "wspd": 6, "wgst": null, "reportTime": "2026-07-11T04:00:00.000Z", "rawOb": "METAR RJCO 110400Z 08006KT 8000 SCT007 BKN080 BKN130 25/24 Q1009"}, "RJEC": {"temp": 23, "dewp": 22, "wdir": 160, "wspd": 5, "wgst": null, "reportTime": "2026-07-11T04:00:00.000Z", "rawOb": "METAR RJEC 110400Z 16005KT 7000 -SHRA FEW002 SCT010 BKN025 23/22 Q1010"}, "RJOO": {"temp": 32, "dewp": 21, "wdir": 210, "wspd": 7, "wgst": null, "reportTime": "2026-07-11T04:00:00.000Z", "rawOb": "METAR RJOO 110400Z 21007KT 130V290 9999 FEW030 BKN/// 32/21 Q1013"}, "RJSK": {"temp": 26, "dewp": 23, "wdir": "VRB", "wspd": 1, "wgst": null, "reportTime": "2026-07-11T04:00:00.000Z", "rawOb": "METAR RJSK 110400Z VRB01KT 9999 -SHRA FU FEW008 SCT050 BKN100 26/23 Q1013"}, "_updated": "2026-07-11T06:39:07Z"}