{"RJOM": {"temp": 25, "dewp": 24, "wdir": "VRB", "wspd": 1, "wgst": null, "reportTime": "2026-07-10T16:00:00.000Z", "rawOb": "METAR RJOM 101600Z AUTO VRB01KT 9999 NCD 25/24 Q1014"}, "RJCK": {"temp": 18, "dewp": 18, "wdir": "VRB", "wspd": 2, "wgst": null, "reportTime": "2026-07-10T16:00:00.000Z", "rawOb": "METAR RJCK 101600Z AUTO VRB02KT 0100 R35/0375V0600N FG OVC000 18/18 Q1012"}, "RJOO": {"temp": 27, "dewp": 22, "wdir": "VRB", "wspd": 3, "wgst": null, "reportTime": "2026-07-10T16:00:00.000Z", "rawOb": "METAR RJOO 101600Z AUTO VRB03KT 9999 OVC023 27/22 Q1015"}, "RJOT": {"temp": 23, "dewp": 22, "wdir": 150, "wspd": 3, "wgst": null, "reportTime": "2026-07-10T16:00:00.000Z", "rawOb": "METAR RJOT 101600Z AUTO 15003KT 100V190 9999 NCD 23/22 Q1015"}, "RJSS": {"temp": 24, "dewp": 22, "wdir": 360, "wspd": 4, "wgst": null, "reportTime": "2026-07-10T16:00:00.000Z", "rawOb": "METAR RJSS 101600Z AUTO 36004KT 9999 NSC 24/22 Q1013"}, "RJTT": {"temp": 25, "dewp": 23, "wdir": 190, "wspd": 10, "wgst": null, "reportTime": "2026-07-10T15:30:00.000Z", "rawOb": "METAR RJTT 101530Z 19010KT 9999 SCT013 25/23 Q1015 NOSIG"}, "RJBB": {"temp": 26, "dewp": 22, "wdir": 140, "wspd": 4, "wgst": null, "reportTime": "2026-07-10T15:30:00.000Z", "rawOb": "METAR RJBB 101530Z AUTO 14004KT 080V180 9999 BKN038 BKN048 26/22 Q1015 NOSIG"}, "RJFF": {"temp": 29, "dewp": 24, "wdir": 150, "wspd": 5, "wgst": null, "reportTime": "2026-07-10T15:30:00.000Z", "rawOb": "METAR RJFF 101530Z AUTO 15005KT 9999 NCD 29/24 Q1012 NOSIG"}, "RJAA": {"temp": 22, "dewp": 21, "wdir": 150, "wspd": 5, "wgst": null, "reportTime": "2026-07-10T15:30:00.000Z", "rawOb": "METAR RJAA 101530Z AUTO 15005KT 9999 NCD 22/21 Q1015 NOSIG"}, "ROAH": {"temp": 29, "dewp": 25, "wdir": 110, "wspd": 32, "wgst": 48, "reportTime": "2026-07-10T15:30:00.000Z", "rawOb": "METAR ROAH 101530Z AUTO 11032G48KT 8000 -RA FEW026 SCT034 BKN038 29/25 Q0994"}, "RJGG": {"temp": 25, "dewp": 23, "wdir": 120, "wspd": 7, "wgst": null, "reportTime": "2026-07-10T15:30:00.000Z", "rawOb": "METAR RJGG 101530Z AUTO 12007KT 9999 NCD 25/23 Q1015 NOSIG"}, "RJOA": {"temp": 24, "dewp": 22, "wdir": 50, "wspd": 1, "wgst": null, "reportTime": "2026-07-10T16:00:00.000Z", "rawOb": "METAR RJOA 101600Z AUTO 05001KT 9999 NCD 24/22 Q1016"}, "RJEC": {"temp": 21, "dewp": 20, "wdir": 170, "wspd": 8, "wgst": null, "reportTime": "2026-07-10T16:00:00.000Z", "rawOb": "METAR RJEC 101600Z AUTO 17008KT 9999 SCT050 OVC060 21/20 Q1012"}, "_updated": "2026-07-10T18:24:34Z"}