{"RJBB": {"temp": 23, "dewp": 23, "wdir": 50, "wspd": 12, "wgst": null, "reportTime": "2026-07-06T08:30:00.000Z", "rawOb": "METAR RJBB 060830Z 05012KT 9999 FEW001 BKN005 BKN007 23/23 Q1008 BECMG FEW003 SCT005 BKN008"}, "RJFF": {"temp": 27, "dewp": 25, "wdir": "VRB", "wspd": 3, "wgst": null, "reportTime": "2026-07-06T08:30:00.000Z", "rawOb": "METAR RJFF 060830Z VRB03KT 9999 FEW001 BKN025 BKN060 27/25 Q1008 BECMG 05006KT"}, "RJAA": {"temp": 23, "dewp": 17, "wdir": 120, "wspd": 6, "wgst": null, "reportTime": "2026-07-06T08:30:00.000Z", "rawOb": "METAR RJAA 060830Z 12006KT 070V210 9999 FEW025 SCT080 BKN100 23/17 Q1012 BECMG 05006KT"}, "ROAH": {"temp": 30, "dewp": 26, "wdir": 270, "wspd": 5, "wgst": null, "reportTime": "2026-07-06T08:30:00.000Z", "rawOb": "METAR ROAH 060830Z 27005KT 9999 FEW015 30/26 Q1010"}, "RJTT": {"temp": 24, "dewp": 19, "wdir": 100, "wspd": 9, "wgst": null, "reportTime": "2026-07-06T08:30:00.000Z", "rawOb": "METAR RJTT 060830Z 10009KT 9999 -RA FEW030 BKN070 24/19 Q1012 NOSIG"}, "RJGG": {"temp": 21, "dewp": 20, "wdir": 80, "wspd": 7, "wgst": null, "reportTime": "2026-07-06T08:30:00.000Z", "rawOb": "METAR RJGG 060830Z 08007KT 040V100 3000 SHRA BR FEW006 BKN010 BKN015 21/20 Q1009 BECMG 07005KT TEMPO 1500 +SHRA BR FEW001 BKN005"}, "RJOB": {"temp": 25, "dewp": 24, "wdir": 250, "wspd": 4, "wgst": null, "reportTime": "2026-07-06T09:00:00.000Z", "rawOb": "METAR RJOB 060900Z 25004KT 4000 BR BCFG FEW000 SCT004 BKN060 25/24 Q1008"}, "RJOM": {"temp": 26, "dewp": 25, "wdir": 180, "wspd": 4, "wgst": null, "reportTime": "2026-07-06T09:00:00.000Z", "rawOb": "METAR RJOM 060900Z 18004KT 9999 FEW002 SCT025 BKN060 26/25 Q1008"}, "RJOO": {"temp": 24, "dewp": 21, "wdir": 60, "wspd": 7, "wgst": null, "reportTime": "2026-07-06T09:00:00.000Z", "rawOb": "METAR RJOO 060900Z 06007KT 360V090 9999 -SHRA FEW005 SCT010 BKN020 24/21 Q1008"}, "RJBE": {"temp": 24, "dewp": 22, "wdir": 50, "wspd": 12, "wgst": null, "reportTime": "2026-07-06T09:00:00.000Z", "rawOb": "METAR RJBE 060900Z 05012KT 9999 FEW005 SCT015 BKN025 24/22 Q1008"}, "RJSK": {"temp": 26, "dewp": 18, "wdir": 150, "wspd": 9, "wgst": null, "reportTime": "2026-07-06T09:00:00.000Z", "rawOb": "METAR RJSK 060900Z 15009KT 110V190 9999 FEW040 BKN/// 26/18 Q1011"}, "RJCB": {"temp": 18, "dewp": 15, "wdir": 160, "wspd": 9, "wgst": null, "reportTime": "2026-07-06T09:00:00.000Z", "rawOb": "METAR RJCB 060900Z 16009KT 9999 FEW010 SCT014 BKN030 18/15 Q1017"}, "RJEC": {"temp": 22, "dewp": 17, "wdir": 170, "wspd": 9, "wgst": null, "reportTime": "2026-07-06T09:00:00.000Z", "rawOb": "METAR RJEC 060900Z 17009KT 9999 FEW015 SCT/// 22/17 Q1014"}, "RJCK": {"temp": 17, "dewp": 15, "wdir": 190, "wspd": 7, "wgst": null, "reportTime": "2026-07-06T09:00:00.000Z", "rawOb": "METAR RJCK 060900Z 19007KT 9999 FEW020 BKN035 17/15 Q1017"}, "RJCO": {"temp": 20, "dewp": 17, "wdir": 160, "wspd": 12, "wgst": null, "reportTime": "2026-07-06T09:00:00.000Z", "rawOb": "METAR RJCO 060900Z 16012KT 9999 FEW010 SCT020 BKN025 20/17 Q1014"}, "RJSS": {"temp": 22, "dewp": 19, "wdir": 150, "wspd": 14, "wgst": null, "reportTime": "2026-07-06T09:00:00.000Z", "rawOb": "METAR RJSS 060900Z 15014KT 9999 -SHRA FEW020 BKN050 BKN070 22/19 Q1013"}, "RJOT": {"temp": 25, "dewp": 25, "wdir": 260, "wspd": 5, "wgst": null, "reportTime": "2026-07-06T09:00:00.000Z", "rawOb": "METAR RJOT 060900Z 26005KT 9999 -SHRA FEW002 SCT010 BKN020 25/25 Q1008"}, "RJOA": {"temp": 24, "dewp": 23, "wdir": 190, "wspd": 3, "wgst": null, "reportTime": "2026-07-06T09:00:00.000Z", "rawOb": "METAR RJOA 060900Z 19003KT 150V240 9999 FEW003 SCT010 BKN015 24/23 Q1009"}, "_updated": "2026-07-06T11:04:34Z"}