{"RJGG": {"temp": 31, "dewp": 25, "wdir": 320, "wspd": 7, "wgst": null, "reportTime": "2026-07-22T14:00:00.000Z", "rawOb": "METAR RJGG 221400Z AUTO 32007KT 9999 NCD 31/25 Q1007 NOSIG"}, "RJFF": {"temp": 29, "dewp": 24, "wdir": 40, "wspd": 4, "wgst": null, "reportTime": "2026-07-22T14:00:00.000Z", "rawOb": "METAR RJFF 221400Z AUTO 04004KT 010V070 9999 SCT043 BKN049 BKN050 29/24 Q1010 NOSIG"}, "RJBB": {"temp": 30, "dewp": 25, "wdir": 210, "wspd": 11, "wgst": null, "reportTime": "2026-07-22T14:00:00.000Z", "rawOb": "METAR RJBB 221400Z AUTO 21011KT 9999 NCD 30/25 Q1008 NOSIG"}, "RJAA": {"temp": 29, "dewp": 26, "wdir": 230, "wspd": 3, "wgst": null, "reportTime": "2026-07-22T14:00:00.000Z", "rawOb": "METAR RJAA 221400Z AUTO 23003KT 9999 NSC 29/26 Q1006 NOSIG"}, "ROAH": {"temp": 29, "dewp": 26, "wdir": 120, "wspd": 4, "wgst": null, "reportTime": "2026-07-22T14:00:00.000Z", "rawOb": "METAR ROAH 221400Z AUTO 12004KT 9999 NCD 29/26 Q1010"}, "RJTT": {"temp": 29, "dewp": 26, "wdir": 170, "wspd": 11, "wgst": null, "reportTime": "2026-07-22T14:00:00.000Z", "rawOb": "METAR RJTT 221400Z 17011KT CAVOK 29/26 Q1006 NOSIG"}, "RJOO": {"temp": 31, "dewp": 25, "wdir": 330, "wspd": 7, "wgst": null, "reportTime": "2026-07-22T14:00:00.000Z", "rawOb": "METAR RJOO 221400Z AUTO 33007KT 9999 NCD 31/25 Q1008"}, "RJOT": {"temp": 28, "dewp": 23, "wdir": 200, "wspd": 6, "wgst": null, "reportTime": "2026-07-22T14:00:00.000Z", "rawOb": "METAR RJOT 221400Z AUTO 20006KT 9999 NCD 28/23 Q1010"}, "RJOA": {"temp": 27, "dewp": 23, "wdir": "VRB", "wspd": 2, "wgst": null, "reportTime": "2026-07-22T14:00:00.000Z", "rawOb": "METAR RJOA 221400Z AUTO VRB02KT 9999 NCD 27/23 Q1011"}, "RJCK": {"temp": 20, "dewp": 19, "wdir": 310, "wspd": 5, "wgst": null, "reportTime": "2026-07-22T14:00:00.000Z", "rawOb": "METAR RJCK 221400Z AUTO 31005KT 9999 BKN015 BKN017 20/19 Q1007"}, "RJEC": {"temp": 19, "dewp": 19, "wdir": 290, "wspd": 2, "wgst": null, "reportTime": "2026-07-22T14:00:00.000Z", "rawOb": "METAR RJEC 221400Z AUTO 29002KT 9999 NCD 19/19 Q1007"}, "RJOM": {"temp": 29, "dewp": 23, "wdir": 140, "wspd": 5, "wgst": null, "reportTime": "2026-07-22T14:00:00.000Z", "rawOb": "METAR RJOM 221400Z AUTO 14005KT 9999 NCD 29/23 Q1009"}, "RJSS": {"temp": 28, "dewp": 23, "wdir": 280, "wspd": 7, "wgst": null, "reportTime": "2026-07-22T14:00:00.000Z", "rawOb": "METAR RJSS 221400Z AUTO 28007KT 9999 NSC 28/23 Q1006"}, "_updated": "2026-07-22T16:56:41Z"}