{"RJCK": {"temp": 18, "dewp": 18, "wdir": 170, "wspd": 4, "wgst": null, "reportTime": "2026-07-15T15:00:00.000Z", "rawOb": "METAR RJCK 151500Z AUTO 17004KT 0100 R17/0400N FG OVC000 18/18 Q1000"}, "RJEC": {"temp": 24, "dewp": 21, "wdir": 160, "wspd": 10, "wgst": null, "reportTime": "2026-07-15T15:00:00.000Z", "rawOb": "METAR RJEC 151500Z AUTO 16010KT 9999 FEW150 BKN160 OVC180 //////TCU 24/21 Q0995"}, "RJFF": {"temp": 29, "dewp": 25, "wdir": 180, "wspd": 9, "wgst": null, "reportTime": "2026-07-15T14:30:00.000Z", "rawOb": "METAR RJFF 151430Z AUTO 18009KT 150V210 9999 OVC032 29/25 Q1003 NOSIG"}, "RJTT": {"temp": 27, "dewp": 24, "wdir": 200, "wspd": 17, "wgst": null, "reportTime": "2026-07-15T14:30:00.000Z", "rawOb": "METAR RJTT 151430Z 20017KT CAVOK 27/24 Q1001 NOSIG"}, "RJAA": {"temp": 26, "dewp": 25, "wdir": 160, "wspd": 6, "wgst": null, "reportTime": "2026-07-15T14:30:00.000Z", "rawOb": "METAR RJAA 151430Z AUTO 16006KT 8000 FEW006 SCT220 26/25 Q1001 TEMPO 4000 BR FEW003 BKN008"}, "RJOO": {"temp": 30, "dewp": 23, "wdir": 220, "wspd": 3, "wgst": null, "reportTime": "2026-07-15T15:00:00.000Z", "rawOb": "METAR RJOO 151500Z AUTO 22003KT 160V280 9999 NSC 30/23 Q1002"}, "RJOA": {"temp": 26, "dewp": 23, "wdir": 190, "wspd": 3, "wgst": null, "reportTime": "2026-07-15T15:00:00.000Z", "rawOb": "METAR RJOA 151500Z AUTO 19003KT 9999 SCT020 26/23 Q1004"}, "RJOT": {"temp": 27, "dewp": 24, "wdir": 160, "wspd": 3, "wgst": null, "reportTime": "2026-07-15T15:00:00.000Z", "rawOb": "METAR RJOT 151500Z AUTO 16003KT 140V210 9999 NCD 27/24 Q1003"}, "RJOM": {"temp": 27, "dewp": 25, "wdir": "VRB", "wspd": 2, "wgst": null, "reportTime": "2026-07-15T15:00:00.000Z", "rawOb": "METAR RJOM 151500Z AUTO VRB02KT 9999 BKN042 BKN050 OVC060 27/25 Q1002"}, "RJSS": {"temp": 26, "dewp": 24, "wdir": 80, "wspd": 3, "wgst": null, "reportTime": "2026-07-15T15:00:00.000Z", "rawOb": "METAR RJSS 151500Z AUTO 08003KT 050V120 7000 BKN050 BKN070 OVC140 26/24 Q1000"}, "RJBB": {"temp": 27, "dewp": 24, "wdir": 240, "wspd": 9, "wgst": null, "reportTime": "2026-07-15T14:30:00.000Z", "rawOb": "METAR RJBB 151430Z AUTO 24009KT 9999 NSC 27/24 Q1002 NOSIG"}, "RJGG": {"temp": 28, "dewp": 26, "wdir": 200, "wspd": 8, "wgst": null, "reportTime": "2026-07-15T14:30:00.000Z", "rawOb": "METAR RJGG 151430Z AUTO 20008KT 9999 NSC 28/26 Q1001 NOSIG"}, "ROAH": {"temp": 27, "dewp": 27, "wdir": 220, "wspd": 10, "wgst": null, "reportTime": "2026-07-15T14:30:00.000Z", "rawOb": "METAR ROAH 151430Z AUTO 22010KT 9999 SCT005 BKN007 27/27 Q1011"}, "_updated": "2026-07-15T17:20:52Z"}