{"RJOA": {"temp": 25, "dewp": 24, "wdir": 110, "wspd": 4, "wgst": null, "reportTime": "2026-07-07T02:00:00.000Z", "rawOb": "METAR RJOA 070200Z 11004KT 9999 FEW004 SCT008 BKN010 25/24 Q1012"}, "RJTT": {"temp": 23, "dewp": 19, "wdir": 360, "wspd": 7, "wgst": null, "reportTime": "2026-07-07T01:30:00.000Z", "rawOb": "METAR RJTT 070130Z 36007KT 340V040 9999 -RA BR FEW020 SCT030 BKN050 23/19 Q1014 BECMG 08006KT"}, "RJCK": {"temp": 20, "dewp": 18, "wdir": 190, "wspd": 10, "wgst": null, "reportTime": "2026-07-07T02:00:00.000Z", "rawOb": "METAR RJCK 070200Z 19010KT 160V230 9999 PRFG FEW001 SCT008 BKN040 20/18 Q1017"}, "RJCO": {"temp": 23, "dewp": 17, "wdir": 150, "wspd": 21, "wgst": null, "reportTime": "2026-07-07T02:00:00.000Z", "rawOb": "METAR RJCO 070200Z 15021KT 9999 FEW015 SCT025 23/17 Q1014"}, "RJOO": {"temp": 26, "dewp": 20, "wdir": 60, "wspd": 7, "wgst": null, "reportTime": "2026-07-07T02:00:00.000Z", "rawOb": "METAR RJOO 070200Z 06007KT 010V090 9999 VCSH FEW015 BKN025 26/20 Q1011"}, "RJEC": {"temp": 25, "dewp": 16, "wdir": 190, "wspd": 8, "wgst": null, "reportTime": "2026-07-07T02:00:00.000Z", "rawOb": "METAR RJEC 070200Z 19008KT 140V260 9999 FEW030 BKN040 25/16 Q1014"}, "RJSS": {"temp": 24, "dewp": 19, "wdir": 120, "wspd": 9, "wgst": null, "reportTime": "2026-07-07T02:00:00.000Z", "rawOb": "METAR RJSS 070200Z 12009KT 9999 FEW008 24/19 Q1014"}, "RJOT": {"temp": 26, "dewp": 24, "wdir": 70, "wspd": 5, "wgst": null, "reportTime": "2026-07-07T02:00:00.000Z", "rawOb": "METAR RJOT 070200Z 07005KT 040V110 9999 FEW005 SCT010 BKN060 26/24 Q1012"}, "RJSK": {"temp": 28, "dewp": 17, "wdir": 130, "wspd": 10, "wgst": null, "reportTime": "2026-07-07T02:00:00.000Z", "rawOb": "METAR RJSK 070200Z 13010KT 080V190 9999 FEW040 28/17 Q1013"}, "ROAH": {"temp": 30, "dewp": 26, "wdir": 290, "wspd": 6, "wgst": null, "reportTime": "2026-07-07T01:30:00.000Z", "rawOb": "METAR ROAH 070130Z 29006KT 9999 FEW015 30/26 Q1011"}, "RJAA": {"temp": 25, "dewp": 19, "wdir": 50, "wspd": 6, "wgst": null, "reportTime": "2026-07-07T01:30:00.000Z", "rawOb": "METAR RJAA 070130Z 05006KT 360V080 9999 -SHRA SCT018 BKN045 25/19 Q1014 BECMG FM0200 08006KT"}, "RJOM": {"temp": 27, "dewp": 24, "wdir": 360, "wspd": 10, "wgst": null, "reportTime": "2026-07-07T02:00:00.000Z", "rawOb": "METAR RJOM 070200Z 36010KT 9999 FEW010 BKN050 BKN/// 27/24 Q1010"}, "RJGG": {"temp": 24, "dewp": 20, "wdir": 310, "wspd": 4, "wgst": null, "reportTime": "2026-07-07T02:00:00.000Z", "rawOb": "METAR RJGG 070200Z 31004KT 9999 FEW015 BKN/// 24/20 Q1012 BECMG 25006KT"}, "RJBB": {"temp": 24, "dewp": 20, "wdir": 10, "wspd": 5, "wgst": null, "reportTime": "2026-07-07T01:30:00.000Z", "rawOb": "METAR RJBB 070130Z 01005KT 9999 FEW010 BKN020 24/20 Q1012 NOSIG"}, "RJBE": {"temp": 25, "dewp": 20, "wdir": 50, "wspd": 7, "wgst": null, "reportTime": "2026-07-07T02:00:00.000Z", "rawOb": "METAR RJBE 070200Z 05007KT 9999 FEW008 SCT020 BKN040 25/20 Q1011"}, "RJFF": {"temp": 32, "dewp": 26, "wdir": 130, "wspd": 10, "wgst": null, "reportTime": "2026-07-07T01:30:00.000Z", "rawOb": "METAR RJFF 070130Z 13010KT 100V160 9999 FEW020 SCT030 BKN040 32/26 Q1009 BECMG 29008KT"}, "RJOB": {"temp": 22, "dewp": 22, "wdir": 130, "wspd": 3, "wgst": null, "reportTime": "2026-07-07T02:00:00.000Z", "rawOb": "METAR RJOB 070200Z 13003KT 080V170 3000 BR BCFG FEW000 SCT002 BKN003 22/22 Q1012"}, "RJCB": {"temp": 21, "dewp": 16, "wdir": 180, "wspd": 6, "wgst": null, "reportTime": "2026-07-07T02:00:00.000Z", "rawOb": "METAR RJCB 070200Z 18006KT 110V210 9999 FEW015 SCT020 BKN025 21/16 Q1016"}, "_updated": "2026-07-07T04:18:39Z"}