{"RJGG": {"temp": 34, "dewp": 24, "wdir": "VRB", "wspd": 2, "wgst": null, "reportTime": "2026-07-16T08:30:00.000Z", "rawOb": "METAR RJGG 160830Z VRB02KT 9999 FEW030 BKN/// 34/24 Q0999 BECMG TL0840 32010KT"}, "RJEC": {"temp": 27, "dewp": 22, "wdir": 290, "wspd": 4, "wgst": null, "reportTime": "2026-07-16T09:00:00.000Z", "rawOb": "METAR RJEC 160900Z 29004KT 9999 FEW030 27/22 Q1001"}, "RJCO": {"temp": 26, "dewp": 21, "wdir": 320, "wspd": 7, "wgst": null, "reportTime": "2026-07-16T09:00:00.000Z", "rawOb": "METAR RJCO 160900Z 32007KT 9999 FEW020 BKN030 26/21 Q1001"}, "RJBE": {"temp": 31, "dewp": 22, "wdir": 260, "wspd": 10, "wgst": null, "reportTime": "2026-07-16T09:00:00.000Z", "rawOb": "METAR RJBE 160900Z 26010KT 9999 FEW030 SCT050 31/22 Q1000"}, "RJCK": {"temp": 18, "dewp": 18, "wdir": "VRB", "wspd": 2, "wgst": null, "reportTime": "2026-07-16T09:00:00.000Z", "rawOb": "METAR RJCK 160900Z VRB02KT 0600 R17/0650VP2000D FG VV001 18/18 Q1001"}, "RJCB": {"temp": 28, "dewp": 25, "wdir": 180, "wspd": 5, "wgst": null, "reportTime": "2026-07-16T09:00:00.000Z", "rawOb": "METAR RJCB 160900Z 18005KT 9999 FEW015 28/25 Q1000"}, "RJFF": {"temp": 32, "dewp": 26, "wdir": 310, "wspd": 10, "wgst": null, "reportTime": "2026-07-16T08:30:00.000Z", "rawOb": "METAR RJFF 160830Z 31010KT 9999 FEW025 BKN/// 32/26 Q1002 NOSIG"}, "RJOB": {"temp": 31, "dewp": 23, "wdir": 230, "wspd": 6, "wgst": null, "reportTime": "2026-07-16T09:00:00.000Z", "rawOb": "METAR RJOB 160900Z 23006KT 9999 FEW030 SCT060 BKN/// 31/23 Q1002"}, "ROAH": {"temp": 29, "dewp": 27, "wdir": 230, "wspd": 7, "wgst": null, "reportTime": "2026-07-16T08:30:00.000Z", "rawOb": "METAR ROAH 160830Z 23007KT 9999 FEW006 BKN/// 29/27 Q1007"}, "RJSS": {"temp": 26, "dewp": 24, "wdir": "VRB", "wspd": 1, "wgst": null, "reportTime": "2026-07-16T09:00:00.000Z", "rawOb": "METAR RJSS 160900Z VRB01KT 3000 -SHRA BR FEW003 BKN040 BKN100 26/24 Q1001"}, "RJOO": {"temp": 33, "dewp": 22, "wdir": 220, "wspd": 3, "wgst": null, "reportTime": "2026-07-16T09:00:00.000Z", "rawOb": "METAR RJOO 160900Z 22003KT 140V270 9999 FEW030 SCT045 33/22 Q1000"}, "RJOM": {"temp": 33, "dewp": 20, "wdir": 200, "wspd": 6, "wgst": null, "reportTime": "2026-07-16T09:00:00.000Z", "rawOb": "METAR RJOM 160900Z 20006KT 9999 FEW050 33/20 Q1001"}, "RJOA": {"temp": 29, "dewp": 22, "wdir": 210, "wspd": 3, "wgst": null, "reportTime": "2026-07-16T09:00:00.000Z", "rawOb": "METAR RJOA 160900Z 21003KT 150V260 9999 FEW030 SCT/// 29/22 Q1003"}, "RJTT": {"temp": 31, "dewp": 26, "wdir": 180, "wspd": 5, "wgst": null, "reportTime": "2026-07-16T08:30:00.000Z", "rawOb": "METAR RJTT 160830Z 18005KT 150V210 9999 FEW030 BKN130 31/26 Q1000 NOSIG"}, "RJBB": {"temp": 31, "dewp": 23, "wdir": 260, "wspd": 4, "wgst": null, "reportTime": "2026-07-16T08:30:00.000Z", "rawOb": "METAR RJBB 160830Z 26004KT 9999 FEW025 SCT/// 31/23 Q1000 NOSIG"}, "RJAA": {"temp": 29, "dewp": 26, "wdir": 130, "wspd": 11, "wgst": null, "reportTime": "2026-07-16T08:30:00.000Z", "rawOb": "METAR RJAA 160830Z 13011KT 9999 FEW010 SCT/// 29/26 Q1000 NOSIG"}, "RJSK": {"temp": 27, "dewp": 23, "wdir": 300, "wspd": 4, "wgst": null, "reportTime": "2026-07-16T09:00:00.000Z", "rawOb": "METAR RJSK 160900Z 30004KT 270V340 9999 FEW025 27/23 Q1003"}, "RJOT": {"temp": 32, "dewp": 21, "wdir": 240, "wspd": 8, "wgst": null, "reportTime": "2026-07-16T09:00:00.000Z", "rawOb": "METAR RJOT 160900Z 24008KT 9999 FEW035 SCT/// 32/21 Q1002"}, "_updated": "2026-07-16T11:12:41Z"}