{"RJEC": {"temp": 22, "dewp": 19, "wdir": 190, "wspd": 8, "wgst": null, "reportTime": "2026-07-19T13:00:00.000Z", "rawOb": "METAR RJEC 191300Z AUTO 19008KT 9999 FEW027 OVC033 22/19 Q1005"}, "RJBB": {"temp": 29, "dewp": 25, "wdir": 200, "wspd": 10, "wgst": null, "reportTime": "2026-07-19T12:30:00.000Z", "rawOb": "METAR RJBB 191230Z 20010KT 9999 FEW020 29/25 Q1008 NOSIG"}, "RJSS": {"temp": 24, "dewp": 23, "wdir": 360, "wspd": 2, "wgst": null, "reportTime": "2026-07-19T13:00:00.000Z", "rawOb": "METAR RJSS 191300Z AUTO 36002KT 9999 NCD 24/23 Q1007"}, "RJOM": {"temp": 28, "dewp": 25, "wdir": 310, "wspd": 3, "wgst": null, "reportTime": "2026-07-19T13:00:00.000Z", "rawOb": "METAR RJOM 191300Z AUTO 31003KT 9999 NCD 28/25 Q1007"}, "RJTT": {"temp": 28, "dewp": 24, "wdir": 190, "wspd": 10, "wgst": null, "reportTime": "2026-07-19T12:30:00.000Z", "rawOb": "METAR RJTT 191230Z 19010KT CAVOK 28/24 Q1008 NOSIG"}, "RJCK": {"temp": 19, "dewp": 19, "wdir": 130, "wspd": 15, "wgst": null, "reportTime": "2026-07-19T13:00:00.000Z", "rawOb": "METAR RJCK 191300Z AUTO 13015KT 1400 R35/0900V1400N -RA BR OVC001 19/19 Q1007"}, "RJGG": {"temp": 27, "dewp": 25, "wdir": 130, "wspd": 8, "wgst": null, "reportTime": "2026-07-19T12:30:00.000Z", "rawOb": "METAR RJGG 191230Z 13008KT 9999 FEW020 27/25 Q1008 NOSIG"}, "RJFF": {"temp": 30, "dewp": 26, "wdir": 310, "wspd": 5, "wgst": null, "reportTime": "2026-07-19T12:30:00.000Z", "rawOb": "METAR RJFF 191230Z 31005KT 260V340 9999 FEW025 30/26 Q1006 BECMG 15006KT"}, "ROAH": {"temp": 28, "dewp": 27, "wdir": 220, "wspd": 2, "wgst": null, "reportTime": "2026-07-19T12:30:00.000Z", "rawOb": "METAR ROAH 191230Z 22002KT 9999 VCSH FEW020 SCT050 28/27 Q1008"}, "RJOO": {"temp": 29, "dewp": 25, "wdir": 260, "wspd": 6, "wgst": null, "reportTime": "2026-07-19T13:00:00.000Z", "rawOb": "METAR RJOO 191300Z AUTO 26006KT 180V300 9999 FEW039 29/25 Q1008"}, "RJAA": {"temp": 26, "dewp": 24, "wdir": 180, "wspd": 4, "wgst": null, "reportTime": "2026-07-19T12:30:00.000Z", "rawOb": "METAR RJAA 191230Z 18004KT 9999 FEW025 BKN/// 26/24 Q1008 NOSIG"}, "RJOA": {"temp": 28, "dewp": 23, "wdir": 270, "wspd": 3, "wgst": null, "reportTime": "2026-07-19T13:00:00.000Z", "rawOb": "METAR RJOA 191300Z 27003KT 9999 FEW025 SCT/// 28/23 Q1009"}, "RJOT": {"temp": 28, "dewp": 26, "wdir": 170, "wspd": 3, "wgst": null, "reportTime": "2026-07-19T13:00:00.000Z", "rawOb": "METAR RJOT 191300Z AUTO 17003KT 9999 NCD 28/26 Q1008"}, "RJBE": {"temp": 28, "dewp": 25, "wdir": 220, "wspd": 9, "wgst": null, "reportTime": "2026-07-19T13:00:00.000Z", "rawOb": "METAR RJBE 191300Z 22009KT 180V240 9999 FEW020 BKN040 28/25 Q1008"}, "_updated": "2026-07-19T15:17:41Z"}