{"RJAA": {"temp": 22, "dewp": 21, "wdir": 140, "wspd": 3, "wgst": null, "reportTime": "2026-07-04T12:00:00.000Z", "rawOb": "METAR RJAA 041200Z 14003KT 9999 FEW012 BKN/// 22/21 Q1012 NOSIG"}, "RJFF": {"temp": 27, "dewp": 24, "wdir": 310, "wspd": 4, "wgst": null, "reportTime": "2026-07-04T12:00:00.000Z", "rawOb": "METAR RJFF 041200Z 31004KT 250V350 9999 FEW010 BKN035 BKN040 27/24 Q1008 NOSIG"}, "RJBB": {"temp": 23, "dewp": 22, "wdir": 60, "wspd": 6, "wgst": null, "reportTime": "2026-07-04T12:00:00.000Z", "rawOb": "METAR RJBB 041200Z 06006KT 9999 -SHRA FEW005 BKN025 BKN070 23/22 Q1009 NOSIG"}, "RJTT": {"temp": 24, "dewp": 21, "wdir": 160, "wspd": 8, "wgst": null, "reportTime": "2026-07-04T12:00:00.000Z", "rawOb": "METAR RJTT 041200Z 16008KT 140V200 9999 SCT020 BKN060 BKN/// 24/21 Q1012 NOSIG"}, "RJGG": {"temp": 21, "dewp": 21, "wdir": 160, "wspd": 6, "wgst": null, "reportTime": "2026-07-04T12:00:00.000Z", "rawOb": "METAR RJGG 041200Z 16006KT 8000 -SHRA FEW007 BKN050 BKN100 21/21 Q1010 TEMPO 4000 SHRA BR FEW005 BKN008"}, "ROAH": {"temp": 28, "dewp": 26, "wdir": 200, "wspd": 4, "wgst": null, "reportTime": "2026-07-04T12:00:00.000Z", "rawOb": "METAR ROAH 041200Z 20004KT 9999 FEW015 28/26 Q1013"}, "RJEC": {"temp": 19, "dewp": 16, "wdir": 120, "wspd": 2, "wgst": null, "reportTime": "2026-07-04T12:00:00.000Z", "rawOb": "METAR RJEC 041200Z AUTO 12002KT 9999 NCD 19/16 Q1012"}, "RJCK": {"temp": 13, "dewp": 12, "wdir": 170, "wspd": 3, "wgst": null, "reportTime": "2026-07-04T12:00:00.000Z", "rawOb": "METAR RJCK 041200Z AUTO 17003KT 9999 OVC009 13/12 Q1015"}, "RJSS": {"temp": 20, "dewp": 18, "wdir": 160, "wspd": 4, "wgst": null, "reportTime": "2026-07-04T12:00:00.000Z", "rawOb": "METAR RJSS 041200Z 16004KT 9999 FEW008 BKN010 BKN015 20/18 Q1013"}, "RJOA": {"temp": 20, "dewp": 20, "wdir": 0, "wspd": 0, "wgst": null, "reportTime": "2026-07-04T12:00:00.000Z", "rawOb": "METAR RJOA 041200Z 00000KT 2000 R10/P2000N BCFG BR FEW000 BKN001 BKN002 20/20 Q1010"}, "RJOT": {"temp": 22, "dewp": 22, "wdir": 160, "wspd": 4, "wgst": null, "reportTime": "2026-07-04T12:00:00.000Z", "rawOb": "METAR RJOT 041200Z 16004KT 9999 FEW008 SCT025 BKN035 22/22 Q1009"}, "RJOO": {"temp": 22, "dewp": 21, "wdir": 80, "wspd": 5, "wgst": null, "reportTime": "2026-07-04T12:00:00.000Z", "rawOb": "METAR RJOO 041200Z AUTO 08005KT 9999 FEW007 SCT020 BKN035 22/21 Q1009"}, "RJOM": {"temp": 22, "dewp": 22, "wdir": 20, "wspd": 4, "wgst": null, "reportTime": "2026-07-04T12:00:00.000Z", "rawOb": "METAR RJOM 041200Z 02004KT 9999 FEW006 SCT050 BKN070 22/22 Q1008"}, "RJBE": {"temp": 23, "dewp": 22, "wdir": 50, "wspd": 10, "wgst": null, "reportTime": "2026-07-04T12:00:00.000Z", "rawOb": "METAR RJBE 041200Z 05010KT 9999 -SHRA FEW004 SCT006 BKN030 23/22 Q1009"}, "RJSK": {"temp": 22, "dewp": 19, "wdir": "VRB", "wspd": 2, "wgst": null, "reportTime": "2026-07-04T12:00:00.000Z", "rawOb": "METAR RJSK 041200Z VRB02KT 9999 FEW030 22/19 Q1011"}, "RJOB": {"temp": 21, "dewp": 21, "wdir": "VRB", "wspd": 1, "wgst": null, "reportTime": "2026-07-04T12:00:00.000Z", "rawOb": "METAR RJOB 041200Z VRB01KT 1000 R07/1100VP2000U -SHRA BR BCFG FEW000 SCT001 BKN002 21/21 Q1009"}, "_updated": "2026-07-04T14:53:08Z"}