{"RJTT": {"temp": 25, "dewp": 23, "wdir": 190, "wspd": 12, "wgst": null, "reportTime": "2026-07-10T14:00:00.000Z", "rawOb": "METAR RJTT 101400Z 19012KT 9999 FEW011 25/23 Q1016 NOSIG"}, "ROAH": {"temp": 29, "dewp": 25, "wdir": 100, "wspd": 34, "wgst": 49, "reportTime": "2026-07-10T14:00:00.000Z", "rawOb": "METAR ROAH 101400Z AUTO 10034G49KT 7000 -RA FEW026 SCT031 BKN034 29/25 Q0995"}, "RJGG": {"temp": 25, "dewp": 23, "wdir": 130, "wspd": 8, "wgst": null, "reportTime": "2026-07-10T14:00:00.000Z", "rawOb": "METAR RJGG 101400Z AUTO 13008KT 9999 NCD 25/23 Q1015 NOSIG"}, "RJAA": {"temp": 22, "dewp": 21, "wdir": 160, "wspd": 5, "wgst": null, "reportTime": "2026-07-10T14:00:00.000Z", "rawOb": "METAR RJAA 101400Z AUTO 16005KT 9999 FEW016 22/21 Q1016 NOSIG"}, "RJFF": {"temp": 29, "dewp": 24, "wdir": 50, "wspd": 4, "wgst": null, "reportTime": "2026-07-10T14:00:00.000Z", "rawOb": "METAR RJFF 101400Z AUTO 05004KT 9999 NCD 29/24 Q1012 NOSIG"}, "RJBB": {"temp": 26, "dewp": 23, "wdir": 180, "wspd": 9, "wgst": null, "reportTime": "2026-07-10T14:00:00.000Z", "rawOb": "METAR RJBB 101400Z AUTO 18009KT 9999 BKN046 BKN049 26/23 Q1015 NOSIG"}, "RJSS": {"temp": 24, "dewp": 22, "wdir": 360, "wspd": 5, "wgst": null, "reportTime": "2026-07-10T14:00:00.000Z", "rawOb": "METAR RJSS 101400Z AUTO 36005KT 9999 NCD 24/22 Q1014"}, "RJOA": {"temp": 24, "dewp": 22, "wdir": 320, "wspd": 1, "wgst": null, "reportTime": "2026-07-10T14:00:00.000Z", "rawOb": "METAR RJOA 101400Z AUTO 32001KT 9999 SCT036 24/22 Q1016"}, "RJCK": {"temp": 18, "dewp": 18, "wdir": 210, "wspd": 2, "wgst": null, "reportTime": "2026-07-10T14:00:00.000Z", "rawOb": "METAR RJCK 101400Z AUTO 21002KT 0000 R35/0225V0400N FG OVC000 18/18 Q1012"}, "RJEC": {"temp": 21, "dewp": 20, "wdir": 170, "wspd": 5, "wgst": null, "reportTime": "2026-07-10T14:00:00.000Z", "rawOb": "METAR RJEC 101400Z AUTO 17005KT 9999 FEW036 BKN038 BKN040 21/20 Q1013"}, "RJOT": {"temp": 24, "dewp": 23, "wdir": 170, "wspd": 3, "wgst": null, "reportTime": "2026-07-10T14:00:00.000Z", "rawOb": "METAR RJOT 101400Z AUTO 17003KT 140V200 9999 NCD 24/23 Q1015"}, "RJOO": {"temp": 27, "dewp": 22, "wdir": 260, "wspd": 4, "wgst": null, "reportTime": "2026-07-10T14:00:00.000Z", "rawOb": "METAR RJOO 101400Z AUTO 26004KT 210V300 9999 NSC 27/22 Q1015"}, "RJOM": {"temp": 26, "dewp": 24, "wdir": "VRB", "wspd": 2, "wgst": null, "reportTime": "2026-07-10T14:00:00.000Z", "rawOb": "METAR RJOM 101400Z AUTO VRB02KT 9999 NCD 26/24 Q1014"}, "_updated": "2026-07-10T16:48:18Z"}