{"RJSS": {"temp": 25, "dewp": 23, "wdir": 130, "wspd": 9, "wgst": null, "reportTime": "2026-07-23T05:00:00.000Z", "rawOb": "METAR RJSS 230500Z 13009KT 9999 FEW006 SCT008 BKN015 25/23 Q1008"}, "ROAH": {"temp": 34, "dewp": 26, "wdir": 140, "wspd": 9, "wgst": null, "reportTime": "2026-07-23T04:30:00.000Z", "rawOb": "METAR ROAH 230430Z 14009KT 110V180 9999 FEW030 SCT035 34/26 Q1008"}, "RJGG": {"temp": 34, "dewp": 27, "wdir": 200, "wspd": 7, "wgst": null, "reportTime": "2026-07-23T04:30:00.000Z", "rawOb": "METAR RJGG 230430Z 20007KT 9999 FEW020 34/27 Q1006 NOSIG"}, "RJTT": {"temp": 35, "dewp": 26, "wdir": 110, "wspd": 12, "wgst": null, "reportTime": "2026-07-23T04:30:00.000Z", "rawOb": "METAR RJTT 230430Z 11012KT 9999 FEW030 35/26 Q1006 NOSIG"}, "RJOB": {"temp": 36, "dewp": 23, "wdir": 260, "wspd": 5, "wgst": null, "reportTime": "2026-07-23T05:00:00.000Z", "rawOb": "METAR RJOB 230500Z 26005KT 180V290 9999 FEW025 SCT040 36/23 Q1009"}, "RJAA": {"temp": 33, "dewp": 24, "wdir": 90, "wspd": 11, "wgst": null, "reportTime": "2026-07-23T04:30:00.000Z", "rawOb": "METAR RJAA 230430Z 09011KT 9999 FEW030 SCT/// 33/24 Q1007 NOSIG"}, "RJFF": {"temp": 33, "dewp": 25, "wdir": 320, "wspd": 12, "wgst": null, "reportTime": "2026-07-23T04:30:00.000Z", "rawOb": "METAR RJFF 230430Z 32012KT 9999 FEW025 SCT040 33/25 Q1009 NOSIG"}, "RJSK": {"temp": 29, "dewp": 23, "wdir": 270, "wspd": 11, "wgst": null, "reportTime": "2026-07-23T05:00:00.000Z", "rawOb": "METAR RJSK 230500Z 27011KT 240V300 9999 FEW015 BKN020 BKN/// 29/23 Q1009"}, "RJBB": {"temp": 32, "dewp": 27, "wdir": 270, "wspd": 5, "wgst": null, "reportTime": "2026-07-23T04:30:00.000Z", "rawOb": "METAR RJBB 230430Z 27005KT 9999 FEW030 32/27 Q1008 NOSIG"}, "RJCK": {"temp": 20, "dewp": 18, "wdir": 190, "wspd": 13, "wgst": null, "reportTime": "2026-07-23T05:00:00.000Z", "rawOb": "METAR RJCK 230500Z 19013KT 9999 PRFG FEW001 SCT/// 20/18 Q1009"}, "RJBE": {"temp": 33, "dewp": 26, "wdir": 230, "wspd": 7, "wgst": null, "reportTime": "2026-07-23T05:00:00.000Z", "rawOb": "METAR RJBE 230500Z 23007KT 190V310 9999 FEW035 33/26 Q1007"}, "RJCB": {"temp": 29, "dewp": 20, "wdir": 170, "wspd": 9, "wgst": null, "reportTime": "2026-07-23T05:00:00.000Z", "rawOb": "METAR RJCB 230500Z 17009KT 060V200 9999 FEW030 29/20 Q1008"}, "RJCO": {"temp": 26, "dewp": 21, "wdir": 320, "wspd": 11, "wgst": null, "reportTime": "2026-07-23T05:00:00.000Z", "rawOb": "METAR RJCO 230500Z 32011KT 9999 FEW015 SCT250 26/21 Q1009"}, "RJEC": {"temp": 29, "dewp": 18, "wdir": 10, "wspd": 11, "wgst": null, "reportTime": "2026-07-23T05:00:00.000Z", "rawOb": "METAR RJEC 230500Z 01011KT 9999 VCSH FEW020 SCT030 BKN/// 29/18 Q1009"}, "RJOM": {"temp": 31, "dewp": 27, "wdir": 220, "wspd": 6, "wgst": null, "reportTime": "2026-07-23T05:00:00.000Z", "rawOb": "METAR RJOM 230500Z 22006KT 9999 FEW030 31/27 Q1008"}, "RJOO": {"temp": 37, "dewp": 24, "wdir": "VRB", "wspd": 5, "wgst": null, "reportTime": "2026-07-23T05:00:00.000Z", "rawOb": "METAR RJOO 230500Z VRB05KT 9999 FEW035 37/24 Q1007"}, "RJOA": {"temp": 33, "dewp": 26, "wdir": 200, "wspd": 6, "wgst": null, "reportTime": "2026-07-23T05:00:00.000Z", "rawOb": "METAR RJOA 230500Z 20006KT 140V240 9999 FEW030 33/26 Q1010"}, "RJOT": {"temp": 34, "dewp": 24, "wdir": 110, "wspd": 3, "wgst": null, "reportTime": "2026-07-23T05:00:00.000Z", "rawOb": "METAR RJOT 230500Z 11003KT 060V140 9999 FEW035 SCT045 34/24 Q1009"}, "_updated": "2026-07-23T07:20:16Z"}