{"RJCB": {"temp": 25, "dewp": 24, "wdir": 170, "wspd": 5, "wgst": null, "reportTime": "2026-07-12T04:00:00.000Z", "rawOb": "METAR RJCB 120400Z 17005KT 9999 -SHRA FEW010 SCT030 BKN150 25/24 Q1004"}, "RJGG": {"temp": 30, "dewp": 23, "wdir": 290, "wspd": 2, "wgst": null, "reportTime": "2026-07-12T04:00:00.000Z", "rawOb": "METAR RJGG 120400Z 29002KT 9999 FEW020 BKN/// 30/23 Q1011 BECMG FM0500 20006KT"}, "RJOM": {"temp": 30, "dewp": 25, "wdir": 340, "wspd": 4, "wgst": null, "reportTime": "2026-07-12T04:00:00.000Z", "rawOb": "METAR RJOM 120400Z 34004KT 9999 FEW030 BKN/// 30/25 Q1013"}, "RJSK": {"temp": 24, "dewp": 23, "wdir": 260, "wspd": 18, "wgst": null, "reportTime": "2026-07-12T04:00:00.000Z", "rawOb": "METAR RJSK 120400Z 26018KT 2000 SHRA BR FEW000 BKN005 BKN007 24/23 Q1007"}, "RJAA": {"temp": 29, "dewp": 23, "wdir": 220, "wspd": 4, "wgst": null, "reportTime": "2026-07-12T04:00:00.000Z", "rawOb": "METAR RJAA 120400Z 22004KT 180V270 9999 FEW020 BKN150 BKN/// 29/23 Q1010 NOSIG"}, "RJBB": {"temp": 28, "dewp": 24, "wdir": 270, "wspd": 3, "wgst": null, "reportTime": "2026-07-12T04:00:00.000Z", "rawOb": "METAR RJBB 120400Z 27003KT 9999 FEW020 BKN/// 28/24 Q1013 NOSIG"}, "RJBE": {"temp": 29, "dewp": 25, "wdir": 220, "wspd": 9, "wgst": null, "reportTime": "2026-07-12T04:00:00.000Z", "rawOb": "METAR RJBE 120400Z 22009KT 9999 FEW030 BKN/// 29/25 Q1013"}, "RJCK": {"temp": 21, "dewp": 19, "wdir": 160, "wspd": 8, "wgst": null, "reportTime": "2026-07-12T04:00:00.000Z", "rawOb": "METAR RJCK 120400Z 16008KT 9999 FEW005 BKN/// 21/19 Q1005"}, "RJCO": {"temp": 26, "dewp": 22, "wdir": 110, "wspd": 5, "wgst": null, "reportTime": "2026-07-12T04:00:00.000Z", "rawOb": "METAR RJCO 120400Z 11005KT 9999 -SHRA FEW020 BKN030 BKN060 26/22 Q1004"}, "RJEC": {"temp": 27, "dewp": 23, "wdir": 80, "wspd": 7, "wgst": null, "reportTime": "2026-07-12T04:00:00.000Z", "rawOb": "METAR RJEC 120400Z 08007KT 040V130 9999 -TSRA FEW005 SCT015 BKN025 FEW025CB 27/23 Q1004"}, "RJFF": {"temp": 36, "dewp": 23, "wdir": 170, "wspd": 13, "wgst": null, "reportTime": "2026-07-12T04:00:00.000Z", "rawOb": "METAR RJFF 120400Z 17013KT 150V210 9999 FEW035 36/23 Q1012 BECMG 30009KT"}, "RJTT": {"temp": 28, "dewp": 24, "wdir": 170, "wspd": 11, "wgst": null, "reportTime": "2026-07-12T04:00:00.000Z", "rawOb": "METAR RJTT 120400Z 17011KT 9999 FEW020 BKN160 BKN/// 28/24 Q1011 NOSIG"}, "RJOO": {"temp": 31, "dewp": 23, "wdir": "VRB", "wspd": 6, "wgst": null, "reportTime": "2026-07-12T04:00:00.000Z", "rawOb": "METAR RJOO 120400Z VRB06KT 9999 FEW020 BKN/// 31/23 Q1013"}, "RJSS": {"temp": 25, "dewp": 24, "wdir": 180, "wspd": 6, "wgst": null, "reportTime": "2026-07-12T04:00:00.000Z", "rawOb": "METAR RJSS 120400Z 18006KT 8000 -SHRA FEW003 SCT080 BKN120 25/24 Q1008"}, "RJOB": {"temp": 31, "dewp": 25, "wdir": 240, "wspd": 5, "wgst": null, "reportTime": "2026-07-12T04:00:00.000Z", "rawOb": "METAR RJOB 120400Z 24005KT 210V270 9999 FEW020 BKN/// 31/25 Q1014"}, "RJOA": {"temp": 31, "dewp": 23, "wdir": "VRB", "wspd": 5, "wgst": null, "reportTime": "2026-07-12T04:00:00.000Z", "rawOb": "METAR RJOA 120400Z VRB05KT 9999 FEW020 SCT030 BKN/// 31/23 Q1015"}, "RJOT": {"temp": 32, "dewp": 25, "wdir": 290, "wspd": 6, "wgst": null, "reportTime": "2026-07-12T04:00:00.000Z", "rawOb": "METAR RJOT 120400Z 29006KT 240V330 9999 FEW025 BKN/// 32/25 Q1014"}, "ROAH": {"temp": 31, "dewp": 27, "wdir": 160, "wspd": 23, "wgst": null, "reportTime": "2026-07-12T04:00:00.000Z", "rawOb": "METAR ROAH 120400Z 16023KT 9999 FEW011 BKN018 BKN/// 31/27 Q1009"}, "_updated": "2026-07-12T06:37:15Z"}