{"RJGG": {"temp": 28, "dewp": 22, "wdir": 180, "wspd": 12, "wgst": null, "reportTime": "2026-07-09T05:30:00.000Z", "rawOb": "METAR RJGG 090530Z 18012KT 9999 FEW020 28/22 Q1014 NOSIG"}, "RJFF": {"temp": 31, "dewp": 24, "wdir": 330, "wspd": 8, "wgst": null, "reportTime": "2026-07-09T05:30:00.000Z", "rawOb": "METAR RJFF 090530Z 33008KT 280V050 9999 FEW015 SCT040 BKN060 31/24 Q1011 NOSIG"}, "ROAH": {"temp": 33, "dewp": 27, "wdir": 80, "wspd": 22, "wgst": null, "reportTime": "2026-07-09T05:30:00.000Z", "rawOb": "METAR ROAH 090530Z 08022KT 9999 FEW008 BKN023 33/27 Q1004"}, "RJBB": {"temp": 28, "dewp": 22, "wdir": 230, "wspd": 14, "wgst": null, "reportTime": "2026-07-09T05:30:00.000Z", "rawOb": "METAR RJBB 090530Z 23014KT 9999 FEW030 SCT050 28/22 Q1013 NOSIG"}, "RJTT": {"temp": 30, "dewp": 21, "wdir": 190, "wspd": 13, "wgst": null, "reportTime": "2026-07-09T05:30:00.000Z", "rawOb": "METAR RJTT 090530Z 19013KT 9999 FEW025 SCT/// 30/21 Q1014 NOSIG"}, "RJAA": {"temp": 28, "dewp": 21, "wdir": 140, "wspd": 10, "wgst": null, "reportTime": "2026-07-09T05:30:00.000Z", "rawOb": "METAR RJAA 090530Z 14010KT 9999 FEW030 28/21 Q1014 NOSIG"}, "RJCO": {"temp": 23, "dewp": 19, "wdir": 140, "wspd": 14, "wgst": null, "reportTime": "2026-07-09T06:00:00.000Z", "rawOb": "METAR RJCO 090600Z 14014KT 9999 FEW015 SCT070 BKN120 23/19 Q1012"}, "RJBE": {"temp": 28, "dewp": 22, "wdir": 220, "wspd": 14, "wgst": null, "reportTime": "2026-07-09T06:00:00.000Z", "rawOb": "METAR RJBE 090600Z 22014KT 9999 FEW035 SCT050 28/22 Q1013"}, "RJCB": {"temp": 24, "dewp": 20, "wdir": 160, "wspd": 8, "wgst": null, "reportTime": "2026-07-09T06:00:00.000Z", "rawOb": "METAR RJCB 090600Z 16008KT 9999 FEW015 SCT150 BKN170 24/20 Q1014"}, "RJCK": {"temp": 20, "dewp": 18, "wdir": 180, "wspd": 10, "wgst": null, "reportTime": "2026-07-09T06:00:00.000Z", "rawOb": "METAR RJCK 090600Z 18010KT 9999 R17/P2000N PRFG FEW001 SCT007 BKN030 20/18 Q1014"}, "RJEC": {"temp": 28, "dewp": 20, "wdir": 200, "wspd": 5, "wgst": null, "reportTime": "2026-07-09T06:00:00.000Z", "rawOb": "METAR RJEC 090600Z 20005KT 160V250 9999 FEW025 SCT050 BKN160 28/20 Q1012"}, "RJOA": {"temp": 29, "dewp": 23, "wdir": 180, "wspd": 6, "wgst": null, "reportTime": "2026-07-09T06:00:00.000Z", "rawOb": "METAR RJOA 090600Z 18006KT 130V230 9999 FEW025 SCT040 29/23 Q1014"}, "RJOB": {"temp": 29, "dewp": 23, "wdir": 90, "wspd": 3, "wgst": null, "reportTime": "2026-07-09T06:00:00.000Z", "rawOb": "METAR RJOB 090600Z 09003KT 030V210 9999 FEW020 SCT030 BKN050 29/23 Q1014"}, "RJOM": {"temp": 27, "dewp": 24, "wdir": 270, "wspd": 5, "wgst": null, "reportTime": "2026-07-09T06:00:00.000Z", "rawOb": "METAR RJOM 090600Z 27005KT 9999 FEW030 BKN040 27/24 Q1012"}, "RJOO": {"temp": 31, "dewp": 18, "wdir": "VRB", "wspd": 7, "wgst": null, "reportTime": "2026-07-09T06:00:00.000Z", "rawOb": "METAR RJOO 090600Z VRB07KT 9999 FEW030 31/18 Q1012"}, "RJOT": {"temp": 28, "dewp": 23, "wdir": 70, "wspd": 6, "wgst": null, "reportTime": "2026-07-09T06:00:00.000Z", "rawOb": "METAR RJOT 090600Z 07006KT 9999 FEW025 SCT035 BKN060 28/23 Q1013"}, "RJSK": {"temp": 29, "dewp": 22, "wdir": 280, "wspd": 7, "wgst": null, "reportTime": "2026-07-09T06:00:00.000Z", "rawOb": "METAR RJSK 090600Z 28007KT 9999 FEW035 SCT130 29/22 Q1013"}, "RJSS": {"temp": 26, "dewp": 21, "wdir": 140, "wspd": 11, "wgst": null, "reportTime": "2026-07-09T06:00:00.000Z", "rawOb": "METAR RJSS 090600Z 14011KT 9999 FEW040 SCT/// 26/21 Q1013"}, "_updated": "2026-07-09T08:01:16Z"}