{"RJBB": {"temp": 28, "dewp": 23, "wdir": 240, "wspd": 13, "wgst": null, "reportTime": "2026-07-10T05:00:00.000Z", "rawOb": "METAR RJBB 100500Z 24013KT 9999 FEW030 28/23 Q1014 NOSIG"}, "RJFF": {"temp": 34, "dewp": 22, "wdir": 340, "wspd": 12, "wgst": null, "reportTime": "2026-07-10T05:00:00.000Z", "rawOb": "METAR RJFF 100500Z 34012KT 9999 FEW045 34/22 Q1011 TEMPO FM0600 -TSRA"}, "RJGG": {"temp": 30, "dewp": 22, "wdir": 160, "wspd": 11, "wgst": null, "reportTime": "2026-07-10T05:00:00.000Z", "rawOb": "METAR RJGG 100500Z 16011KT 9999 FEW020 30/22 Q1015 NOSIG"}, "RJTT": {"temp": 30, "dewp": 22, "wdir": 190, "wspd": 16, "wgst": null, "reportTime": "2026-07-10T05:00:00.000Z", "rawOb": "METAR RJTT 100500Z 19016KT 9999 FEW030 30/22 Q1015 NOSIG"}, "RJAA": {"temp": 29, "dewp": 22, "wdir": 150, "wspd": 12, "wgst": null, "reportTime": "2026-07-10T05:00:00.000Z", "rawOb": "METAR RJAA 100500Z 15012KT 9999 FEW030 29/22 Q1015 NOSIG"}, "ROAH": {"temp": 28, "dewp": 26, "wdir": 90, "wspd": 25, "wgst": 38, "reportTime": "2026-07-10T05:00:00.000Z", "rawOb": "METAR ROAH 100500Z 09025G38KT 9999 SHRA FEW017 BKN026 BKN090 28/26 Q0999"}, "RJOA": {"temp": 30, "dewp": 21, "wdir": "VRB", "wspd": 4, "wgst": null, "reportTime": "2026-07-10T05:00:00.000Z", "rawOb": "METAR RJOA 100500Z VRB04KT 9999 FEW025 SCT035 30/21 Q1015"}, "RJOB": {"temp": 29, "dewp": 22, "wdir": "VRB", "wspd": 3, "wgst": null, "reportTime": "2026-07-10T05:00:00.000Z", "rawOb": "METAR RJOB 100500Z VRB03KT 9999 FEW020 BKN030 29/22 Q1015"}, "RJCK": {"temp": 19, "dewp": 19, "wdir": 100, "wspd": 3, "wgst": null, "reportTime": "2026-07-10T05:00:00.000Z", "rawOb": "METAR RJCK 100500Z 10003KT 060V130 0900 R17/1600VP2000N FG -SHRA BKN001 BKN002 19/19 Q1011"}, "RJCB": {"temp": 21, "dewp": 21, "wdir": "VRB", "wspd": 1, "wgst": null, "reportTime": "2026-07-10T05:00:00.000Z", "rawOb": "METAR RJCB 100500Z VRB01KT 4500 R35/2000N SHRA BR FEW002 SCT003 BKN006 21/21 Q1011"}, "RJBE": {"temp": 29, "dewp": 23, "wdir": 230, "wspd": 10, "wgst": null, "reportTime": "2026-07-10T05:00:00.000Z", "rawOb": "METAR RJBE 100500Z 23010KT 9999 FEW035 29/23 Q1014"}, "RJOT": {"temp": 29, "dewp": 23, "wdir": 50, "wspd": 7, "wgst": null, "reportTime": "2026-07-10T05:00:00.000Z", "rawOb": "METAR RJOT 100500Z 05007KT 290V090 9999 FEW020 BKN035 29/23 Q1015"}, "RJOO": {"temp": 32, "dewp": 21, "wdir": 200, "wspd": 8, "wgst": null, "reportTime": "2026-07-10T05:00:00.000Z", "rawOb": "METAR RJOO 100500Z 20008KT 160V270 9999 FEW035 32/21 Q1014"}, "RJOM": {"temp": 29, "dewp": 24, "wdir": 210, "wspd": 8, "wgst": null, "reportTime": "2026-07-10T05:00:00.000Z", "rawOb": "METAR RJOM 100500Z 21008KT 9999 FEW025 SCT060 29/24 Q1013"}, "RJEC": {"temp": 25, "dewp": 22, "wdir": 360, "wspd": 3, "wgst": null, "reportTime": "2026-07-10T05:00:00.000Z", "rawOb": "METAR RJEC 100500Z 36003KT 310V030 9999 FEW007 BKN012 BKN030 25/22 Q1011"}, "RJCO": {"temp": 23, "dewp": 22, "wdir": 120, "wspd": 5, "wgst": null, "reportTime": "2026-07-10T05:00:00.000Z", "rawOb": "METAR RJCO 100500Z 12005KT 9999 -SHRA SCT006 BKN030 BKN100 23/22 Q1011"}, "RJSK": {"temp": 30, "dewp": 22, "wdir": 280, "wspd": 9, "wgst": null, "reportTime": "2026-07-10T05:00:00.000Z", "rawOb": "METAR RJSK 100500Z 28009KT 9999 FEW030 BKN/// 30/22 Q1014"}, "RJSS": {"temp": 27, "dewp": 22, "wdir": 150, "wspd": 10, "wgst": null, "reportTime": "2026-07-10T05:00:00.000Z", "rawOb": "METAR RJSS 100500Z 15010KT 9999 FEW040 27/22 Q1014"}, "_updated": "2026-07-10T07:54:11Z"}