{"RJOA": {"temp": 27, "dewp": 22, "wdir": "VRB", "wspd": 1, "wgst": null, "reportTime": "2026-07-17T12:00:00.000Z", "rawOb": "METAR RJOA 171200Z VRB01KT 9999 FEW030 SCT070 BKN090 27/22 Q1005"}, "RJAA": {"temp": 25, "dewp": 24, "wdir": 140, "wspd": 9, "wgst": null, "reportTime": "2026-07-17T11:30:00.000Z", "rawOb": "METAR RJAA 171130Z 14009KT 9999 FEW005 SCT008 BKN015 25/24 Q1006 TEMPO FEW005 BKN008"}, "RJTT": {"temp": 27, "dewp": 25, "wdir": 150, "wspd": 12, "wgst": null, "reportTime": "2026-07-17T11:30:00.000Z", "rawOb": "METAR RJTT 171130Z 15012KT 9999 FEW012 SCT030 BKN040 27/25 Q1005 NOSIG"}, "RJSS": {"temp": 23, "dewp": 23, "wdir": 140, "wspd": 10, "wgst": null, "reportTime": "2026-07-17T12:00:00.000Z", "rawOb": "METAR RJSS 171200Z 14010KT 9999 FEW002 SCT003 BKN004 23/23 Q1007"}, "RJOT": {"temp": 27, "dewp": 23, "wdir": 140, "wspd": 5, "wgst": null, "reportTime": "2026-07-17T12:00:00.000Z", "rawOb": "METAR RJOT 171200Z 14005KT 9999 FEW025 BKN/// 27/23 Q1004"}, "RJOO": {"temp": 31, "dewp": 22, "wdir": 230, "wspd": 5, "wgst": null, "reportTime": "2026-07-17T12:00:00.000Z", "rawOb": "METAR RJOO 171200Z AUTO 23005KT 160V280 9999 NCD 31/22 Q1003"}, "RJOM": {"temp": 28, "dewp": 25, "wdir": 280, "wspd": 3, "wgst": null, "reportTime": "2026-07-17T12:00:00.000Z", "rawOb": "METAR RJOM 171200Z 28003KT 9999 FEW030 BKN080 BKN/// 28/25 Q1003"}, "ROAH": {"temp": 28, "dewp": 27, "wdir": 220, "wspd": 7, "wgst": null, "reportTime": "2026-07-17T11:30:00.000Z", "rawOb": "METAR ROAH 171130Z 22007KT 9999 FEW006 BKN/// 28/27 Q1006"}, "RJGG": {"temp": 28, "dewp": 26, "wdir": 130, "wspd": 10, "wgst": null, "reportTime": "2026-07-17T11:30:00.000Z", "rawOb": "METAR RJGG 171130Z 13010KT 9999 FEW020 BKN/// 28/26 Q1004 NOSIG"}, "RJFF": {"temp": 30, "dewp": 25, "wdir": 130, "wspd": 7, "wgst": null, "reportTime": "2026-07-17T11:30:00.000Z", "rawOb": "METAR RJFF 171130Z 13007KT 9999 FEW030 BKN/// 30/25 Q1002 NOSIG"}, "RJEC": {"temp": 23, "dewp": 21, "wdir": "VRB", "wspd": 2, "wgst": null, "reportTime": "2026-07-17T12:00:00.000Z", "rawOb": "METAR RJEC 171200Z AUTO VRB02KT 9999 NCD 23/21 Q1008"}, "RJCK": {"temp": 18, "dewp": 18, "wdir": "VRB", "wspd": 1, "wgst": null, "reportTime": "2026-07-17T12:00:00.000Z", "rawOb": "METAR RJCK 171200Z AUTO VRB01KT 0100 R35/0400N FG OVC000 18/18 Q1011"}, "RJBB": {"temp": 29, "dewp": 26, "wdir": 220, "wspd": 9, "wgst": null, "reportTime": "2026-07-17T11:30:00.000Z", "rawOb": "METAR RJBB 171130Z 22009KT 9999 FEW030 SCT100 BKN/// 29/26 Q1003 NOSIG"}, "RJBE": {"temp": 27, "dewp": 25, "wdir": 260, "wspd": 7, "wgst": null, "reportTime": "2026-07-17T12:00:00.000Z", "rawOb": "METAR RJBE 171200Z 26007KT 9999 FEW030 BKN/// 27/25 Q1003"}, "RJOB": {"temp": 29, "dewp": 20, "wdir": 120, "wspd": 2, "wgst": null, "reportTime": "2026-07-17T12:00:00.000Z", "rawOb": "METAR RJOB 171200Z 12002KT 9999 FEW025 BKN090 BKN110 29/20 Q1004"}, "RJSK": {"temp": 27, "dewp": 22, "wdir": 120, "wspd": 8, "wgst": null, "reportTime": "2026-07-17T12:00:00.000Z", "rawOb": "METAR RJSK 171200Z 12008KT 9999 FEW020 BKN/// 27/22 Q1005"}, "_updated": "2026-07-17T14:16:39Z"}