{"RJOM": {"temp": 28, "dewp": 23, "wdir": 130, "wspd": 7, "wgst": null, "reportTime": "2026-07-14T21:00:00.000Z", "rawOb": "METAR RJOM 142100Z AUTO 13007KT 9999 NCD 28/23 Q1005"}, "ROAH": {"temp": 26, "dewp": 25, "wdir": 210, "wspd": 11, "wgst": null, "reportTime": "2026-07-14T20:30:00.000Z", "rawOb": "METAR ROAH 142030Z AUTO 21011KT 9999 FEW007 26/25 Q1010"}, "RJFF": {"temp": 28, "dewp": 25, "wdir": 180, "wspd": 7, "wgst": null, "reportTime": "2026-07-14T20:30:00.000Z", "rawOb": "METAR RJFF 142030Z AUTO 18007KT 140V220 9999 FEW033 SCT040 BKN047 28/25 Q1006 NOSIG"}, "RJTT": {"temp": 27, "dewp": 25, "wdir": 190, "wspd": 6, "wgst": null, "reportTime": "2026-07-14T20:30:00.000Z", "rawOb": "METAR RJTT 142030Z 19006KT 9999 FEW010 BKN015 27/25 Q1005 TEMPO FEW007 BKN011"}, "RJEC": {"temp": 23, "dewp": 21, "wdir": 150, "wspd": 4, "wgst": null, "reportTime": "2026-07-14T21:00:00.000Z", "rawOb": "METAR RJEC 142100Z AUTO 15004KT 9999 NSC 23/21 Q1002"}, "RJCO": {"temp": 23, "dewp": 21, "wdir": 150, "wspd": 12, "wgst": null, "reportTime": "2026-07-14T22:00:00.000Z", "rawOb": "METAR RJCO 142200Z 15012KT 9999 FEW005 BKN230 23/21 Q1001"}, "RJCK": {"temp": 18, "dewp": 18, "wdir": 70, "wspd": 3, "wgst": null, "reportTime": "2026-07-14T21:00:00.000Z", "rawOb": "METAR RJCK 142100Z AUTO 07003KT 020V120 0100 R35/0200V0275N FG OVC000 18/18 Q1004"}, "RJCB": {"temp": 23, "dewp": 21, "wdir": 140, "wspd": 3, "wgst": null, "reportTime": "2026-07-14T23:00:00.000Z", "rawOb": "METAR RJCB 142300Z 14003KT 070V220 6000 FEW007 BKN009 BKN010 23/21 Q1003"}, "RJBE": {"temp": 28, "dewp": 25, "wdir": 220, "wspd": 7, "wgst": null, "reportTime": "2026-07-14T22:00:00.000Z", "rawOb": "METAR RJBE 142200Z 22007KT 9999 FEW015 BKN045 28/25 Q1006"}, "RJOA": {"temp": 24, "dewp": 23, "wdir": 180, "wspd": 5, "wgst": null, "reportTime": "2026-07-14T21:00:00.000Z", "rawOb": "METAR RJOA 142100Z AUTO 18005KT 130V220 9999 FEW024 SCT034 BKN040 24/23 Q1007"}, "RJBB": {"temp": 26, "dewp": 25, "wdir": 270, "wspd": 3, "wgst": null, "reportTime": "2026-07-14T20:30:00.000Z", "rawOb": "METAR RJBB 142030Z AUTO 27003KT 9999 SCT044 26/25 Q1006 NOSIG"}, "RJOB": {"temp": 26, "dewp": 23, "wdir": 220, "wspd": 3, "wgst": null, "reportTime": "2026-07-14T22:00:00.000Z", "rawOb": "METAR RJOB 142200Z 22003KT 9999 FEW025 BKN040 26/23 Q1007"}, "RJSK": {"temp": 25, "dewp": 24, "wdir": 100, "wspd": 3, "wgst": null, "reportTime": "2026-07-14T22:00:00.000Z", "rawOb": "METAR RJSK 142200Z 10003KT 080V150 8000 FEW001 SCT009 BKN012 25/24 Q1005"}, "RJAA": {"temp": 25, "dewp": 24, "wdir": 180, "wspd": 2, "wgst": null, "reportTime": "2026-07-14T20:30:00.000Z", "rawOb": "METAR RJAA 142030Z AUTO 18002KT 9999 FEW013 SCT070 25/24 Q1005 NOSIG"}, "RJOT": {"temp": 26, "dewp": 23, "wdir": 230, "wspd": 5, "wgst": null, "reportTime": "2026-07-14T21:00:00.000Z", "rawOb": "METAR RJOT 142100Z AUTO 23005KT 9999 NCD 26/23 Q1007"}, "RJOO": {"temp": 28, "dewp": 24, "wdir": 310, "wspd": 4, "wgst": null, "reportTime": "2026-07-14T21:00:00.000Z", "rawOb": "METAR RJOO 142100Z AUTO 31004KT 9999 BKN044 BKN047 28/24 Q1006"}, "RJSS": {"temp": 25, "dewp": 23, "wdir": "VRB", "wspd": 1, "wgst": null, "reportTime": "2026-07-14T21:00:00.000Z", "rawOb": "METAR RJSS 142100Z AUTO VRB01KT 9999 NCD 25/23 Q1004"}, "RJGG": {"temp": 26, "dewp": 24, "wdir": 170, "wspd": 5, "wgst": null, "reportTime": "2026-07-14T20:30:00.000Z", "rawOb": "METAR RJGG 142030Z AUTO 17005KT 9999 NCD 26/24 Q1005 NOSIG"}, "_updated": "2026-07-14T23:11:40Z"}