{"RJCK": {"temp": 17, "dewp": 17, "wdir": 340, "wspd": 5, "wgst": null, "reportTime": "2026-07-12T14:00:00.000Z", "rawOb": "METAR RJCK 121400Z AUTO 34005KT 1600 R17/1100VP2000U BR OVC002 17/17 Q1006"}, "RJSS": {"temp": 25, "dewp": 22, "wdir": 280, "wspd": 8, "wgst": null, "reportTime": "2026-07-12T14:00:00.000Z", "rawOb": "METAR RJSS 121400Z AUTO 28008KT 9999 -RA FEW050 SCT090 BKN100 25/22 Q1006"}, "RJOA": {"temp": 25, "dewp": 23, "wdir": 270, "wspd": 2, "wgst": null, "reportTime": "2026-07-12T14:00:00.000Z", "rawOb": "METAR RJOA 121400Z AUTO 27002KT 9999 NCD 25/23 Q1015"}, "RJOM": {"temp": 26, "dewp": 25, "wdir": 360, "wspd": 4, "wgst": null, "reportTime": "2026-07-12T14:00:00.000Z", "rawOb": "METAR RJOM 121400Z AUTO 36004KT 9999 NCD 26/25 Q1013"}, "RJAA": {"temp": 25, "dewp": 24, "wdir": 190, "wspd": 7, "wgst": null, "reportTime": "2026-07-12T14:00:00.000Z", "rawOb": "METAR RJAA 121400Z AUTO 19007KT 9999 -RA NSC 25/24 Q1008 NOSIG"}, "RJOO": {"temp": 29, "dewp": 24, "wdir": 240, "wspd": 3, "wgst": null, "reportTime": "2026-07-12T14:00:00.000Z", "rawOb": "METAR RJOO 121400Z AUTO 24003KT 200V290 9999 NSC 29/24 Q1012"}, "RJBB": {"temp": 27, "dewp": 24, "wdir": 220, "wspd": 6, "wgst": null, "reportTime": "2026-07-12T14:00:00.000Z", "rawOb": "METAR RJBB 121400Z AUTO 22006KT 9999 NSC 27/24 Q1012 NOSIG"}, "RJOT": {"temp": 26, "dewp": 23, "wdir": 230, "wspd": 7, "wgst": null, "reportTime": "2026-07-12T14:00:00.000Z", "rawOb": "METAR RJOT 121400Z AUTO 23007KT 9999 NSC 26/23 Q1013"}, "RJTT": {"temp": 25, "dewp": 24, "wdir": 190, "wspd": 11, "wgst": null, "reportTime": "2026-07-12T14:00:00.000Z", "rawOb": "METAR RJTT 121400Z 19011KT 9999 -SHRA FEW010 BKN150 25/24 Q1008 NOSIG"}, "RJEC": {"temp": 21, "dewp": 20, "wdir": 190, "wspd": 4, "wgst": null, "reportTime": "2026-07-12T14:00:00.000Z", "rawOb": "METAR RJEC 121400Z AUTO 19004KT 5000 BR FEW014 SCT022 21/20 Q1005"}, "RJFF": {"temp": 29, "dewp": 24, "wdir": 70, "wspd": 3, "wgst": null, "reportTime": "2026-07-12T14:00:00.000Z", "rawOb": "METAR RJFF 121400Z AUTO 07003KT 9999 NCD 29/24 Q1013 NOSIG"}, "RJGG": {"temp": 28, "dewp": 25, "wdir": 300, "wspd": 9, "wgst": null, "reportTime": "2026-07-12T14:00:00.000Z", "rawOb": "METAR RJGG 121400Z AUTO 30009KT 9999 NSC 28/25 Q1011 NOSIG"}, "ROAH": {"temp": 28, "dewp": 26, "wdir": 140, "wspd": 15, "wgst": null, "reportTime": "2026-07-12T14:00:00.000Z", "rawOb": "METAR ROAH 121400Z AUTO 14015KT 9999 FEW008 BKN017 28/26 Q1012"}, "_updated": "2026-07-12T16:36:27Z"}