{"RJSS": {"temp": 24, "dewp": 22, "wdir": 220, "wspd": 3, "wgst": null, "reportTime": "2026-07-23T20:00:00.000Z", "rawOb": "METAR RJSS 232000Z AUTO 22003KT 190V250 9999 -RA BKN007 OVC010 24/22 Q1011"}, "RJFF": {"temp": 26, "dewp": 23, "wdir": "VRB", "wspd": 2, "wgst": null, "reportTime": "2026-07-23T20:00:00.000Z", "rawOb": "METAR RJFF 232000Z AUTO VRB02KT 9999 NCD 26/23 Q1010 NOSIG"}, "RJTT": {"temp": 27, "dewp": 25, "wdir": 80, "wspd": 8, "wgst": null, "reportTime": "2026-07-23T20:00:00.000Z", "rawOb": "METAR RJTT 232000Z 08008KT 9999 SCT010 SCT050 BKN060 27/25 Q1010 TEMPO BKN012"}, "ROAH": {"temp": 29, "dewp": 27, "wdir": 100, "wspd": 8, "wgst": null, "reportTime": "2026-07-23T20:00:00.000Z", "rawOb": "METAR ROAH 232000Z AUTO 10008KT 9999 FEW016 BKN025 //////TCU 29/27 Q1009"}, "RJBB": {"temp": 28, "dewp": 26, "wdir": 290, "wspd": 1, "wgst": null, "reportTime": "2026-07-23T20:00:00.000Z", "rawOb": "METAR RJBB 232000Z AUTO 29001KT 9999 NCD 28/26 Q1010 NOSIG"}, "RJGG": {"temp": 28, "dewp": 24, "wdir": 120, "wspd": 4, "wgst": null, "reportTime": "2026-07-23T20:00:00.000Z", "rawOb": "METAR RJGG 232000Z AUTO 12004KT 9999 NCD 28/24 Q1009 NOSIG"}, "RJOA": {"temp": 25, "dewp": 23, "wdir": 20, "wspd": 2, "wgst": null, "reportTime": "2026-07-23T20:00:00.000Z", "rawOb": "METAR RJOA 232000Z AUTO 02002KT 9999 NCD 25/23 Q1012"}, "RJAA": {"temp": 25, "dewp": 24, "wdir": 50, "wspd": 7, "wgst": null, "reportTime": "2026-07-23T20:00:00.000Z", "rawOb": "METAR RJAA 232000Z AUTO 05007KT 4100 BR OVC002 25/24 Q1010 TEMPO 3000 BR"}, "RJBE": {"temp": 31, "dewp": 23, "wdir": 60, "wspd": 5, "wgst": null, "reportTime": "2026-07-23T22:00:00.000Z", "rawOb": "METAR RJBE 232200Z 06005KT CAVOK 31/23 Q1010"}, "RJSK": {"temp": 24, "dewp": 23, "wdir": 140, "wspd": 2, "wgst": null, "reportTime": "2026-07-23T22:00:00.000Z", "rawOb": "METAR RJSK 232200Z 14002KT 1200 R28/P2000N -SHRA BCFG BR FEW000 SCT001 BKN002 24/23 Q1011"}, "RJOT": {"temp": 26, "dewp": 24, "wdir": 150, "wspd": 6, "wgst": null, "reportTime": "2026-07-23T20:00:00.000Z", "rawOb": "METAR RJOT 232000Z AUTO 15006KT 9999 NCD 26/24 Q1011"}, "RJOM": {"temp": 27, "dewp": 24, "wdir": 120, "wspd": 6, "wgst": null, "reportTime": "2026-07-23T20:00:00.000Z", "rawOb": "METAR RJOM 232000Z AUTO 12006KT 9999 NCD 27/24 Q1010"}, "RJOB": {"temp": 28, "dewp": 25, "wdir": "VRB", "wspd": 2, "wgst": null, "reportTime": "2026-07-23T22:00:00.000Z", "rawOb": "METAR RJOB 232200Z VRB02KT CAVOK 28/25 Q1012"}, "RJOO": {"temp": 27, "dewp": 22, "wdir": 310, "wspd": 6, "wgst": null, "reportTime": "2026-07-23T20:00:00.000Z", "rawOb": "METAR RJOO 232000Z AUTO 31006KT 9999 NCD 27/22 Q1010"}, "RJEC": {"temp": 17, "dewp": 17, "wdir": 360, "wspd": 6, "wgst": null, "reportTime": "2026-07-23T20:00:00.000Z", "rawOb": "METAR RJEC 232000Z AUTO 36006KT 9999 OVC002 17/17 Q1012"}, "RJCO": {"temp": 23, "dewp": 20, "wdir": 110, "wspd": 4, "wgst": null, "reportTime": "2026-07-23T22:00:00.000Z", "rawOb": "METAR RJCO 232200Z 11004KT 070V140 9999 FEW020 BKN250 23/20 Q1011"}, "RJCK": {"temp": 17, "dewp": 16, "wdir": 70, "wspd": 4, "wgst": null, "reportTime": "2026-07-23T20:00:00.000Z", "rawOb": "METAR RJCK 232000Z AUTO 07004KT 9999 FEW006 SCT021 OVC023 17/16 Q1013"}, "_updated": "2026-07-23T22:41:00Z"}