{"ROAH": {"temp": 27, "dewp": 27, "wdir": 230, "wspd": 12, "wgst": null, "reportTime": "2026-07-15T18:30:00.000Z", "rawOb": "METAR ROAH 151830Z AUTO 23012KT 9999 FEW005 OVC010 27/27 Q1009"}, "RJGG": {"temp": 29, "dewp": 25, "wdir": 250, "wspd": 11, "wgst": null, "reportTime": "2026-07-15T18:30:00.000Z", "rawOb": "METAR RJGG 151830Z AUTO 25011KT 9999 NCD 29/25 Q1000 BECMG 27006KT"}, "RJFF": {"temp": 29, "dewp": 25, "wdir": 130, "wspd": 3, "wgst": null, "reportTime": "2026-07-15T18:30:00.000Z", "rawOb": "METAR RJFF 151830Z AUTO 13003KT 090V180 9999 FEW020 OVC023 29/25 Q1003 NOSIG"}, "RJBB": {"temp": 27, "dewp": 24, "wdir": 230, "wspd": 5, "wgst": null, "reportTime": "2026-07-15T18:30:00.000Z", "rawOb": "METAR RJBB 151830Z AUTO 23005KT 9999 NCD 27/24 Q1002 NOSIG"}, "RJAA": {"temp": 25, "dewp": 24, "wdir": 130, "wspd": 4, "wgst": null, "reportTime": "2026-07-15T18:30:00.000Z", "rawOb": "METAR RJAA 151830Z AUTO 13004KT 6000 BKN020 OVC026 25/24 Q1000 TEMPO 4000 BR"}, "RJTT": {"temp": 27, "dewp": 25, "wdir": 200, "wspd": 11, "wgst": null, "reportTime": "2026-07-15T18:30:00.000Z", "rawOb": "METAR RJTT 151830Z 20011KT 9999 FEW010 SCT013 BKN/// 27/25 Q1000 TEMPO FEW006 BKN012"}, "RJOT": {"temp": 26, "dewp": 24, "wdir": 230, "wspd": 4, "wgst": null, "reportTime": "2026-07-15T19:00:00.000Z", "rawOb": "METAR RJOT 151900Z AUTO 23004KT 9999 FEW038 26/24 Q1003"}, "RJSS": {"temp": 25, "dewp": 24, "wdir": 240, "wspd": 2, "wgst": null, "reportTime": "2026-07-15T19:00:00.000Z", "rawOb": "METAR RJSS 151900Z AUTO 24002KT 9999 FEW070 BKN120 OVC130 25/24 Q0999"}, "RJOA": {"temp": 25, "dewp": 23, "wdir": 300, "wspd": 4, "wgst": null, "reportTime": "2026-07-15T19:00:00.000Z", "rawOb": "METAR RJOA 151900Z AUTO 30004KT 9999 FEW015 25/23 Q1004"}, "RJOM": {"temp": 27, "dewp": 25, "wdir": 200, "wspd": 3, "wgst": null, "reportTime": "2026-07-15T19:00:00.000Z", "rawOb": "METAR RJOM 151900Z AUTO 20003KT 9999 BKN032 27/25 Q1003"}, "RJOO": {"temp": 27, "dewp": 23, "wdir": 310, "wspd": 4, "wgst": null, "reportTime": "2026-07-15T19:00:00.000Z", "rawOb": "METAR RJOO 151900Z AUTO 31004KT 9999 FEW040 27/23 Q1002"}, "RJEC": {"temp": 22, "dewp": 20, "wdir": 190, "wspd": 14, "wgst": null, "reportTime": "2026-07-15T19:00:00.000Z", "rawOb": "METAR RJEC 151900Z AUTO 19014KT 9999 -RA FEW050 SCT060 OVC070 22/20 Q0992"}, "RJCK": {"temp": 17, "dewp": 17, "wdir": 170, "wspd": 7, "wgst": null, "reportTime": "2026-07-15T19:00:00.000Z", "rawOb": "METAR RJCK 151900Z AUTO 17007KT 0300 R17/0650N -RA FG OVC001 17/17 Q0998"}, "_updated": "2026-07-15T21:03:47Z"}