{"RJBB": {"temp": 25, "dewp": 20, "wdir": 130, "wspd": 3, "wgst": null, "reportTime": "2026-07-09T17:30:00.000Z", "rawOb": "METAR RJBB 091730Z AUTO 13003KT 9999 SCT038 BKN040 25/20 Q1015 NOSIG"}, "RJOO": {"temp": 24, "dewp": 21, "wdir": "VRB", "wspd": 2, "wgst": null, "reportTime": "2026-07-09T18:00:00.000Z", "rawOb": "METAR RJOO 091800Z AUTO VRB02KT 9999 FEW033 SCT035 24/21 Q1015"}, "RJOT": {"temp": 21, "dewp": 21, "wdir": 140, "wspd": 5, "wgst": null, "reportTime": "2026-07-09T18:00:00.000Z", "rawOb": "METAR RJOT 091800Z AUTO 14005KT 9999 NCD 21/21 Q1015"}, "RJSS": {"temp": 22, "dewp": 20, "wdir": 360, "wspd": 4, "wgst": null, "reportTime": "2026-07-09T18:00:00.000Z", "rawOb": "METAR RJSS 091800Z AUTO 36004KT 9999 NCD 22/20 Q1014"}, "RJTT": {"temp": 25, "dewp": 22, "wdir": 190, "wspd": 9, "wgst": null, "reportTime": "2026-07-09T17:30:00.000Z", "rawOb": "METAR RJTT 091730Z 19009KT 9999 FEW009 25/22 Q1015 NOSIG"}, "ROAH": {"temp": 30, "dewp": 26, "wdir": 70, "wspd": 20, "wgst": null, "reportTime": "2026-07-09T17:30:00.000Z", "rawOb": "METAR ROAH 091730Z AUTO 07020KT 9999 FEW021 SCT024 BKN030 30/26 Q1001"}, "RJAA": {"temp": 22, "dewp": 21, "wdir": 180, "wspd": 3, "wgst": null, "reportTime": "2026-07-09T17:30:00.000Z", "rawOb": "METAR RJAA 091730Z AUTO 18003KT 9999 NCD 22/21 Q1015 NOSIG"}, "RJFF": {"temp": 27, "dewp": 23, "wdir": 140, "wspd": 6, "wgst": null, "reportTime": "2026-07-09T17:30:00.000Z", "rawOb": "METAR RJFF 091730Z AUTO 14006KT 090V160 9999 NCD 27/23 Q1011 NOSIG"}, "RJCK": {"temp": 16, "dewp": 16, "wdir": 180, "wspd": 5, "wgst": null, "reportTime": "2026-07-09T18:00:00.000Z", "rawOb": "METAR RJCK 091800Z AUTO 18005KT 0500 R17/0800V1400U -RA FG FEW000 BKN001 OVC047 16/16 Q1013"}, "RJEC": {"temp": 21, "dewp": 20, "wdir": 170, "wspd": 6, "wgst": null, "reportTime": "2026-07-09T18:00:00.000Z", "rawOb": "METAR RJEC 091800Z AUTO 17006KT 4400 RA BR FEW004 SCT009 BKN037 //////TCU 21/20 Q1012"}, "RJGG": {"temp": 24, "dewp": 22, "wdir": 120, "wspd": 7, "wgst": 18, "reportTime": "2026-07-09T17:30:00.000Z", "rawOb": "METAR RJGG 091730Z AUTO 12007G18KT 090V220 9999 NCD 24/22 Q1015 NOSIG"}, "RJOA": {"temp": 22, "dewp": 21, "wdir": 320, "wspd": 6, "wgst": null, "reportTime": "2026-07-09T18:00:00.000Z", "rawOb": "METAR RJOA 091800Z AUTO 32006KT 9999 NCD 22/21 Q1015"}, "RJOM": {"temp": 24, "dewp": 23, "wdir": "VRB", "wspd": 2, "wgst": null, "reportTime": "2026-07-09T18:00:00.000Z", "rawOb": "METAR RJOM 091800Z AUTO VRB02KT 9999 NCD 24/23 Q1014"}, "_updated": "2026-07-09T20:25:46Z"}