{"RJFF": {"temp": 33, "dewp": 21, "wdir": 330, "wspd": 11, "wgst": null, "reportTime": "2026-07-10T06:00:00.000Z", "rawOb": "METAR RJFF 100600Z 33011KT 9999 FEW040 SCT060 33/21 Q1012 TEMPO FM0630 -TSRA"}, "ROAH": {"temp": 29, "dewp": 25, "wdir": 80, "wspd": 30, "wgst": 46, "reportTime": "2026-07-10T06:00:00.000Z", "rawOb": "METAR ROAH 100600Z 08030G46KT 9999 -SHRA FEW015 SCT023 BKN150 29/25 Q0998"}, "RJAA": {"temp": 29, "dewp": 22, "wdir": 140, "wspd": 11, "wgst": null, "reportTime": "2026-07-10T06:00:00.000Z", "rawOb": "METAR RJAA 100600Z 14011KT 9999 FEW030 29/22 Q1015 NOSIG"}, "RJGG": {"temp": 29, "dewp": 23, "wdir": 170, "wspd": 12, "wgst": null, "reportTime": "2026-07-10T06:00:00.000Z", "rawOb": "METAR RJGG 100600Z 17012KT 9999 FEW020 29/23 Q1014 NOSIG"}, "RJBB": {"temp": 28, "dewp": 24, "wdir": 250, "wspd": 13, "wgst": null, "reportTime": "2026-07-10T06:00:00.000Z", "rawOb": "METAR RJBB 100600Z 25013KT 9999 FEW030 SCT050 28/24 Q1014 NOSIG"}, "RJTT": {"temp": 30, "dewp": 22, "wdir": 180, "wspd": 17, "wgst": null, "reportTime": "2026-07-10T06:00:00.000Z", "rawOb": "METAR RJTT 100600Z 18017KT 9999 FEW030 30/22 Q1014 NOSIG"}, "RJEC": {"temp": 25, "dewp": 22, "wdir": 10, "wspd": 4, "wgst": null, "reportTime": "2026-07-10T06:00:00.000Z", "rawOb": "METAR RJEC 100600Z 01004KT 290V060 9999 FEW007 SCT012 BKN030 25/22 Q1011"}, "RJOB": {"temp": 29, "dewp": 22, "wdir": "VRB", "wspd": 3, "wgst": null, "reportTime": "2026-07-10T06:00:00.000Z", "rawOb": "METAR RJOB 100600Z VRB03KT 9999 FEW020 SCT035 29/22 Q1015"}, "RJSK": {"temp": 30, "dewp": 21, "wdir": 300, "wspd": 9, "wgst": null, "reportTime": "2026-07-10T06:00:00.000Z", "rawOb": "METAR RJSK 100600Z 30009KT 9999 FEW030 BKN/// 30/21 Q1014"}, "RJSS": {"temp": 26, "dewp": 22, "wdir": 150, "wspd": 10, "wgst": null, "reportTime": "2026-07-10T06:00:00.000Z", "rawOb": "METAR RJSS 100600Z 15010KT 9999 FEW040 SCT/// 26/22 Q1013"}, "RJCB": {"temp": 22, "dewp": 22, "wdir": 170, "wspd": 3, "wgst": null, "reportTime": "2026-07-10T06:00:00.000Z", "rawOb": "METAR RJCB 100600Z 17003KT 140V210 9999 -SHRA FEW003 BKN006 BKN050 22/22 Q1011"}, "RJOT": {"temp": 29, "dewp": 23, "wdir": 90, "wspd": 6, "wgst": null, "reportTime": "2026-07-10T06:00:00.000Z", "rawOb": "METAR RJOT 100600Z 09006KT 9999 FEW020 SCT035 BKN045 29/23 Q1015"}, "RJBE": {"temp": 29, "dewp": 24, "wdir": 250, "wspd": 11, "wgst": null, "reportTime": "2026-07-10T06:00:00.000Z", "rawOb": "METAR RJBE 100600Z 25011KT 9999 FEW030 SCT045 29/24 Q1014"}, "RJOA": {"temp": 29, "dewp": 22, "wdir": "VRB", "wspd": 4, "wgst": null, "reportTime": "2026-07-10T06:00:00.000Z", "rawOb": "METAR RJOA 100600Z VRB04KT 9999 FEW025 SCT035 29/22 Q1015"}, "RJCO": {"temp": 24, "dewp": 23, "wdir": 130, "wspd": 2, "wgst": null, "reportTime": "2026-07-10T06:00:00.000Z", "rawOb": "METAR RJCO 100600Z 13002KT 9999 -SHRA FEW006 BKN030 BKN100 24/23 Q1011"}, "RJOM": {"temp": 28, "dewp": 24, "wdir": 270, "wspd": 4, "wgst": null, "reportTime": "2026-07-10T06:00:00.000Z", "rawOb": "METAR RJOM 100600Z 27004KT 9999 FEW025 SCT060 28/24 Q1014"}, "RJCK": {"temp": 18, "dewp": 18, "wdir": 150, "wspd": 4, "wgst": null, "reportTime": "2026-07-10T06:00:00.000Z", "rawOb": "METAR RJCK 100600Z 15004KT 110V190 0900 R17/1900U FG -SHRA BKN001 BKN002 18/18 Q1011"}, "RJOO": {"temp": 31, "dewp": 21, "wdir": 240, "wspd": 8, "wgst": null, "reportTime": "2026-07-10T06:00:00.000Z", "rawOb": "METAR RJOO 100600Z 24008KT 190V280 9999 FEW035 SCT070 31/21 Q1014"}, "_updated": "2026-07-10T08:51:07Z"}