{"RJAA": {"temp": 25, "dewp": 24, "wdir": 170, "wspd": 3, "wgst": null, "reportTime": "2026-07-20T19:00:00.000Z", "rawOb": "METAR RJAA 201900Z AUTO 17003KT 9999 NSC 25/24 Q1007 NOSIG"}, "ROAH": {"temp": 28, "dewp": 27, "wdir": 230, "wspd": 8, "wgst": null, "reportTime": "2026-07-20T19:00:00.000Z", "rawOb": "METAR ROAH 201900Z AUTO 23008KT 9999 NCD 28/27 Q1009"}, "RJTT": {"temp": 27, "dewp": 26, "wdir": 180, "wspd": 7, "wgst": null, "reportTime": "2026-07-20T19:00:00.000Z", "rawOb": "METAR RJTT 201900Z 18007KT 9999 FEW010 27/26 Q1007 NOSIG"}, "RJGG": {"temp": 28, "dewp": 27, "wdir": 120, "wspd": 4, "wgst": null, "reportTime": "2026-07-20T19:00:00.000Z", "rawOb": "METAR RJGG 201900Z AUTO 12004KT 9999 NCD 28/27 Q1008 NOSIG"}, "RJFF": {"temp": 27, "dewp": 24, "wdir": 110, "wspd": 3, "wgst": null, "reportTime": "2026-07-20T19:00:00.000Z", "rawOb": "METAR RJFF 201900Z AUTO 11003KT 9999 SCT029 BKN042 BKN060 27/24 Q1008 NOSIG"}, "RJBB": {"temp": 28, "dewp": 25, "wdir": 230, "wspd": 5, "wgst": null, "reportTime": "2026-07-20T19:00:00.000Z", "rawOb": "METAR RJBB 201900Z AUTO 23005KT 9999 NCD 28/25 Q1008 NOSIG"}, "RJEC": {"temp": 20, "dewp": 19, "wdir": 340, "wspd": 5, "wgst": null, "reportTime": "2026-07-20T19:00:00.000Z", "rawOb": "METAR RJEC 201900Z AUTO 34005KT 9999 SCT003 OVC007 20/19 Q1008"}, "RJOA": {"temp": 25, "dewp": 24, "wdir": 290, "wspd": 4, "wgst": null, "reportTime": "2026-07-20T19:00:00.000Z", "rawOb": "METAR RJOA 201900Z AUTO 29004KT 6000 NSC 25/24 Q1011"}, "RJOM": {"temp": 27, "dewp": 26, "wdir": 10, "wspd": 3, "wgst": null, "reportTime": "2026-07-20T19:00:00.000Z", "rawOb": "METAR RJOM 201900Z AUTO 01003KT 8000 NCD 27/26 Q1008"}, "RJOO": {"temp": 29, "dewp": 25, "wdir": 280, "wspd": 4, "wgst": null, "reportTime": "2026-07-20T19:00:00.000Z", "rawOb": "METAR RJOO 201900Z AUTO 28004KT 9999 NCD 29/25 Q1008"}, "RJOT": {"temp": 27, "dewp": 25, "wdir": 210, "wspd": 4, "wgst": null, "reportTime": "2026-07-20T19:00:00.000Z", "rawOb": "METAR RJOT 201900Z AUTO 21004KT 9999 SCT033 27/25 Q1010"}, "RJSS": {"temp": 25, "dewp": 24, "wdir": 0, "wspd": 0, "wgst": null, "reportTime": "2026-07-20T19:00:00.000Z", "rawOb": "METAR RJSS 201900Z AUTO 00000KT 3700 BR FEW060 25/24 Q1007"}, "RJCK": {"temp": 19, "dewp": 19, "wdir": "VRB", "wspd": 2, "wgst": null, "reportTime": "2026-07-20T19:00:00.000Z", "rawOb": "METAR RJCK 201900Z AUTO VRB02KT 5000 R35/0800V1400U BR FEW000 OVC014 19/19 Q1005"}, "_updated": "2026-07-20T21:43:59Z"}