{"RJOM": {"temp": 29, "dewp": 24, "wdir": 350, "wspd": 4, "wgst": null, "reportTime": "2026-07-11T10:00:00.000Z", "rawOb": "METAR RJOM 111000Z 35004KT 9999 FEW030 SCT/// 29/24 Q1013"}, "RJFF": {"temp": 34, "dewp": 24, "wdir": 250, "wspd": 6, "wgst": null, "reportTime": "2026-07-11T10:00:00.000Z", "rawOb": "METAR RJFF 111000Z 25006KT 190V270 9999 FEW020 SCT/// 34/24 Q1010 BECMG 14004KT"}, "RJSK": {"temp": 23, "dewp": 22, "wdir": 110, "wspd": 2, "wgst": null, "reportTime": "2026-07-11T10:00:00.000Z", "rawOb": "METAR RJSK 111000Z 11002KT 5000 R28/P2000N -SHRA PRFG BR FEW000 SCT010 BKN015 23/22 Q1012"}, "RJSS": {"temp": 24, "dewp": 23, "wdir": 160, "wspd": 3, "wgst": null, "reportTime": "2026-07-11T10:00:00.000Z", "rawOb": "METAR RJSS 111000Z 16003KT 8000 -SHRA FEW010 SCT020 BKN040 24/23 Q1012"}, "ROAH": {"temp": 28, "dewp": 26, "wdir": 150, "wspd": 33, "wgst": 45, "reportTime": "2026-07-11T10:00:00.000Z", "rawOb": "METAR ROAH 111000Z 15033G45KT 6000 BKN014 BKN020 28/26 Q1001"}, "RJOA": {"temp": 26, "dewp": 22, "wdir": 180, "wspd": 3, "wgst": null, "reportTime": "2026-07-11T10:00:00.000Z", "rawOb": "METAR RJOA 111000Z 18003KT 130V230 9999 FEW025 BKN/// 26/22 Q1015"}, "RJCK": {"temp": 17, "dewp": 17, "wdir": "VRB", "wspd": 2, "wgst": null, "reportTime": "2026-07-11T10:00:00.000Z", "rawOb": "METAR RJCK 111000Z VRB02KT 3500 R17/P2000N BCFG -SHRA BR FEW001 SCT004 BKN005 17/17 Q1009"}, "RJOO": {"temp": 28, "dewp": 21, "wdir": "VRB", "wspd": 3, "wgst": null, "reportTime": "2026-07-11T10:00:00.000Z", "rawOb": "METAR RJOO 111000Z VRB03KT 9999 FEW030 BKN/// 28/21 Q1013"}, "RJOT": {"temp": 28, "dewp": 25, "wdir": 110, "wspd": 2, "wgst": null, "reportTime": "2026-07-11T10:00:00.000Z", "rawOb": "METAR RJOT 111000Z 11002KT 9999 FEW020 BKN/// 28/25 Q1014"}, "RJBB": {"temp": 27, "dewp": 23, "wdir": 220, "wspd": 9, "wgst": null, "reportTime": "2026-07-11T10:00:00.000Z", "rawOb": "METAR RJBB 111000Z 22009KT 9999 FEW025 BKN180 BKN/// 27/23 Q1014 NOSIG"}, "RJTT": {"temp": 26, "dewp": 23, "wdir": 180, "wspd": 15, "wgst": null, "reportTime": "2026-07-11T10:00:00.000Z", "rawOb": "METAR RJTT 111000Z 18015KT 9999 FEW020 BKN/// 26/23 Q1012 NOSIG"}, "RJEC": {"temp": 23, "dewp": 22, "wdir": 170, "wspd": 6, "wgst": null, "reportTime": "2026-07-11T10:00:00.000Z", "rawOb": "METAR RJEC 111000Z 17006KT 9999 -SHRA FEW007 SCT020 BKN045 23/22 Q1009"}, "RJOB": {"temp": 26, "dewp": 23, "wdir": 120, "wspd": 4, "wgst": null, "reportTime": "2026-07-11T10:00:00.000Z", "rawOb": "METAR RJOB 111000Z 12004KT 9999 FEW030 BKN/// 26/23 Q1014"}, "RJGG": {"temp": 27, "dewp": 25, "wdir": 190, "wspd": 5, "wgst": null, "reportTime": "2026-07-11T10:00:00.000Z", "rawOb": "METAR RJGG 111000Z 19005KT 9999 FEW025 BKN/// 27/25 Q1013 NOSIG"}, "RJAA": {"temp": 26, "dewp": 21, "wdir": 170, "wspd": 6, "wgst": null, "reportTime": "2026-07-11T10:00:00.000Z", "rawOb": "METAR RJAA 111000Z 17006KT 9999 FEW030 BKN/// 26/21 Q1013 NOSIG"}, "RJBE": {"temp": 26, "dewp": 24, "wdir": 220, "wspd": 12, "wgst": null, "reportTime": "2026-07-11T10:00:00.000Z", "rawOb": "METAR RJBE 111000Z 22012KT 9999 FEW030 BKN/// 26/24 Q1013"}, "RJCO": {"temp": 23, "dewp": 23, "wdir": 130, "wspd": 5, "wgst": null, "reportTime": "2026-07-11T10:00:00.000Z", "rawOb": "METAR RJCO 111000Z 13005KT 9999 FEW010 SCT060 BKN090 23/23 Q1008"}, "RJCB": {"temp": 24, "dewp": 23, "wdir": 130, "wspd": 3, "wgst": null, "reportTime": "2026-07-11T10:00:00.000Z", "rawOb": "METAR RJCB 111000Z 13003KT 100V160 9999 FEW004 SCT010 BKN060 24/23 Q1009"}, "_updated": "2026-07-11T12:30:20Z"}