{"RJAA": {"temp": 26, "dewp": 25, "wdir": 150, "wspd": 7, "wgst": null, "reportTime": "2026-07-15T11:30:00.000Z", "rawOb": "METAR RJAA 151130Z 15007KT 8000 FEW006 BKN/// 26/25 Q1002 NOSIG"}, "RJCK": {"temp": 18, "dewp": 18, "wdir": "VRB", "wspd": 2, "wgst": null, "reportTime": "2026-07-15T12:00:00.000Z", "rawOb": "METAR RJCK 151200Z AUTO VRB02KT 0100 R35/0375V0550N FG OVC000 18/18 Q1002"}, "RJOM": {"temp": 28, "dewp": 25, "wdir": "VRB", "wspd": 1, "wgst": null, "reportTime": "2026-07-15T12:00:00.000Z", "rawOb": "METAR RJOM 151200Z VRB01KT 9999 FEW030 SCT/// 28/25 Q1002"}, "RJOA": {"temp": 27, "dewp": 23, "wdir": 280, "wspd": 5, "wgst": null, "reportTime": "2026-07-15T12:00:00.000Z", "rawOb": "METAR RJOA 151200Z 28005KT 9999 FEW030 SCT045 BKN/// 27/23 Q1004"}, "ROAH": {"temp": 27, "dewp": 27, "wdir": 210, "wspd": 10, "wgst": null, "reportTime": "2026-07-15T11:30:00.000Z", "rawOb": "METAR ROAH 151130Z 21010KT 9999 FEW004 BKN007 27/27 Q1010"}, "RJGG": {"temp": 30, "dewp": 24, "wdir": 150, "wspd": 4, "wgst": null, "reportTime": "2026-07-15T11:30:00.000Z", "rawOb": "METAR RJGG 151130Z 15004KT 9999 FEW020 SCT090 BKN/// 30/24 Q1002 NOSIG"}, "RJFF": {"temp": 30, "dewp": 25, "wdir": 170, "wspd": 13, "wgst": null, "reportTime": "2026-07-15T11:30:00.000Z", "rawOb": "METAR RJFF 151130Z 17013KT 9999 FEW020 BKN045 BKN050 30/25 Q1003 NOSIG"}, "RJEC": {"temp": 25, "dewp": 21, "wdir": 200, "wspd": 5, "wgst": null, "reportTime": "2026-07-15T12:00:00.000Z", "rawOb": "METAR RJEC 151200Z AUTO 20005KT 150V240 9999 FEW050 SCT060 25/21 Q0998"}, "RJSS": {"temp": 25, "dewp": 23, "wdir": "VRB", "wspd": 1, "wgst": null, "reportTime": "2026-07-15T12:00:00.000Z", "rawOb": "METAR RJSS 151200Z VRB01KT 9999 FEW020 SCT050 BKN/// 25/23 Q0999"}, "RJBB": {"temp": 29, "dewp": 24, "wdir": 220, "wspd": 11, "wgst": null, "reportTime": "2026-07-15T11:30:00.000Z", "rawOb": "METAR RJBB 151130Z 22011KT 9999 FEW030 SCT060 BKN/// 29/24 Q1002 NOSIG"}, "RJTT": {"temp": 28, "dewp": 24, "wdir": 180, "wspd": 16, "wgst": null, "reportTime": "2026-07-15T11:30:00.000Z", "rawOb": "METAR RJTT 151130Z 18016KT CAVOK 28/24 Q1001 NOSIG"}, "RJOT": {"temp": 28, "dewp": 24, "wdir": 220, "wspd": 4, "wgst": null, "reportTime": "2026-07-15T12:00:00.000Z", "rawOb": "METAR RJOT 151200Z 22004KT 9999 FEW020 BKN/// 28/24 Q1003"}, "RJOO": {"temp": 30, "dewp": 23, "wdir": 240, "wspd": 7, "wgst": null, "reportTime": "2026-07-15T12:00:00.000Z", "rawOb": "METAR RJOO 151200Z AUTO 24007KT 220V280 9999 NSC 30/23 Q1002"}, "RJBE": {"temp": 27, "dewp": 25, "wdir": 230, "wspd": 12, "wgst": null, "reportTime": "2026-07-15T12:00:00.000Z", "rawOb": "METAR RJBE 151200Z 23012KT 9999 FEW030 SCT050 BKN080 27/25 Q1002"}, "RJSK": {"temp": 26, "dewp": 23, "wdir": 100, "wspd": 3, "wgst": null, "reportTime": "2026-07-15T12:00:00.000Z", "rawOb": "METAR RJSK 151200Z 10003KT 9999 FEW030 SCT040 BKN060 26/23 Q0999"}, "RJOB": {"temp": 28, "dewp": 23, "wdir": 260, "wspd": 5, "wgst": null, "reportTime": "2026-07-15T12:00:00.000Z", "rawOb": "METAR RJOB 151200Z 26005KT 9999 FEW020 SCT/// 28/23 Q1003"}, "_updated": "2026-07-15T14:10:37Z"}