{"RJOA": {"temp": 20, "dewp": 19, "wdir": "VRB", "wspd": 2, "wgst": null, "reportTime": "2026-07-03T22:30:00.000Z", "rawOb": "METAR RJOA 032230Z VRB02KT 2000 R10/P2000N SHRA BCFG BR FEW000 SCT020 BKN030 20/19 Q1012"}, "RJOB": {"temp": 22, "dewp": 20, "wdir": 100, "wspd": 3, "wgst": null, "reportTime": "2026-07-03T23:00:00.000Z", "rawOb": "METAR RJOB 032300Z 10003KT 060V130 9999 -RA PRFG FEW000 BKN050 BKN120 22/20 Q1012"}, "RJAA": {"temp": 20, "dewp": 19, "wdir": "VRB", "wspd": 2, "wgst": null, "reportTime": "2026-07-03T22:30:00.000Z", "rawOb": "METAR RJAA 032230Z VRB02KT 6000 FEW003 BKN004 BKN005 20/19 Q1013 NOSIG"}, "RJCK": {"temp": 13, "dewp": 13, "wdir": 200, "wspd": 8, "wgst": null, "reportTime": "2026-07-03T23:00:00.000Z", "rawOb": "METAR RJCK 032300Z 20008KT 170V240 1200 R17/P2000N BCFG BR BKN001 BKN002 13/13 Q1014"}, "RJCO": {"temp": 20, "dewp": 15, "wdir": 160, "wspd": 5, "wgst": null, "reportTime": "2026-07-03T23:00:00.000Z", "rawOb": "METAR RJCO 032300Z 16005KT 130V210 9999 FEW020 20/15 Q1013"}, "RJOO": {"temp": 25, "dewp": 19, "wdir": 50, "wspd": 5, "wgst": null, "reportTime": "2026-07-03T23:00:00.000Z", "rawOb": "METAR RJOO 032300Z 05005KT 9999 FEW030 SCT050 BKN170 25/19 Q1012"}, "RJEC": {"temp": 19, "dewp": 15, "wdir": 150, "wspd": 4, "wgst": null, "reportTime": "2026-07-03T23:00:00.000Z", "rawOb": "METAR RJEC 032300Z 15004KT 110V200 9999 FEW007 19/15 Q1013"}, "RJOT": {"temp": 22, "dewp": 21, "wdir": "VRB", "wspd": 2, "wgst": null, "reportTime": "2026-07-03T23:00:00.000Z", "rawOb": "METAR RJOT 032300Z VRB02KT 9999 -RA FEW002 SCT070 BKN100 22/21 Q1012"}, "RJFF": {"temp": 23, "dewp": 22, "wdir": 160, "wspd": 11, "wgst": null, "reportTime": "2026-07-03T22:30:00.000Z", "rawOb": "METAR RJFF 032230Z 16011KT 9999 -SHRA FEW005 SCT025 BKN040 23/22 Q1008 TEMPO 4000 -TSRA BR"}, "RJGG": {"temp": 24, "dewp": 21, "wdir": 110, "wspd": 4, "wgst": null, "reportTime": "2026-07-03T22:30:00.000Z", "rawOb": "METAR RJGG 032230Z 11004KT 9999 FEW015 BKN035 24/21 Q1012 NOSIG"}, "RJSK": {"temp": 23, "dewp": 19, "wdir": 140, "wspd": 3, "wgst": null, "reportTime": "2026-07-03T23:00:00.000Z", "rawOb": "METAR RJSK 032300Z 14003KT 9999 FEW010 BKN015 23/19 Q1012"}, "RJOM": {"temp": 22, "dewp": 21, "wdir": 70, "wspd": 6, "wgst": null, "reportTime": "2026-07-03T23:00:00.000Z", "rawOb": "METAR RJOM 032300Z 07006KT 040V100 9999 -SHRA FEW010 SCT035 BKN060 22/21 Q1010"}, "RJSS": {"temp": 20, "dewp": 18, "wdir": 120, "wspd": 5, "wgst": null, "reportTime": "2026-07-03T22:30:00.000Z", "rawOb": "METAR RJSS 032230Z 12005KT 8000 -RA FEW007 BKN009 20/18 Q1013"}, "RJTT": {"temp": 21, "dewp": 20, "wdir": 80, "wspd": 6, "wgst": null, "reportTime": "2026-07-03T22:30:00.000Z", "rawOb": "METAR RJTT 032230Z 08006KT 7000 FEW006 BKN007 21/20 Q1013 NOSIG"}, "ROAH": {"temp": 28, "dewp": 26, "wdir": 270, "wspd": 3, "wgst": null, "reportTime": "2026-07-03T22:30:00.000Z", "rawOb": "METAR ROAH 032230Z 27003KT 9999 SCT012 28/26 Q1015"}, "RJBB": {"temp": 24, "dewp": 22, "wdir": 260, "wspd": 3, "wgst": null, "reportTime": "2026-07-03T22:30:00.000Z", "rawOb": "METAR RJBB 032230Z 26003KT 9999 -RA FEW020 BKN050 BKN150 24/22 Q1012 BECMG 08005KT"}, "RJBE": {"temp": 25, "dewp": 19, "wdir": 60, "wspd": 6, "wgst": null, "reportTime": "2026-07-03T23:00:00.000Z", "rawOb": "METAR RJBE 032300Z 06006KT 9999 VCSH FEW020 BKN050 BKN120 25/19 Q1012"}, "RJCB": {"temp": 13, "dewp": 13, "wdir": 10, "wspd": 3, "wgst": null, "reportTime": "2026-07-03T23:00:00.000Z", "rawOb": "METAR RJCB 032300Z 01003KT 300V060 1200 R35/P2000N -DZ BR FEW001 BKN002 13/13 Q1014"}, "_updated": "2026-07-04T01:18:14Z"}