{"RJOT": {"temp": 30, "dewp": 22, "wdir": 230, "wspd": 3, "wgst": null, "reportTime": "2026-07-17T10:00:00.000Z", "rawOb": "METAR RJOT 171000Z 23003KT 9999 FEW025 BKN/// 30/22 Q1003"}, "RJBB": {"temp": 30, "dewp": 23, "wdir": 220, "wspd": 8, "wgst": null, "reportTime": "2026-07-17T10:00:00.000Z", "rawOb": "METAR RJBB 171000Z 22008KT 9999 FEW030 BKN100 BKN/// 30/23 Q1002 NOSIG"}, "RJOB": {"temp": 30, "dewp": 20, "wdir": "VRB", "wspd": 2, "wgst": null, "reportTime": "2026-07-17T10:00:00.000Z", "rawOb": "METAR RJOB 171000Z VRB02KT 9999 VCSH FEW025 SCT070 BKN/// 30/20 Q1003"}, "RJOO": {"temp": 32, "dewp": 22, "wdir": 230, "wspd": 5, "wgst": null, "reportTime": "2026-07-17T10:00:00.000Z", "rawOb": "METAR RJOO 171000Z 23005KT 160V280 9999 FEW035 BKN090 BKN/// 32/22 Q1002"}, "ROAH": {"temp": 28, "dewp": 27, "wdir": 220, "wspd": 7, "wgst": null, "reportTime": "2026-07-17T10:00:00.000Z", "rawOb": "METAR ROAH 171000Z 22007KT 9999 FEW007 SCT010 BKN/// 28/27 Q1005"}, "RJSK": {"temp": 28, "dewp": 23, "wdir": 120, "wspd": 10, "wgst": null, "reportTime": "2026-07-17T10:00:00.000Z", "rawOb": "METAR RJSK 171000Z 12010KT 9999 FEW020 BKN/// 28/23 Q1004"}, "RJFF": {"temp": 31, "dewp": 26, "wdir": "VRB", "wspd": 3, "wgst": null, "reportTime": "2026-07-17T10:00:00.000Z", "rawOb": "METAR RJFF 171000Z VRB03KT 9999 FEW020 BKN080 31/26 Q1002 NOSIG"}, "RJOM": {"temp": 29, "dewp": 25, "wdir": 220, "wspd": 4, "wgst": null, "reportTime": "2026-07-17T10:00:00.000Z", "rawOb": "METAR RJOM 171000Z 22004KT 170V240 9999 FEW030 SCT090 BKN/// 29/25 Q1002"}, "RJGG": {"temp": 29, "dewp": 25, "wdir": 140, "wspd": 11, "wgst": null, "reportTime": "2026-07-17T10:00:00.000Z", "rawOb": "METAR RJGG 171000Z 14011KT 9999 FEW020 BKN/// 29/25 Q1003 NOSIG"}, "RJCK": {"temp": 18, "dewp": 18, "wdir": "VRB", "wspd": 2, "wgst": null, "reportTime": "2026-07-17T10:00:00.000Z", "rawOb": "METAR RJCK 171000Z VRB02KT 0300 R17/0550V1000N FG VV001 18/18 Q1010"}, "RJBE": {"temp": 29, "dewp": 24, "wdir": 220, "wspd": 10, "wgst": null, "reportTime": "2026-07-17T10:00:00.000Z", "rawOb": "METAR RJBE 171000Z 22010KT 9999 FEW030 BKN100 29/24 Q1002"}, "RJEC": {"temp": 27, "dewp": 22, "wdir": 190, "wspd": 7, "wgst": null, "reportTime": "2026-07-17T10:00:00.000Z", "rawOb": "METAR RJEC 171000Z 19007KT 160V220 9999 FEW030 SCT100 BKN/// 27/22 Q1007"}, "RJSS": {"temp": 24, "dewp": 23, "wdir": 140, "wspd": 8, "wgst": null, "reportTime": "2026-07-17T10:00:00.000Z", "rawOb": "METAR RJSS 171000Z 14008KT 9999 FEW005 BKN012 BKN020 24/23 Q1006"}, "RJTT": {"temp": 28, "dewp": 25, "wdir": 150, "wspd": 10, "wgst": null, "reportTime": "2026-07-17T10:00:00.000Z", "rawOb": "METAR RJTT 171000Z 15010KT 9999 FEW012 SCT025 BKN035 28/25 Q1005 NOSIG"}, "RJAA": {"temp": 25, "dewp": 24, "wdir": 130, "wspd": 9, "wgst": null, "reportTime": "2026-07-17T10:00:00.000Z", "rawOb": "METAR RJAA 171000Z 13009KT 8000 VCSH FEW004 BKN006 BKN008 25/24 Q1005 NOSIG"}, "RJOA": {"temp": 30, "dewp": 21, "wdir": 300, "wspd": 4, "wgst": null, "reportTime": "2026-07-17T10:00:00.000Z", "rawOb": "METAR RJOA 171000Z 30004KT 9999 FEW030 BKN090 BKN/// 30/21 Q1004"}, "RJCO": {"temp": 24, "dewp": 22, "wdir": 130, "wspd": 12, "wgst": null, "reportTime": "2026-07-17T10:00:00.000Z", "rawOb": "METAR RJCO 171000Z 13012KT 9999 FEW010 BKN015 BKN030 24/22 Q1006"}, "RJCB": {"temp": 19, "dewp": 19, "wdir": 150, "wspd": 7, "wgst": null, "reportTime": "2026-07-17T10:00:00.000Z", "rawOb": "METAR RJCB 171000Z 15007KT 3100 BR FEW001 SCT002 BKN003 19/19 Q1009"}, "_updated": "2026-07-17T12:36:42Z"}