{"RJGG": {"temp": 31, "dewp": 23, "wdir": 330, "wspd": 14, "wgst": null, "reportTime": "2026-07-14T07:30:00.000Z", "rawOb": "METAR RJGG 140730Z 33014KT 9999 FEW020 BKN/// 31/23 Q1006 NOSIG"}, "RJBE": {"temp": 33, "dewp": 24, "wdir": 260, "wspd": 8, "wgst": null, "reportTime": "2026-07-14T08:00:00.000Z", "rawOb": "METAR RJBE 140800Z 26008KT 9999 FEW035 BKN/// 33/24 Q1006"}, "RJCB": {"temp": 25, "dewp": 23, "wdir": 170, "wspd": 6, "wgst": null, "reportTime": "2026-07-14T08:00:00.000Z", "rawOb": "METAR RJCB 140800Z 17006KT 9999 FEW015 SCT110 BKN160 25/23 Q1003"}, "RJCK": {"temp": 18, "dewp": 17, "wdir": 160, "wspd": 6, "wgst": null, "reportTime": "2026-07-14T08:00:00.000Z", "rawOb": "METAR RJCK 140800Z 16006KT 8000 PRFG FEW002 SCT004 BKN006 18/17 Q1004"}, "RJCO": {"temp": 24, "dewp": 23, "wdir": 150, "wspd": 6, "wgst": null, "reportTime": "2026-07-14T08:00:00.000Z", "rawOb": "METAR RJCO 140800Z 15006KT 7000 -SHRA FEW003 SCT006 BKN035 24/23 Q1003"}, "RJOA": {"temp": 29, "dewp": 23, "wdir": 200, "wspd": 5, "wgst": null, "reportTime": "2026-07-14T08:00:00.000Z", "rawOb": "METAR RJOA 140800Z 20005KT 140V250 9999 FEW025 BKN/// 29/23 Q1009"}, "RJOB": {"temp": 32, "dewp": 25, "wdir": 220, "wspd": 10, "wgst": null, "reportTime": "2026-07-14T08:00:00.000Z", "rawOb": "METAR RJOB 140800Z 22010KT 9999 FEW030 BKN/// 32/25 Q1008"}, "RJSK": {"temp": 25, "dewp": 24, "wdir": 250, "wspd": 7, "wgst": null, "reportTime": "2026-07-14T08:00:00.000Z", "rawOb": "METAR RJSK 140800Z 25007KT 210V280 9999 FEW004 SCT008 BKN015 25/24 Q1006"}, "RJTT": {"temp": 31, "dewp": 23, "wdir": 190, "wspd": 16, "wgst": null, "reportTime": "2026-07-14T07:30:00.000Z", "rawOb": "METAR RJTT 140730Z 19016KT 9999 FEW030 BKN/// 31/23 Q1005 NOSIG"}, "RJAA": {"temp": 31, "dewp": 24, "wdir": 150, "wspd": 7, "wgst": null, "reportTime": "2026-07-14T07:30:00.000Z", "rawOb": "METAR RJAA 140730Z 15007KT 9999 FEW030 BKN/// 31/24 Q1005 NOSIG"}, "ROAH": {"temp": 30, "dewp": 26, "wdir": 190, "wspd": 11, "wgst": null, "reportTime": "2026-07-14T07:30:00.000Z", "rawOb": "METAR ROAH 140730Z 19011KT 9999 FEW020 SCT/// 30/26 Q1011"}, "RJSS": {"temp": 27, "dewp": 23, "wdir": 170, "wspd": 7, "wgst": null, "reportTime": "2026-07-14T08:00:00.000Z", "rawOb": "METAR RJSS 140800Z 17007KT 9999 FEW040 SCT070 BKN/// 27/23 Q1005"}, "RJOM": {"temp": 33, "dewp": 23, "wdir": 200, "wspd": 7, "wgst": null, "reportTime": "2026-07-14T08:00:00.000Z", "rawOb": "METAR RJOM 140800Z 20007KT 9999 FEW030 SCT/// 33/23 Q1007"}, "RJEC": {"temp": 25, "dewp": 22, "wdir": "VRB", "wspd": 1, "wgst": null, "reportTime": "2026-07-14T08:00:00.000Z", "rawOb": "METAR RJEC 140800Z VRB01KT 9999 FEW015 SCT030 BKN060 25/22 Q1003"}, "RJOT": {"temp": 33, "dewp": 23, "wdir": 260, "wspd": 9, "wgst": null, "reportTime": "2026-07-14T08:00:00.000Z", "rawOb": "METAR RJOT 140800Z 26009KT 9999 FEW030 BKN/// 33/23 Q1008"}, "RJOO": {"temp": 35, "dewp": 22, "wdir": 230, "wspd": 4, "wgst": null, "reportTime": "2026-07-14T08:00:00.000Z", "rawOb": "METAR RJOO 140800Z 23004KT 150V300 9999 FEW030 SCT050 BKN/// 35/22 Q1006"}, "RJBB": {"temp": 32, "dewp": 24, "wdir": 260, "wspd": 5, "wgst": null, "reportTime": "2026-07-14T07:30:00.000Z", "rawOb": "METAR RJBB 140730Z 26005KT 9999 FEW030 BKN/// 32/24 Q1007 NOSIG"}, "RJFF": {"temp": 34, "dewp": 24, "wdir": 190, "wspd": 13, "wgst": null, "reportTime": "2026-07-14T07:30:00.000Z", "rawOb": "METAR RJFF 140730Z 19013KT 9999 FEW035 SCT/// 34/24 Q1007 NOSIG"}, "_updated": "2026-07-14T10:17:51Z"}