{"RJEC": {"temp": 19, "dewp": 18, "wdir": 160, "wspd": 2, "wgst": null, "reportTime": "2026-07-16T17:00:00.000Z", "rawOb": "METAR RJEC 161700Z AUTO 16002KT //// // NCD 19/18 Q1005"}, "RJOA": {"temp": 26, "dewp": 21, "wdir": 20, "wspd": 3, "wgst": null, "reportTime": "2026-07-16T17:00:00.000Z", "rawOb": "METAR RJOA 161700Z AUTO 02003KT 9999 NCD 26/21 Q1003"}, "RJGG": {"temp": 28, "dewp": 24, "wdir": 250, "wspd": 3, "wgst": null, "reportTime": "2026-07-16T16:30:00.000Z", "rawOb": "METAR RJGG 161630Z AUTO 25003KT 9999 NCD 28/24 Q1001 NOSIG"}, "RJAA": {"temp": 26, "dewp": 25, "wdir": 150, "wspd": 4, "wgst": null, "reportTime": "2026-07-16T16:30:00.000Z", "rawOb": "METAR RJAA 161630Z AUTO 15004KT 130V200 4200 BR OVC002 //////TCU 26/25 Q1002 TEMPO 3000 BR"}, "RJOM": {"temp": 27, "dewp": 20, "wdir": 130, "wspd": 5, "wgst": null, "reportTime": "2026-07-16T17:00:00.000Z", "rawOb": "METAR RJOM 161700Z AUTO 13005KT 9999 NCD 27/20 Q1002"}, "ROAH": {"temp": 28, "dewp": 27, "wdir": 230, "wspd": 13, "wgst": null, "reportTime": "2026-07-16T16:30:00.000Z", "rawOb": "METAR ROAH 161630Z AUTO 23013KT 9999 FEW005 SCT007 BKN009 28/27 Q1007"}, "RJOO": {"temp": 27, "dewp": 21, "wdir": 350, "wspd": 4, "wgst": null, "reportTime": "2026-07-16T17:00:00.000Z", "rawOb": "METAR RJOO 161700Z AUTO 35004KT 9999 NCD 27/21 Q1002"}, "RJOT": {"temp": 23, "dewp": 20, "wdir": 140, "wspd": 8, "wgst": null, "reportTime": "2026-07-16T17:00:00.000Z", "rawOb": "METAR RJOT 161700Z AUTO 14008KT 9999 NCD 23/20 Q1003"}, "RJSS": {"temp": 24, "dewp": 23, "wdir": 40, "wspd": 4, "wgst": null, "reportTime": "2026-07-16T17:00:00.000Z", "rawOb": "METAR RJSS 161700Z AUTO 04004KT 0100 R27/0300V0550U FG OVC000 24/23 Q1003"}, "RJBB": {"temp": 28, "dewp": 25, "wdir": 220, "wspd": 3, "wgst": null, "reportTime": "2026-07-16T16:30:00.000Z", "rawOb": "METAR RJBB 161630Z AUTO 22003KT 9999 NCD 28/25 Q1001 NOSIG"}, "RJCK": {"temp": 20, "dewp": 20, "wdir": "VRB", "wspd": 2, "wgst": null, "reportTime": "2026-07-16T17:00:00.000Z", "rawOb": "METAR RJCK 161700Z AUTO VRB02KT 0100 R35/0650N FG OVC000 20/20 Q1005"}, "RJTT": {"temp": 28, "dewp": 26, "wdir": "VRB", "wspd": 1, "wgst": null, "reportTime": "2026-07-16T16:30:00.000Z", "rawOb": "METAR RJTT 161630Z VRB01KT 9999 BKN017 28/26 Q1002 TEMPO FEW008 BKN012"}, "RJFF": {"temp": 29, "dewp": 25, "wdir": 160, "wspd": 8, "wgst": null, "reportTime": "2026-07-16T16:30:00.000Z", "rawOb": "METAR RJFF 161630Z AUTO 16008KT 9999 NSC 29/25 Q1003 NOSIG"}, "_updated": "2026-07-16T19:17:45Z"}