{"RJGG": {"temp": 23, "dewp": 21, "wdir": 120, "wspd": 5, "wgst": null, "reportTime": "2026-07-03T21:00:00.000Z", "rawOb": "METAR RJGG 032100Z 12005KT 9999 FEW015 SCT035 BKN/// 23/21 Q1012 NOSIG"}, "RJOA": {"temp": 20, "dewp": 19, "wdir": 0, "wspd": 0, "wgst": null, "reportTime": "2026-07-03T21:00:00.000Z", "rawOb": "METAR RJOA 032100Z AUTO 00000KT 9999 -RA NSC 20/19 Q1012"}, "RJCO": {"temp": 17, "dewp": 14, "wdir": 130, "wspd": 8, "wgst": null, "reportTime": "2026-07-03T22:00:00.000Z", "rawOb": "METAR RJCO 032200Z 13008KT 9999 NSC 17/14 Q1013"}, "RJOB": {"temp": 21, "dewp": 20, "wdir": 90, "wspd": 2, "wgst": null, "reportTime": "2026-07-03T22:00:00.000Z", "rawOb": "METAR RJOB 032200Z 09002KT 9999 -RA FEW020 SCT060 BKN120 21/20 Q1012"}, "RJOM": {"temp": 21, "dewp": 20, "wdir": 330, "wspd": 4, "wgst": null, "reportTime": "2026-07-03T21:00:00.000Z", "rawOb": "METAR RJOM 032100Z AUTO 33004KT 4100 RA BR FEW016 SCT039 BKN048 21/20 Q1011"}, "RJOO": {"temp": 24, "dewp": 18, "wdir": 60, "wspd": 5, "wgst": null, "reportTime": "2026-07-03T21:00:00.000Z", "rawOb": "METAR RJOO 032100Z AUTO 06005KT 010V080 9999 NSC 24/18 Q1011"}, "RJEC": {"temp": 15, "dewp": 13, "wdir": 160, "wspd": 5, "wgst": null, "reportTime": "2026-07-03T21:00:00.000Z", "rawOb": "METAR RJEC 032100Z AUTO 16005KT 9999 NCD 15/13 Q1013"}, "RJBB": {"temp": 24, "dewp": 21, "wdir": 60, "wspd": 4, "wgst": null, "reportTime": "2026-07-03T21:00:00.000Z", "rawOb": "METAR RJBB 032100Z 06004KT 9999 FEW020 SCT050 BKN150 24/21 Q1011 NOSIG"}, "RJFF": {"temp": 23, "dewp": 22, "wdir": 140, "wspd": 13, "wgst": null, "reportTime": "2026-07-03T21:00:00.000Z", "rawOb": "METAR RJFF 032100Z 14013KT 7000 SHRA FEW010 SCT035 BKN045 23/22 Q1008 NOSIG"}, "RJOT": {"temp": 22, "dewp": 20, "wdir": 140, "wspd": 3, "wgst": null, "reportTime": "2026-07-03T21:00:00.000Z", "rawOb": "METAR RJOT 032100Z AUTO 14003KT 9999 -RA FEW040 SCT120 BKN130 22/20 Q1012"}, "RJSK": {"temp": 22, "dewp": 20, "wdir": 120, "wspd": 3, "wgst": null, "reportTime": "2026-07-03T22:00:00.000Z", "rawOb": "METAR RJSK 032200Z 12003KT 090V160 9999 FEW010 SCT040 BKN/// 22/20 Q1013"}, "RJAA": {"temp": 19, "dewp": 19, "wdir": 100, "wspd": 2, "wgst": null, "reportTime": "2026-07-03T21:00:00.000Z", "rawOb": "METAR RJAA 032100Z 10002KT 3500 BR BKN003 BKN004 19/19 Q1013 NOSIG"}, "RJSS": {"temp": 20, "dewp": 18, "wdir": 130, "wspd": 3, "wgst": null, "reportTime": "2026-07-03T21:00:00.000Z", "rawOb": "METAR RJSS 032100Z AUTO 13003KT 090V170 9999 OVC009 20/18 Q1013"}, "RJBE": {"temp": 25, "dewp": 19, "wdir": 60, "wspd": 7, "wgst": null, "reportTime": "2026-07-03T22:00:00.000Z", "rawOb": "METAR RJBE 032200Z 06007KT 9999 -RA FEW020 SCT050 BKN120 25/19 Q1012"}, "RJTT": {"temp": 21, "dewp": 20, "wdir": 90, "wspd": 6, "wgst": null, "reportTime": "2026-07-03T21:00:00.000Z", "rawOb": "METAR RJTT 032100Z 09006KT 8000 FEW007 BKN009 BKN020 21/20 Q1013 NOSIG"}, "RJCB": {"temp": 13, "dewp": 13, "wdir": 10, "wspd": 3, "wgst": null, "reportTime": "2026-07-03T23:00:00.000Z", "rawOb": "METAR RJCB 032300Z 01003KT 300V060 1200 R35/P2000N -DZ BR FEW001 BKN002 13/13 Q1014"}, "RJCK": {"temp": 12, "dewp": 12, "wdir": 220, "wspd": 6, "wgst": null, "reportTime": "2026-07-03T21:00:00.000Z", "rawOb": "METAR RJCK 032100Z AUTO 22006KT 0300 R35/0275V0400N FG OVC001 12/12 Q1013"}, "ROAH": {"temp": 27, "dewp": 26, "wdir": 240, "wspd": 5, "wgst": null, "reportTime": "2026-07-03T21:00:00.000Z", "rawOb": "METAR ROAH 032100Z 24005KT 9999 FEW010 27/26 Q1014"}, "_updated": "2026-07-03T23:35:57Z"}