{"RJBB": {"temp": 31, "dewp": 25, "wdir": 240, "wspd": 12, "wgst": null, "reportTime": "2026-07-20T05:00:00.000Z", "rawOb": "METAR RJBB 200500Z 24012KT 9999 FEW020 31/25 Q1008 NOSIG"}, "RJAA": {"temp": 34, "dewp": 25, "wdir": 140, "wspd": 8, "wgst": null, "reportTime": "2026-07-20T05:00:00.000Z", "rawOb": "METAR RJAA 200500Z 14008KT 9999 FEW040 34/25 Q1006 NOSIG"}, "RJOB": {"temp": 34, "dewp": 25, "wdir": "VRB", "wspd": 4, "wgst": null, "reportTime": "2026-07-20T05:00:00.000Z", "rawOb": "METAR RJOB 200500Z VRB04KT 9999 FEW020 SCT045 34/25 Q1009"}, "RJGG": {"temp": 31, "dewp": 27, "wdir": 190, "wspd": 9, "wgst": null, "reportTime": "2026-07-20T05:00:00.000Z", "rawOb": "METAR RJGG 200500Z 19009KT 9999 FEW020 31/27 Q1007 NOSIG"}, "RJSS": {"temp": 29, "dewp": 25, "wdir": 140, "wspd": 7, "wgst": null, "reportTime": "2026-07-20T05:00:00.000Z", "rawOb": "METAR RJSS 200500Z 14007KT 9999 FEW020 SCT050 29/25 Q1006"}, "RJOA": {"temp": 32, "dewp": 25, "wdir": 190, "wspd": 4, "wgst": null, "reportTime": "2026-07-20T05:00:00.000Z", "rawOb": "METAR RJOA 200500Z 19004KT 120V300 9999 FEW025 32/25 Q1010"}, "RJCB": {"temp": 29, "dewp": 22, "wdir": 360, "wspd": 5, "wgst": null, "reportTime": "2026-07-20T05:00:00.000Z", "rawOb": "METAR RJCB 200500Z 36005KT 320V040 9999 FEW025 SCT060 BKN/// 29/22 Q1004"}, "RJEC": {"temp": 25, "dewp": 21, "wdir": 310, "wspd": 3, "wgst": null, "reportTime": "2026-07-20T05:00:00.000Z", "rawOb": "METAR RJEC 200500Z 31003KT 250V030 9999 FEW003 SCT015 BKN040 25/21 Q1006"}, "RJCO": {"temp": 24, "dewp": 21, "wdir": 340, "wspd": 9, "wgst": null, "reportTime": "2026-07-20T05:00:00.000Z", "rawOb": "METAR RJCO 200500Z 34009KT 9999 FEW010 SCT015 BKN025 24/21 Q1006"}, "RJBE": {"temp": 31, "dewp": 26, "wdir": 230, "wspd": 10, "wgst": null, "reportTime": "2026-07-20T05:00:00.000Z", "rawOb": "METAR RJBE 200500Z 23010KT 9999 FEW025 31/26 Q1008"}, "RJOM": {"temp": 31, "dewp": 25, "wdir": 340, "wspd": 4, "wgst": null, "reportTime": "2026-07-20T05:00:00.000Z", "rawOb": "METAR RJOM 200500Z 34004KT 9999 FEW035 31/25 Q1008"}, "RJCK": {"temp": 24, "dewp": 22, "wdir": 170, "wspd": 6, "wgst": null, "reportTime": "2026-07-20T05:00:00.000Z", "rawOb": "METAR RJCK 200500Z 17006KT 130V200 9999 PRFG FEW001 SCT050 BKN/// 24/22 Q1004"}, "ROAH": {"temp": 31, "dewp": 28, "wdir": 200, "wspd": 10, "wgst": null, "reportTime": "2026-07-20T05:00:00.000Z", "rawOb": "METAR ROAH 200500Z 20010KT 9999 FEW013 31/28 Q1007"}, "RJOO": {"temp": 36, "dewp": 24, "wdir": 220, "wspd": 7, "wgst": null, "reportTime": "2026-07-20T05:00:00.000Z", "rawOb": "METAR RJOO 200500Z 22007KT 180V270 9999 FEW030 36/24 Q1007"}, "RJTT": {"temp": 35, "dewp": 24, "wdir": 180, "wspd": 13, "wgst": null, "reportTime": "2026-07-20T05:00:00.000Z", "rawOb": "METAR RJTT 200500Z 18013KT 9999 FEW030 35/24 Q1007 NOSIG"}, "RJOT": {"temp": 33, "dewp": 26, "wdir": 60, "wspd": 7, "wgst": null, "reportTime": "2026-07-20T05:00:00.000Z", "rawOb": "METAR RJOT 200500Z 06007KT 020V100 9999 FEW025 BKN035 33/26 Q1009"}, "RJSK": {"temp": 26, "dewp": 25, "wdir": 300, "wspd": 4, "wgst": null, "reportTime": "2026-07-20T05:00:00.000Z", "rawOb": "METAR RJSK 200500Z 30004KT 7000 FEW001 SCT004 BKN008 26/25 Q1008"}, "RJFF": {"temp": 33, "dewp": 25, "wdir": 320, "wspd": 9, "wgst": null, "reportTime": "2026-07-20T05:00:00.000Z", "rawOb": "METAR RJFF 200500Z 32009KT 290V060 9999 FEW025 SCT035 33/25 Q1007 TEMPO 4000 -TSRA BR"}, "_updated": "2026-07-20T07:30:23Z"}