{"RJGG": {"temp": 27, "dewp": 20, "wdir": 150, "wspd": 11, "wgst": null, "reportTime": "2026-07-09T08:30:00.000Z", "rawOb": "METAR RJGG 090830Z 15011KT 9999 FEW020 27/20 Q1014 NOSIG"}, "RJFF": {"temp": 31, "dewp": 23, "wdir": 310, "wspd": 9, "wgst": null, "reportTime": "2026-07-09T08:30:00.000Z", "rawOb": "METAR RJFF 090830Z 31009KT 260V340 9999 FEW025 31/23 Q1010 NOSIG"}, "RJOA": {"temp": 26, "dewp": 23, "wdir": 130, "wspd": 4, "wgst": null, "reportTime": "2026-07-09T09:00:00.000Z", "rawOb": "METAR RJOA 090900Z 13004KT 080V180 9999 FEW015 SCT050 26/23 Q1014"}, "RJOO": {"temp": 29, "dewp": 19, "wdir": 210, "wspd": 9, "wgst": null, "reportTime": "2026-07-09T09:00:00.000Z", "rawOb": "METAR RJOO 090900Z 21009KT 170V260 9999 FEW030 29/19 Q1012"}, "RJOB": {"temp": 27, "dewp": 21, "wdir": 130, "wspd": 4, "wgst": null, "reportTime": "2026-07-09T09:00:00.000Z", "rawOb": "METAR RJOB 090900Z 13004KT 9999 FEW025 SCT050 27/21 Q1013"}, "RJOM": {"temp": 26, "dewp": 24, "wdir": 250, "wspd": 3, "wgst": null, "reportTime": "2026-07-09T09:00:00.000Z", "rawOb": "METAR RJOM 090900Z 25003KT 220V290 9999 FEW015 BKN050 26/24 Q1012"}, "RJCB": {"temp": 20, "dewp": 19, "wdir": 160, "wspd": 7, "wgst": null, "reportTime": "2026-07-09T09:00:00.000Z", "rawOb": "METAR RJCB 090900Z 16007KT 9999 FEW010 SCT100 BKN140 20/19 Q1014"}, "RJEC": {"temp": 25, "dewp": 20, "wdir": 250, "wspd": 3, "wgst": null, "reportTime": "2026-07-09T09:00:00.000Z", "rawOb": "METAR RJEC 090900Z 25003KT 9999 -SHRA FEW030 SCT050 BKN070 25/20 Q1013"}, "RJOT": {"temp": 27, "dewp": 23, "wdir": 70, "wspd": 5, "wgst": null, "reportTime": "2026-07-09T09:00:00.000Z", "rawOb": "METAR RJOT 090900Z 07005KT 9999 FEW025 SCT040 BKN060 27/23 Q1013"}, "RJBE": {"temp": 26, "dewp": 23, "wdir": 240, "wspd": 10, "wgst": null, "reportTime": "2026-07-09T09:00:00.000Z", "rawOb": "METAR RJBE 090900Z 24010KT 9999 FEW030 26/23 Q1013"}, "RJCK": {"temp": 18, "dewp": 18, "wdir": 190, "wspd": 5, "wgst": null, "reportTime": "2026-07-09T09:00:00.000Z", "rawOb": "METAR RJCK 090900Z 19005KT 150V220 0200 R17/0400V0550N FG VV001 18/18 Q1015"}, "RJSK": {"temp": 27, "dewp": 21, "wdir": 290, "wspd": 7, "wgst": null, "reportTime": "2026-07-09T09:00:00.000Z", "rawOb": "METAR RJSK 090900Z 29007KT 9999 FEW030 SCT170 27/21 Q1013"}, "RJBB": {"temp": 28, "dewp": 21, "wdir": 220, "wspd": 10, "wgst": null, "reportTime": "2026-07-09T08:30:00.000Z", "rawOb": "METAR RJBB 090830Z 22010KT 9999 FEW025 28/21 Q1013 NOSIG"}, "RJTT": {"temp": 28, "dewp": 22, "wdir": 190, "wspd": 13, "wgst": null, "reportTime": "2026-07-09T08:30:00.000Z", "rawOb": "METAR RJTT 090830Z 19013KT 9999 FEW030 28/22 Q1014 NOSIG"}, "ROAH": {"temp": 32, "dewp": 26, "wdir": 90, "wspd": 22, "wgst": null, "reportTime": "2026-07-09T08:30:00.000Z", "rawOb": "METAR ROAH 090830Z 09022KT 9999 FEW015 SCT020 BKN/// 32/26 Q1003"}, "RJSS": {"temp": 24, "dewp": 21, "wdir": 150, "wspd": 11, "wgst": null, "reportTime": "2026-07-09T09:00:00.000Z", "rawOb": "METAR RJSS 090900Z 15011KT 9999 FEW010 BKN/// 24/21 Q1014"}, "RJAA": {"temp": 26, "dewp": 20, "wdir": 160, "wspd": 10, "wgst": null, "reportTime": "2026-07-09T08:30:00.000Z", "rawOb": "METAR RJAA 090830Z 16010KT 130V190 9999 FEW030 26/20 Q1014 NOSIG"}, "RJCO": {"temp": 21, "dewp": 20, "wdir": 150, "wspd": 9, "wgst": null, "reportTime": "2026-07-09T09:00:00.000Z", "rawOb": "METAR RJCO 090900Z 15009KT 4500 SHRA BR FEW010 SCT030 BKN060 21/20 Q1012"}, "_updated": "2026-07-09T11:19:52Z"}