{"RJGG": {"temp": 24, "dewp": 22, "wdir": 140, "wspd": 7, "wgst": null, "reportTime": "2026-07-09T15:30:00.000Z", "rawOb": "METAR RJGG 091530Z AUTO 14007KT 9999 BKN035 24/22 Q1016 NOSIG"}, "RJCK": {"temp": 17, "dewp": 17, "wdir": 210, "wspd": 3, "wgst": null, "reportTime": "2026-07-09T16:00:00.000Z", "rawOb": "METAR RJCK 091600Z AUTO 21003KT 0200 R17/0600N -RA FG OVC001 17/17 Q1013"}, "RJAA": {"temp": 21, "dewp": 20, "wdir": 160, "wspd": 3, "wgst": null, "reportTime": "2026-07-09T15:30:00.000Z", "rawOb": "METAR RJAA 091530Z AUTO 16003KT 9999 NSC 21/20 Q1016 NOSIG"}, "RJBB": {"temp": 26, "dewp": 20, "wdir": "VRB", "wspd": 2, "wgst": null, "reportTime": "2026-07-09T15:30:00.000Z", "rawOb": "METAR RJBB 091530Z AUTO VRB02KT 9999 BKN045 26/20 Q1015 NOSIG"}, "RJSS": {"temp": 23, "dewp": 21, "wdir": 350, "wspd": 6, "wgst": null, "reportTime": "2026-07-09T16:00:00.000Z", "rawOb": "METAR RJSS 091600Z AUTO 35006KT 9999 SCT035 BKN036 23/21 Q1014"}, "RJFF": {"temp": 27, "dewp": 23, "wdir": 160, "wspd": 4, "wgst": null, "reportTime": "2026-07-09T15:30:00.000Z", "rawOb": "METAR RJFF 091530Z AUTO 16004KT 9999 FEW039 27/23 Q1012 NOSIG"}, "RJOT": {"temp": 22, "dewp": 22, "wdir": 140, "wspd": 6, "wgst": null, "reportTime": "2026-07-09T16:00:00.000Z", "rawOb": "METAR RJOT 091600Z AUTO 14006KT 9999 NCD 22/22 Q1015"}, "RJOA": {"temp": 23, "dewp": 22, "wdir": 260, "wspd": 3, "wgst": null, "reportTime": "2026-07-09T16:00:00.000Z", "rawOb": "METAR RJOA 091600Z AUTO 26003KT 9999 BKN023 23/22 Q1016"}, "ROAH": {"temp": 30, "dewp": 26, "wdir": 80, "wspd": 21, "wgst": null, "reportTime": "2026-07-09T15:30:00.000Z", "rawOb": "METAR ROAH 091530Z AUTO 08021KT 9999 FEW018 BKN019 BKN023 30/26 Q1003"}, "RJOM": {"temp": 23, "dewp": 23, "wdir": 360, "wspd": 3, "wgst": null, "reportTime": "2026-07-09T16:00:00.000Z", "rawOb": "METAR RJOM 091600Z AUTO 36003KT 9999 NCD 23/23 Q1014"}, "RJOO": {"temp": 26, "dewp": 21, "wdir": "VRB", "wspd": 2, "wgst": null, "reportTime": "2026-07-09T16:00:00.000Z", "rawOb": "METAR RJOO 091600Z AUTO VRB02KT 9999 NCD 26/21 Q1015"}, "RJEC": {"temp": 21, "dewp": 20, "wdir": 170, "wspd": 8, "wgst": null, "reportTime": "2026-07-09T16:00:00.000Z", "rawOb": "METAR RJEC 091600Z AUTO 17008KT 9999 -RA FEW031 SCT034 BKN047 //////TCU 21/20 Q1012"}, "RJTT": {"temp": 25, "dewp": 22, "wdir": 200, "wspd": 10, "wgst": null, "reportTime": "2026-07-09T15:30:00.000Z", "rawOb": "METAR RJTT 091530Z 20010KT 9999 FEW010 25/22 Q1015 NOSIG"}, "_updated": "2026-07-09T18:29:58Z"}