{"RJOM": {"temp": 24, "dewp": 24, "wdir": 110, "wspd": 3, "wgst": null, "reportTime": "2026-07-04T20:00:00.000Z", "rawOb": "METAR RJOM 042000Z AUTO 11003KT 030V130 9999 FEW035 SCT050 BKN060 24/24 Q1008"}, "RJOA": {"temp": 21, "dewp": 21, "wdir": 120, "wspd": 1, "wgst": null, "reportTime": "2026-07-04T20:00:00.000Z", "rawOb": "METAR RJOA 042000Z AUTO 12001KT 1100 R28/1400VP2000U -RA BR OVC001 21/21 Q1010"}, "RJGG": {"temp": 22, "dewp": 21, "wdir": 330, "wspd": 6, "wgst": null, "reportTime": "2026-07-04T19:30:00.000Z", "rawOb": "METAR RJGG 041930Z AUTO 33006KT 4300 -RA BR BKN002 BKN023 BKN038 22/21 Q1010 TEMPO TL2030 3000 SHRA BR BECMG TL2040 FEW005 BKN008"}, "RJFF": {"temp": 26, "dewp": 25, "wdir": "VRB", "wspd": 2, "wgst": null, "reportTime": "2026-07-04T19:30:00.000Z", "rawOb": "METAR RJFF 041930Z AUTO VRB02KT 9999 FEW015 SCT028 BKN032 //////TCU 26/25 Q1007 NOSIG"}, "RJTT": {"temp": 23, "dewp": 22, "wdir": 110, "wspd": 9, "wgst": null, "reportTime": "2026-07-04T19:30:00.000Z", "rawOb": "METAR RJTT 041930Z 11009KT 9999 -SHRA FEW005 SCT015 BKN050 23/22 Q1011 TEMPO TL2100 4000 SHRA BR FEW003 BKN008 BKN015"}, "RJOT": {"temp": 22, "dewp": 22, "wdir": 90, "wspd": 2, "wgst": null, "reportTime": "2026-07-04T20:00:00.000Z", "rawOb": "METAR RJOT 042000Z AUTO 09002KT 3900 BR FEW038 BKN042 BKN047 22/22 Q1010"}, "RJOB": {"temp": 21, "dewp": 21, "wdir": 110, "wspd": 4, "wgst": null, "reportTime": "2026-07-04T22:00:00.000Z", "rawOb": "METAR RJOB 042200Z 11004KT 0500 R07/0500V1200D -SHRA FG FEW000 SCT001 BKN002 21/21 Q1010"}, "RJEC": {"temp": 16, "dewp": 14, "wdir": 170, "wspd": 3, "wgst": null, "reportTime": "2026-07-04T20:00:00.000Z", "rawOb": "METAR RJEC 042000Z AUTO 17003KT 140V220 9999 NCD 16/14 Q1014"}, "RJCO": {"temp": 18, "dewp": 15, "wdir": 140, "wspd": 14, "wgst": null, "reportTime": "2026-07-04T22:00:00.000Z", "rawOb": "METAR RJCO 042200Z 14014KT 9999 FEW030 SCT150 BKN200 18/15 Q1012"}, "RJCK": {"temp": 13, "dewp": 13, "wdir": 210, "wspd": 3, "wgst": null, "reportTime": "2026-07-04T20:00:00.000Z", "rawOb": "METAR RJCK 042000Z AUTO 21003KT 9999 OVC004 13/13 Q1015"}, "RJBE": {"temp": 23, "dewp": 21, "wdir": 60, "wspd": 9, "wgst": null, "reportTime": "2026-07-04T22:00:00.000Z", "rawOb": "METAR RJBE 042200Z 06009KT 9999 FEW005 SCT020 BKN080 23/21 Q1010"}, "RJBB": {"temp": 23, "dewp": 22, "wdir": 40, "wspd": 5, "wgst": null, "reportTime": "2026-07-04T19:30:00.000Z", "rawOb": "METAR RJBB 041930Z AUTO 04005KT 9999 OVC014 23/22 Q1009 NOSIG"}, "RJAA": {"temp": 22, "dewp": 21, "wdir": 100, "wspd": 3, "wgst": null, "reportTime": "2026-07-04T19:30:00.000Z", "rawOb": "METAR RJAA 041930Z AUTO 10003KT 9999 FEW009 SCT025 OVC070 22/21 Q1011 NOSIG"}, "ROAH": {"temp": 27, "dewp": 25, "wdir": 330, "wspd": 2, "wgst": null, "reportTime": "2026-07-04T19:30:00.000Z", "rawOb": "METAR ROAH 041930Z AUTO 33002KT 9999 NCD 27/25 Q1012"}, "RJSS": {"temp": 20, "dewp": 19, "wdir": 120, "wspd": 6, "wgst": null, "reportTime": "2026-07-04T20:00:00.000Z", "rawOb": "METAR RJSS 042000Z AUTO 12006KT 9999 BKN008 OVC010 20/19 Q1012"}, "RJSK": {"temp": 21, "dewp": 18, "wdir": 140, "wspd": 6, "wgst": null, "reportTime": "2026-07-04T22:00:00.000Z", "rawOb": "METAR RJSK 042200Z 14006KT CAVOK 21/18 Q1011"}, "RJOO": {"temp": 22, "dewp": 21, "wdir": 80, "wspd": 4, "wgst": null, "reportTime": "2026-07-04T20:00:00.000Z", "rawOb": "METAR RJOO 042000Z AUTO 08004KT 9999 OVC013 22/21 Q1010"}, "_updated": "2026-07-04T22:11:57Z"}