{"RJCK": {"temp": 18, "dewp": 18, "wdir": 180, "wspd": 4, "wgst": null, "reportTime": "2026-07-17T07:00:00.000Z", "rawOb": "METAR RJCK 170700Z 18004KT 0600 R17/0800VP2000N FG VV001 18/18 Q1009"}, "RJCB": {"temp": 22, "dewp": 21, "wdir": 150, "wspd": 8, "wgst": null, "reportTime": "2026-07-17T07:00:00.000Z", "rawOb": "METAR RJCB 170700Z 15008KT 8000 FEW004 SCT005 BKN006 22/21 Q1008"}, "RJBE": {"temp": 33, "dewp": 24, "wdir": 250, "wspd": 8, "wgst": null, "reportTime": "2026-07-17T07:00:00.000Z", "rawOb": "METAR RJBE 170700Z 25008KT 9999 FEW035 BKN/// 33/24 Q1001"}, "RJBB": {"temp": 31, "dewp": 23, "wdir": 280, "wspd": 3, "wgst": null, "reportTime": "2026-07-17T06:30:00.000Z", "rawOb": "METAR RJBB 170630Z 28003KT 9999 FEW035 BKN/// 31/23 Q1001 NOSIG"}, "RJAA": {"temp": 26, "dewp": 25, "wdir": 150, "wspd": 9, "wgst": null, "reportTime": "2026-07-17T06:30:00.000Z", "rawOb": "METAR RJAA 170630Z 15009KT 7000 VCSH FEW005 BKN008 BKN020 26/25 Q1004 NOSIG"}, "RJTT": {"temp": 29, "dewp": 26, "wdir": 180, "wspd": 9, "wgst": null, "reportTime": "2026-07-17T06:30:00.000Z", "rawOb": "METAR RJTT 170630Z 18009KT 9999 FEW020 SCT050 BKN080 29/26 Q1003 NOSIG"}, "RJEC": {"temp": 29, "dewp": 23, "wdir": 360, "wspd": 4, "wgst": null, "reportTime": "2026-07-17T07:00:00.000Z", "rawOb": "METAR RJEC 170700Z 36004KT 300V080 9999 FEW030 SCT150 BKN/// 29/23 Q1006"}, "RJOM": {"temp": 31, "dewp": 25, "wdir": 230, "wspd": 3, "wgst": null, "reportTime": "2026-07-17T07:00:00.000Z", "rawOb": "METAR RJOM 170700Z 23003KT 180V260 9999 FEW035 SCT090 BKN/// 31/25 Q1002"}, "ROAH": {"temp": 30, "dewp": 27, "wdir": 220, "wspd": 10, "wgst": null, "reportTime": "2026-07-17T06:30:00.000Z", "rawOb": "METAR ROAH 170630Z 22010KT 9999 FEW009 SCT/// 30/27 Q1006"}, "RJOT": {"temp": 33, "dewp": 21, "wdir": 280, "wspd": 6, "wgst": null, "reportTime": "2026-07-17T07:00:00.000Z", "rawOb": "METAR RJOT 170700Z 28006KT 240V300 9999 FEW030 SCT090 BKN/// 33/21 Q1003"}, "RJOA": {"temp": 30, "dewp": 19, "wdir": "VRB", "wspd": 3, "wgst": null, "reportTime": "2026-07-17T07:00:00.000Z", "rawOb": "METAR RJOA 170700Z VRB03KT 9999 FEW030 BKN/// 30/19 Q1004"}, "RJCO": {"temp": 28, "dewp": 22, "wdir": 150, "wspd": 16, "wgst": null, "reportTime": "2026-07-17T07:00:00.000Z", "rawOb": "METAR RJCO 170700Z 15016KT 9999 FEW015 SCT160 BKN230 28/22 Q1005"}, "RJSS": {"temp": 24, "dewp": 23, "wdir": 150, "wspd": 7, "wgst": null, "reportTime": "2026-07-17T07:00:00.000Z", "rawOb": "METAR RJSS 170700Z 15007KT 9999 FEW003 SCT005 BKN008 24/23 Q1005"}, "RJGG": {"temp": 30, "dewp": 26, "wdir": 170, "wspd": 13, "wgst": null, "reportTime": "2026-07-17T06:30:00.000Z", "rawOb": "METAR RJGG 170630Z 17013KT 9999 FEW020 BKN/// 30/26 Q1002 NOSIG"}, "RJFF": {"temp": 31, "dewp": 27, "wdir": 40, "wspd": 4, "wgst": null, "reportTime": "2026-07-17T06:30:00.000Z", "rawOb": "METAR RJFF 170630Z 04004KT 350V140 9999 SHRA FEW020 SCT030 BKN035 31/27 Q1002 BECMG 31011KT TEMPO 4000 -TSRA BR"}, "RJOB": {"temp": 34, "dewp": 21, "wdir": 200, "wspd": 4, "wgst": null, "reportTime": "2026-07-17T07:00:00.000Z", "rawOb": "METAR RJOB 170700Z 20004KT 140V230 9999 FEW030 SCT/// 34/21 Q1002"}, "RJOO": {"temp": 36, "dewp": 22, "wdir": 240, "wspd": 5, "wgst": null, "reportTime": "2026-07-17T07:00:00.000Z", "rawOb": "METAR RJOO 170700Z 24005KT 170V290 9999 FEW035 BKN/// 36/22 Q1001"}, "RJSK": {"temp": 32, "dewp": 24, "wdir": 120, "wspd": 11, "wgst": null, "reportTime": "2026-07-17T07:00:00.000Z", "rawOb": "METAR RJSK 170700Z 12011KT 9999 FEW020 BKN/// 32/24 Q1003"}, "_updated": "2026-07-17T09:16:37Z"}