{"RJAA": {"temp": 24, "dewp": 23, "wdir": 140, "wspd": 4, "wgst": null, "reportTime": "2026-07-17T17:00:00.000Z", "rawOb": "METAR RJAA 171700Z AUTO 14004KT 9999 NSC 24/23 Q1006 NOSIG"}, "ROAH": {"temp": 28, "dewp": 27, "wdir": 230, "wspd": 8, "wgst": null, "reportTime": "2026-07-17T17:00:00.000Z", "rawOb": "METAR ROAH 171700Z AUTO 23008KT 9000 SCT005 28/27 Q1006"}, "RJFF": {"temp": 28, "dewp": 25, "wdir": 140, "wspd": 9, "wgst": null, "reportTime": "2026-07-17T17:00:00.000Z", "rawOb": "METAR RJFF 171700Z AUTO 14009KT 9999 NCD 28/25 Q1002 NOSIG"}, "RJGG": {"temp": 28, "dewp": 26, "wdir": 130, "wspd": 6, "wgst": null, "reportTime": "2026-07-17T17:00:00.000Z", "rawOb": "METAR RJGG 171700Z AUTO 13006KT 9000 NCD 28/26 Q1004 NOSIG"}, "RJBB": {"temp": 28, "dewp": 25, "wdir": 220, "wspd": 6, "wgst": null, "reportTime": "2026-07-17T17:00:00.000Z", "rawOb": "METAR RJBB 171700Z AUTO 22006KT 9999 NSC 28/25 Q1004 BECMG 12004KT"}, "RJTT": {"temp": 26, "dewp": 23, "wdir": 160, "wspd": 9, "wgst": null, "reportTime": "2026-07-17T17:00:00.000Z", "rawOb": "METAR RJTT 171700Z 16009KT 9999 FEW013 SCT100 BKN120 26/23 Q1006 NOSIG"}, "RJSS": {"temp": 23, "dewp": 22, "wdir": 150, "wspd": 9, "wgst": null, "reportTime": "2026-07-17T17:00:00.000Z", "rawOb": "METAR RJSS 171700Z AUTO 15009KT 9999 OVC002 23/22 Q1007"}, "RJCK": {"temp": 18, "dewp": 18, "wdir": 150, "wspd": 3, "wgst": null, "reportTime": "2026-07-17T17:00:00.000Z", "rawOb": "METAR RJCK 171700Z AUTO 15003KT 4100 R35/0750V1800D BR SCT002 BKN006 BKN008 18/18 Q1011"}, "RJEC": {"temp": 22, "dewp": 20, "wdir": 160, "wspd": 6, "wgst": null, "reportTime": "2026-07-17T17:00:00.000Z", "rawOb": "METAR RJEC 171700Z AUTO 16006KT 9999 NSC 22/20 Q1009"}, "RJOA": {"temp": 27, "dewp": 23, "wdir": 320, "wspd": 3, "wgst": null, "reportTime": "2026-07-17T17:00:00.000Z", "rawOb": "METAR RJOA 171700Z AUTO 32003KT 9999 NCD 27/23 Q1005"}, "RJOM": {"temp": 27, "dewp": 25, "wdir": 290, "wspd": 1, "wgst": null, "reportTime": "2026-07-17T17:00:00.000Z", "rawOb": "METAR RJOM 171700Z AUTO 29001KT 9999 FEW036 SCT039 27/25 Q1003"}, "RJOO": {"temp": 29, "dewp": 24, "wdir": 240, "wspd": 3, "wgst": null, "reportTime": "2026-07-17T17:00:00.000Z", "rawOb": "METAR RJOO 171700Z AUTO 24003KT 190V280 9999 NSC 29/24 Q1003"}, "RJOT": {"temp": 25, "dewp": 22, "wdir": 140, "wspd": 6, "wgst": null, "reportTime": "2026-07-17T17:00:00.000Z", "rawOb": "METAR RJOT 171700Z AUTO 14006KT 9999 NCD 25/22 Q1004"}, "_updated": "2026-07-17T19:47:57Z"}