{"RJOM": {"temp": 24, "dewp": 23, "wdir": "VRB", "wspd": 2, "wgst": null, "reportTime": "2026-07-05T15:00:00.000Z", "rawOb": "METAR RJOM 051500Z AUTO VRB02KT 5000 -RA BR FEW027 SCT045 BKN048 //////TCU 24/23 Q1008"}, "RJOO": {"temp": 23, "dewp": 22, "wdir": 90, "wspd": 4, "wgst": null, "reportTime": "2026-07-05T15:00:00.000Z", "rawOb": "METAR RJOO 051500Z AUTO 09004KT 9999 FEW003 BKN009 OVC021 //////TCU 23/22 Q1009"}, "RJBB": {"temp": 24, "dewp": 23, "wdir": 110, "wspd": 4, "wgst": null, "reportTime": "2026-07-05T14:30:00.000Z", "rawOb": "METAR RJBB 051430Z AUTO 11004KT 080V150 9999 FEW033 SCT036 BKN040 24/23 Q1009 NOSIG"}, "RJCK": {"temp": 15, "dewp": 14, "wdir": 210, "wspd": 2, "wgst": null, "reportTime": "2026-07-05T15:00:00.000Z", "rawOb": "METAR RJCK 051500Z AUTO 21002KT 9999 OVC005 15/14 Q1017"}, "RJEC": {"temp": 18, "dewp": 14, "wdir": 180, "wspd": 10, "wgst": null, "reportTime": "2026-07-05T15:00:00.000Z", "rawOb": "METAR RJEC 051500Z AUTO 18010KT 9999 NSC 18/14 Q1014"}, "ROAH": {"temp": 28, "dewp": 26, "wdir": 200, "wspd": 3, "wgst": null, "reportTime": "2026-07-05T14:30:00.000Z", "rawOb": "METAR ROAH 051430Z AUTO 20003KT 9999 NCD 28/26 Q1012"}, "RJOA": {"temp": 22, "dewp": 22, "wdir": "VRB", "wspd": 1, "wgst": null, "reportTime": "2026-07-05T15:00:00.000Z", "rawOb": "METAR RJOA 051500Z AUTO VRB01KT 0100 R28/0350VP2000D -RA FG FEW000 BKN003 BKN029 22/22 Q1009"}, "RJFF": {"temp": 24, "dewp": 24, "wdir": 150, "wspd": 3, "wgst": null, "reportTime": "2026-07-05T14:30:00.000Z", "rawOb": "METAR RJFF 051430Z AUTO 15003KT 9999 FEW027 BKN060 BKN100 24/24 Q1007 TEMPO 4000 -TSRA BR"}, "RJOT": {"temp": 23, "dewp": 22, "wdir": "VRB", "wspd": 1, "wgst": null, "reportTime": "2026-07-05T15:00:00.000Z", "rawOb": "METAR RJOT 051500Z AUTO VRB01KT 9999 FEW050 OVC100 23/22 Q1009"}, "RJSS": {"temp": 21, "dewp": 20, "wdir": 170, "wspd": 5, "wgst": null, "reportTime": "2026-07-05T15:00:00.000Z", "rawOb": "METAR RJSS 051500Z AUTO 17005KT 9999 FEW007 SCT200 BKN210 21/20 Q1012"}, "RJGG": {"temp": 22, "dewp": 22, "wdir": 130, "wspd": 9, "wgst": null, "reportTime": "2026-07-05T14:30:00.000Z", "rawOb": "METAR RJGG 051430Z AUTO 13009KT 9999 FEW006 SCT030 BKN034 //////TCU 22/22 Q1010 NOSIG"}, "RJTT": {"temp": 23, "dewp": 20, "wdir": 130, "wspd": 4, "wgst": null, "reportTime": "2026-07-05T14:30:00.000Z", "rawOb": "METAR RJTT 051430Z 13004KT 9999 -RA FEW020 SCT035 BKN100 23/20 Q1012 NOSIG"}, "RJAA": {"temp": 22, "dewp": 19, "wdir": 130, "wspd": 4, "wgst": null, "reportTime": "2026-07-05T14:30:00.000Z", "rawOb": "METAR RJAA 051430Z AUTO 13004KT 9999 FEW009 BKN120 BKN140 22/19 Q1012 NOSIG"}, "_updated": "2026-07-05T17:16:24Z"}