{"ROAH": {"temp": 29, "dewp": 26, "wdir": 150, "wspd": 22, "wgst": null, "reportTime": "2026-07-12T01:00:00.000Z", "rawOb": "METAR ROAH 120100Z 15022KT 9000 FEW009 BKN011 BKN037 29/26 Q1009"}, "RJTT": {"temp": 27, "dewp": 24, "wdir": 180, "wspd": 8, "wgst": null, "reportTime": "2026-07-12T01:00:00.000Z", "rawOb": "METAR RJTT 120100Z 18008KT 9999 FEW015 BKN/// 27/24 Q1012 NOSIG"}, "RJAA": {"temp": 27, "dewp": 24, "wdir": "VRB", "wspd": 2, "wgst": null, "reportTime": "2026-07-12T01:00:00.000Z", "rawOb": "METAR RJAA 120100Z VRB02KT 9999 BKN015 BKN120 27/24 Q1012 BECMG 22006KT"}, "RJBB": {"temp": 27, "dewp": 23, "wdir": 290, "wspd": 3, "wgst": null, "reportTime": "2026-07-12T01:00:00.000Z", "rawOb": "METAR RJBB 120100Z 29003KT 240V310 9999 FEW020 BKN/// 27/23 Q1014 NOSIG"}, "RJGG": {"temp": 29, "dewp": 24, "wdir": 330, "wspd": 5, "wgst": null, "reportTime": "2026-07-12T01:00:00.000Z", "rawOb": "METAR RJGG 120100Z 33005KT 9999 FEW020 BKN/// 29/24 Q1013 NOSIG"}, "RJFF": {"temp": 33, "dewp": 23, "wdir": 130, "wspd": 10, "wgst": null, "reportTime": "2026-07-12T01:00:00.000Z", "rawOb": "METAR RJFF 120100Z 13010KT 100V160 9999 FEW025 BKN/// 33/23 Q1012 NOSIG"}, "RJOM": {"temp": 30, "dewp": 24, "wdir": 360, "wspd": 10, "wgst": null, "reportTime": "2026-07-12T01:00:00.000Z", "rawOb": "METAR RJOM 120100Z 36010KT 9999 FEW030 30/24 Q1014"}, "RJOT": {"temp": 30, "dewp": 25, "wdir": 270, "wspd": 5, "wgst": null, "reportTime": "2026-07-12T01:00:00.000Z", "rawOb": "METAR RJOT 120100Z 27005KT 190V340 9999 FEW020 SCT/// 30/25 Q1015"}, "RJSK": {"temp": 24, "dewp": 23, "wdir": 240, "wspd": 9, "wgst": null, "reportTime": "2026-07-12T01:00:00.000Z", "rawOb": "METAR RJSK 120100Z 24009KT 3500 -SHRA BR FEW000 SCT004 BKN005 24/23 Q1009"}, "RJSS": {"temp": 24, "dewp": 22, "wdir": 150, "wspd": 3, "wgst": null, "reportTime": "2026-07-12T01:00:00.000Z", "rawOb": "METAR RJSS 120100Z 15003KT 9999 -SHRA FEW005 SCT015 BKN050 24/22 Q1010"}, "RJOB": {"temp": 29, "dewp": 24, "wdir": 230, "wspd": 5, "wgst": null, "reportTime": "2026-07-12T01:00:00.000Z", "rawOb": "METAR RJOB 120100Z 23005KT 170V270 9999 FEW015 SCT025 BKN/// 29/24 Q1015"}, "RJBE": {"temp": 28, "dewp": 24, "wdir": 210, "wspd": 8, "wgst": null, "reportTime": "2026-07-12T01:00:00.000Z", "rawOb": "METAR RJBE 120100Z 21008KT 9999 FEW020 BKN/// 28/24 Q1014"}, "RJCK": {"temp": 20, "dewp": 19, "wdir": 50, "wspd": 3, "wgst": null, "reportTime": "2026-07-12T01:00:00.000Z", "rawOb": "METAR RJCK 120100Z 05003KT 360V130 4000 BCFG BR FEW001 SCT003 BKN004 20/19 Q1007"}, "RJCB": {"temp": 26, "dewp": 24, "wdir": "VRB", "wspd": 2, "wgst": null, "reportTime": "2026-07-12T01:00:00.000Z", "rawOb": "METAR RJCB 120100Z VRB02KT 9999 FEW010 SCT015 BKN/// 26/24 Q1006"}, "RJCO": {"temp": 25, "dewp": 22, "wdir": 130, "wspd": 5, "wgst": null, "reportTime": "2026-07-12T01:00:00.000Z", "rawOb": "METAR RJCO 120100Z 13005KT 9999 FEW015 BKN050 BKN100 25/22 Q1006"}, "RJEC": {"temp": 25, "dewp": 21, "wdir": 300, "wspd": 3, "wgst": null, "reportTime": "2026-07-12T01:00:00.000Z", "rawOb": "METAR RJEC 120100Z 30003KT 190V360 9999 -SHRA FEW010 SCT020 BKN040 25/21 Q1006"}, "RJOA": {"temp": 29, "dewp": 23, "wdir": 270, "wspd": 10, "wgst": null, "reportTime": "2026-07-12T01:00:00.000Z", "rawOb": "METAR RJOA 120100Z 27010KT 9999 FEW015 BKN020 29/23 Q1016"}, "RJOO": {"temp": 29, "dewp": 23, "wdir": 230, "wspd": 5, "wgst": null, "reportTime": "2026-07-12T01:00:00.000Z", "rawOb": "METAR RJOO 120100Z 23005KT 150V270 9999 FEW020 SCT030 BKN/// 29/23 Q1014"}, "_updated": "2026-07-12T03:47:44Z"}