{"RJOB": {"temp": 21, "dewp": 17, "wdir": 320, "wspd": 3, "wgst": null, "reportTime": "2026-07-02T22:00:00.000Z", "rawOb": "METAR RJOB 022200Z 32003KT 270V010 9999 FEW015 BKN/// 21/17 Q1014"}, "RJOT": {"temp": 19, "dewp": 19, "wdir": "VRB", "wspd": 2, "wgst": null, "reportTime": "2026-07-02T20:00:00.000Z", "rawOb": "METAR RJOT 022000Z AUTO VRB02KT 9999 NCD 19/19 Q1013"}, "RJOO": {"temp": 21, "dewp": 17, "wdir": 300, "wspd": 3, "wgst": null, "reportTime": "2026-07-02T20:00:00.000Z", "rawOb": "METAR RJOO 022000Z AUTO 30003KT 9999 FEW026 BKN033 OVC042 21/17 Q1012"}, "RJTT": {"temp": 21, "dewp": 20, "wdir": 360, "wspd": 6, "wgst": null, "reportTime": "2026-07-02T20:00:00.000Z", "rawOb": "METAR RJTT 022000Z 36006KT 9999 -RA FEW010 BKN023 21/20 Q1009 NOSIG"}, "RJSS": {"temp": 20, "dewp": 19, "wdir": 30, "wspd": 6, "wgst": null, "reportTime": "2026-07-02T20:00:00.000Z", "rawOb": "METAR RJSS 022000Z AUTO 03006KT 9999 -RA FEW005 SCT009 BKN010 20/19 Q1010"}, "RJSK": {"temp": 21, "dewp": 19, "wdir": 140, "wspd": 4, "wgst": null, "reportTime": "2026-07-02T22:00:00.000Z", "rawOb": "METAR RJSK 022200Z 14004KT 9999 FEW010 BKN035 21/19 Q1011"}, "RJFF": {"temp": 20, "dewp": 19, "wdir": "VRB", "wspd": 2, "wgst": null, "reportTime": "2026-07-02T20:00:00.000Z", "rawOb": "METAR RJFF 022000Z AUTO VRB02KT 9999 NCD 20/19 Q1013 NOSIG"}, "RJEC": {"temp": 15, "dewp": 13, "wdir": 170, "wspd": 6, "wgst": null, "reportTime": "2026-07-02T20:00:00.000Z", "rawOb": "METAR RJEC 022000Z AUTO 17006KT 9999 OVC038 15/13 Q1013"}, "RJCO": {"temp": 17, "dewp": 15, "wdir": 90, "wspd": 3, "wgst": null, "reportTime": "2026-07-02T22:00:00.000Z", "rawOb": "METAR RJCO 022200Z 09003KT 9999 FEW020 BKN040 17/15 Q1013"}, "RJCK": {"temp": 9, "dewp": 9, "wdir": "VRB", "wspd": 2, "wgst": null, "reportTime": "2026-07-02T20:00:00.000Z", "rawOb": "METAR RJCK 022000Z AUTO VRB02KT 9999 R35/0225V0375N BKN001 BKN045 09/09 Q1014"}, "RJOM": {"temp": 21, "dewp": 21, "wdir": 150, "wspd": 3, "wgst": null, "reportTime": "2026-07-02T20:00:00.000Z", "rawOb": "METAR RJOM 022000Z AUTO 15003KT 9999 FEW003 21/21 Q1012"}, "RJBE": {"temp": 24, "dewp": 18, "wdir": 310, "wspd": 3, "wgst": null, "reportTime": "2026-07-02T22:00:00.000Z", "rawOb": "METAR RJBE 022200Z 31003KT 270V330 9999 FEW025 SCT045 24/18 Q1012"}, "RJBB": {"temp": 22, "dewp": 18, "wdir": 60, "wspd": 4, "wgst": null, "reportTime": "2026-07-02T20:00:00.000Z", "rawOb": "METAR RJBB 022000Z AUTO 06004KT 9999 FEW029 SCT035 BKN042 22/18 Q1012 NOSIG"}, "ROAH": {"temp": 27, "dewp": 26, "wdir": 230, "wspd": 2, "wgst": null, "reportTime": "2026-07-02T20:00:00.000Z", "rawOb": "METAR ROAH 022000Z AUTO 23002KT 9999 FEW008 27/26 Q1014"}, "RJGG": {"temp": 23, "dewp": 20, "wdir": 300, "wspd": 12, "wgst": null, "reportTime": "2026-07-02T20:00:00.000Z", "rawOb": "METAR RJGG 022000Z AUTO 30012KT 9999 NCD 23/20 Q1009 NOSIG"}, "RJAA": {"temp": 20, "dewp": 19, "wdir": 20, "wspd": 6, "wgst": null, "reportTime": "2026-07-02T20:00:00.000Z", "rawOb": "METAR RJAA 022000Z AUTO 02006KT 9999 FEW007 BKN008 BKN010 20/19 Q1009 NOSIG"}, "RJOA": {"temp": 19, "dewp": 17, "wdir": 360, "wspd": 2, "wgst": null, "reportTime": "2026-07-02T20:00:00.000Z", "rawOb": "METAR RJOA 022000Z AUTO 36002KT 9999 FEW039 SCT040 19/17 Q1014"}, "_updated": "2026-07-02T22:37:42Z"}