{"RJOO": {"temp": 28, "dewp": 23, "wdir": "VRB", "wspd": 2, "wgst": null, "reportTime": "2026-07-15T20:00:00.000Z", "rawOb": "METAR RJOO 152000Z AUTO VRB02KT 9999 SCT036 28/23 Q1002"}, "RJGG": {"temp": 29, "dewp": 25, "wdir": 280, "wspd": 7, "wgst": null, "reportTime": "2026-07-15T19:30:00.000Z", "rawOb": "METAR RJGG 151930Z AUTO 28007KT 9999 NCD 29/25 Q1001 NOSIG"}, "RJSS": {"temp": 25, "dewp": 24, "wdir": 130, "wspd": 3, "wgst": null, "reportTime": "2026-07-15T20:00:00.000Z", "rawOb": "METAR RJSS 152000Z AUTO 13003KT 5000 BR FEW060 SCT090 BKN130 25/24 Q0999"}, "ROAH": {"temp": 27, "dewp": 26, "wdir": 240, "wspd": 13, "wgst": null, "reportTime": "2026-07-15T19:30:00.000Z", "rawOb": "METAR ROAH 151930Z AUTO 24013KT 9999 FEW005 SCT010 27/26 Q1009"}, "RJAA": {"temp": 26, "dewp": 25, "wdir": 160, "wspd": 4, "wgst": null, "reportTime": "2026-07-15T19:30:00.000Z", "rawOb": "METAR RJAA 151930Z AUTO 16004KT 4300 BR FEW019 SCT022 BKN023 26/25 Q1000 BECMG TL2100 6000 NSW"}, "RJFF": {"temp": 29, "dewp": 25, "wdir": 150, "wspd": 9, "wgst": null, "reportTime": "2026-07-15T19:30:00.000Z", "rawOb": "METAR RJFF 151930Z AUTO 15009KT 9999 SCT020 OVC022 29/25 Q1003 NOSIG"}, "RJOT": {"temp": 25, "dewp": 24, "wdir": 210, "wspd": 5, "wgst": null, "reportTime": "2026-07-15T20:00:00.000Z", "rawOb": "METAR RJOT 152000Z AUTO 21005KT 9999 NCD 25/24 Q1003"}, "RJOA": {"temp": 25, "dewp": 24, "wdir": 290, "wspd": 3, "wgst": null, "reportTime": "2026-07-15T20:00:00.000Z", "rawOb": "METAR RJOA 152000Z AUTO 29003KT 9999 NCD 25/24 Q1004"}, "RJOM": {"temp": 27, "dewp": 25, "wdir": 180, "wspd": 3, "wgst": null, "reportTime": "2026-07-15T20:00:00.000Z", "rawOb": "METAR RJOM 152000Z AUTO 18003KT 9999 FEW025 SCT034 BKN043 27/25 Q1003"}, "RJOB": {"temp": 27, "dewp": 24, "wdir": 270, "wspd": 3, "wgst": null, "reportTime": "2026-07-15T22:00:00.000Z", "rawOb": "METAR RJOB 152200Z 27003KT 220V310 9999 FEW015 BKN/// 27/24 Q1004"}, "RJTT": {"temp": 27, "dewp": 25, "wdir": 200, "wspd": 10, "wgst": null, "reportTime": "2026-07-15T19:30:00.000Z", "rawOb": "METAR RJTT 151930Z 20010KT 9999 FEW010 BKN/// 27/25 Q1000 TEMPO FEW006 BKN012"}, "RJBB": {"temp": 27, "dewp": 24, "wdir": 220, "wspd": 6, "wgst": null, "reportTime": "2026-07-15T19:30:00.000Z", "rawOb": "METAR RJBB 151930Z AUTO 22006KT 9999 SCT045 BKN050 27/24 Q1002 NOSIG"}, "RJBE": {"temp": 29, "dewp": 25, "wdir": 220, "wspd": 6, "wgst": null, "reportTime": "2026-07-15T22:00:00.000Z", "rawOb": "METAR RJBE 152200Z 22006KT 9999 FEW025 BKN/// 29/25 Q1002"}, "RJCK": {"temp": 17, "dewp": 17, "wdir": 160, "wspd": 8, "wgst": null, "reportTime": "2026-07-15T20:00:00.000Z", "rawOb": "METAR RJCK 152000Z AUTO 16008KT 1600 R17/1900D +RA BR OVC001 17/17 Q0998"}, "RJCO": {"temp": 24, "dewp": 22, "wdir": 350, "wspd": 7, "wgst": null, "reportTime": "2026-07-15T22:00:00.000Z", "rawOb": "METAR RJCO 152200Z 35007KT 320V020 9999 FEW008 BKN010 BKN030 24/22 Q0996"}, "RJEC": {"temp": 21, "dewp": 20, "wdir": 190, "wspd": 13, "wgst": null, "reportTime": "2026-07-15T20:00:00.000Z", "rawOb": "METAR RJEC 152000Z AUTO 19013KT 9999 -RA FEW044 SCT048 BKN050 //////TCU 21/20 Q0993"}, "RJSK": {"temp": 24, "dewp": 24, "wdir": 290, "wspd": 8, "wgst": null, "reportTime": "2026-07-15T22:00:00.000Z", "rawOb": "METAR RJSK 152200Z 29008KT 3000 -SHRA BR FEW000 BKN003 BKN005 24/24 Q1001"}, "_updated": "2026-07-15T22:13:38Z"}