{"RJOA": {"temp": 27, "dewp": 23, "wdir": 220, "wspd": 7, "wgst": null, "reportTime": "2026-07-15T01:00:00.000Z", "rawOb": "METAR RJOA 150100Z 22007KT 180V250 9999 FEW020 BKN025 27/23 Q1007"}, "ROAH": {"temp": 29, "dewp": 26, "wdir": 240, "wspd": 9, "wgst": null, "reportTime": "2026-07-15T01:00:00.000Z", "rawOb": "METAR ROAH 150100Z 24009KT 9999 FEW007 BKN008 29/26 Q1011"}, "RJEC": {"temp": 27, "dewp": 22, "wdir": 180, "wspd": 13, "wgst": null, "reportTime": "2026-07-15T01:00:00.000Z", "rawOb": "METAR RJEC 150100Z 18013KT 9999 FEW015 SCT040 BKN/// 27/22 Q1002"}, "RJOM": {"temp": 32, "dewp": 24, "wdir": 210, "wspd": 5, "wgst": null, "reportTime": "2026-07-15T01:00:00.000Z", "rawOb": "METAR RJOM 150100Z 21005KT 9999 FEW025 BKN/// 32/24 Q1005"}, "RJOB": {"temp": 29, "dewp": 24, "wdir": 210, "wspd": 7, "wgst": null, "reportTime": "2026-07-15T01:00:00.000Z", "rawOb": "METAR RJOB 150100Z 21007KT 170V280 9999 FEW020 BKN025 BKN/// 29/24 Q1006"}, "RJSK": {"temp": 27, "dewp": 25, "wdir": "VRB", "wspd": 2, "wgst": null, "reportTime": "2026-07-15T01:00:00.000Z", "rawOb": "METAR RJSK 150100Z VRB02KT 9999 FEW008 SCT015 BKN020 27/25 Q1004"}, "RJSS": {"temp": 30, "dewp": 24, "wdir": 120, "wspd": 4, "wgst": null, "reportTime": "2026-07-15T01:00:00.000Z", "rawOb": "METAR RJSS 150100Z 12004KT 090V150 9999 FEW040 SCT/// 30/24 Q1004"}, "RJOO": {"temp": 33, "dewp": 24, "wdir": "VRB", "wspd": 4, "wgst": null, "reportTime": "2026-07-15T01:00:00.000Z", "rawOb": "METAR RJOO 150100Z VRB04KT 9999 FEW030 BKN/// 33/24 Q1005"}, "RJFF": {"temp": 32, "dewp": 24, "wdir": 200, "wspd": 14, "wgst": null, "reportTime": "2026-07-15T01:00:00.000Z", "rawOb": "METAR RJFF 150100Z 20014KT 9999 FEW015 SCT045 BKN/// 32/24 Q1005 NOSIG"}, "RJTT": {"temp": 31, "dewp": 26, "wdir": 180, "wspd": 11, "wgst": null, "reportTime": "2026-07-15T01:00:00.000Z", "rawOb": "METAR RJTT 150100Z 18011KT 9999 FEW005 BKN025 31/26 Q1005 NOSIG"}, "RJAA": {"temp": 32, "dewp": 25, "wdir": 180, "wspd": 7, "wgst": null, "reportTime": "2026-07-15T01:00:00.000Z", "rawOb": "METAR RJAA 150100Z 18007KT 150V220 9999 FEW030 BKN/// 32/25 Q1005 NOSIG"}, "RJBB": {"temp": 31, "dewp": 24, "wdir": 180, "wspd": 5, "wgst": null, "reportTime": "2026-07-15T01:00:00.000Z", "rawOb": "METAR RJBB 150100Z 18005KT 110V290 9999 FEW030 BKN/// 31/24 Q1005 NOSIG"}, "RJBE": {"temp": 30, "dewp": 25, "wdir": 190, "wspd": 7, "wgst": null, "reportTime": "2026-07-15T01:00:00.000Z", "rawOb": "METAR RJBE 150100Z 19007KT 9999 FEW020 BKN/// 30/25 Q1005"}, "RJCB": {"temp": 23, "dewp": 22, "wdir": 180, "wspd": 5, "wgst": null, "reportTime": "2026-07-15T01:00:00.000Z", "rawOb": "METAR RJCB 150100Z 18005KT 140V200 9999 FEW007 SCT009 BKN011 23/22 Q1003"}, "RJGG": {"temp": 28, "dewp": 25, "wdir": 190, "wspd": 7, "wgst": null, "reportTime": "2026-07-15T01:00:00.000Z", "rawOb": "METAR RJGG 150100Z 19007KT 9999 FEW020 BKN/// 28/25 Q1005 NOSIG"}, "RJCK": {"temp": 19, "dewp": 19, "wdir": "VRB", "wspd": 1, "wgst": null, "reportTime": "2026-07-15T01:00:00.000Z", "rawOb": "METAR RJCK 150100Z VRB01KT 2500 BCFG BR FEW001 SCT002 BKN003 19/19 Q1004"}, "RJOT": {"temp": 32, "dewp": 23, "wdir": 270, "wspd": 12, "wgst": null, "reportTime": "2026-07-15T01:00:00.000Z", "rawOb": "METAR RJOT 150100Z 27012KT 9999 FEW030 SCT045 BKN/// 32/23 Q1006"}, "RJCO": {"temp": 28, "dewp": 23, "wdir": 160, "wspd": 15, "wgst": null, "reportTime": "2026-07-15T01:00:00.000Z", "rawOb": "METAR RJCO 150100Z 16015KT 9999 FEW008 BKN230 28/23 Q1000"}, "_updated": "2026-07-15T03:36:19Z"}