{"RJAA": {"temp": 23, "dewp": 21, "wdir": 180, "wspd": 5, "wgst": null, "reportTime": "2026-07-10T12:00:00.000Z", "rawOb": "METAR RJAA 101200Z 18005KT 9999 FEW020 23/21 Q1016 NOSIG"}, "ROAH": {"temp": 29, "dewp": 26, "wdir": 90, "wspd": 34, "wgst": 48, "reportTime": "2026-07-10T12:00:00.000Z", "rawOb": "METAR ROAH 101200Z 09034G48KT 7000 -SHRA FEW017 SCT020 BKN035 29/26 Q0996"}, "RJTT": {"temp": 25, "dewp": 23, "wdir": 190, "wspd": 12, "wgst": null, "reportTime": "2026-07-10T12:00:00.000Z", "rawOb": "METAR RJTT 101200Z 19012KT 9999 FEW014 25/23 Q1016 NOSIG"}, "RJGG": {"temp": 25, "dewp": 23, "wdir": 140, "wspd": 11, "wgst": null, "reportTime": "2026-07-10T12:00:00.000Z", "rawOb": "METAR RJGG 101200Z 14011KT 9999 FEW015 25/23 Q1015 NOSIG"}, "RJFF": {"temp": 30, "dewp": 23, "wdir": 130, "wspd": 4, "wgst": null, "reportTime": "2026-07-10T12:00:00.000Z", "rawOb": "METAR RJFF 101200Z 13004KT 090V170 CAVOK 30/23 Q1012 NOSIG"}, "RJBB": {"temp": 26, "dewp": 23, "wdir": 210, "wspd": 9, "wgst": null, "reportTime": "2026-07-10T12:00:00.000Z", "rawOb": "METAR RJBB 101200Z 21009KT 9999 FEW015 SCT050 26/23 Q1015 NOSIG"}, "RJCK": {"temp": 19, "dewp": 19, "wdir": 200, "wspd": 2, "wgst": null, "reportTime": "2026-07-10T12:00:00.000Z", "rawOb": "METAR RJCK 101200Z AUTO 20002KT 0400 R35/1300VP2000D FG FEW000 BKN080 19/19 Q1012"}, "RJEC": {"temp": 21, "dewp": 21, "wdir": 170, "wspd": 3, "wgst": null, "reportTime": "2026-07-10T12:00:00.000Z", "rawOb": "METAR RJEC 101200Z AUTO 17003KT 6000 NCD 21/21 Q1013"}, "RJOA": {"temp": 25, "dewp": 22, "wdir": "VRB", "wspd": 2, "wgst": null, "reportTime": "2026-07-10T12:00:00.000Z", "rawOb": "METAR RJOA 101200Z VRB02KT 9999 FEW030 SCT/// 25/22 Q1015"}, "RJOM": {"temp": 26, "dewp": 23, "wdir": 340, "wspd": 2, "wgst": null, "reportTime": "2026-07-10T12:00:00.000Z", "rawOb": "METAR RJOM 101200Z 34002KT 9999 FEW035 26/23 Q1013"}, "RJOO": {"temp": 27, "dewp": 23, "wdir": "VRB", "wspd": 4, "wgst": null, "reportTime": "2026-07-10T12:00:00.000Z", "rawOb": "METAR RJOO 101200Z AUTO VRB04KT 9999 NSC 27/23 Q1015"}, "RJOT": {"temp": 25, "dewp": 23, "wdir": "VRB", "wspd": 2, "wgst": null, "reportTime": "2026-07-10T12:00:00.000Z", "rawOb": "METAR RJOT 101200Z VRB02KT 9999 FEW025 SCT/// 25/23 Q1015"}, "RJSS": {"temp": 24, "dewp": 22, "wdir": 30, "wspd": 3, "wgst": null, "reportTime": "2026-07-10T12:00:00.000Z", "rawOb": "METAR RJSS 101200Z 03003KT 360V060 9999 FEW030 SCT050 BKN/// 24/22 Q1014"}, "RJBE": {"temp": 25, "dewp": 24, "wdir": 250, "wspd": 7, "wgst": null, "reportTime": "2026-07-10T12:00:00.000Z", "rawOb": "METAR RJBE 101200Z 25007KT 9999 FEW012 25/24 Q1015"}, "RJOB": {"temp": 24, "dewp": 21, "wdir": 60, "wspd": 5, "wgst": null, "reportTime": "2026-07-10T12:00:00.000Z", "rawOb": "METAR RJOB 101200Z 06005KT 9999 FEW030 SCT/// 24/21 Q1015"}, "RJSK": {"temp": 25, "dewp": 21, "wdir": "VRB", "wspd": 1, "wgst": null, "reportTime": "2026-07-10T12:00:00.000Z", "rawOb": "METAR RJSK 101200Z VRB01KT CAVOK 25/21 Q1014"}, "_updated": "2026-07-10T14:41:46Z"}