{"ROAH": {"temp": 29, "dewp": 26, "wdir": 60, "wspd": 12, "wgst": null, "reportTime": "2026-07-08T19:00:00.000Z", "rawOb": "METAR ROAH 081900Z AUTO 06012KT 9999 SCT017 29/26 Q1005"}, "RJBB": {"temp": 24, "dewp": 22, "wdir": 90, "wspd": 3, "wgst": null, "reportTime": "2026-07-08T19:00:00.000Z", "rawOb": "METAR RJBB 081900Z AUTO 09003KT 9999 NCD 24/22 Q1013 NOSIG"}, "RJTT": {"temp": 24, "dewp": 21, "wdir": 200, "wspd": 5, "wgst": null, "reportTime": "2026-07-08T19:00:00.000Z", "rawOb": "METAR RJTT 081900Z 20005KT 9999 FEW010 24/21 Q1014 NOSIG"}, "RJFF": {"temp": 27, "dewp": 25, "wdir": "VRB", "wspd": 2, "wgst": null, "reportTime": "2026-07-08T19:00:00.000Z", "rawOb": "METAR RJFF 081900Z AUTO VRB02KT 9999 FEW016 BKN017 BKN022 27/25 Q1011 NOSIG"}, "RJGG": {"temp": 23, "dewp": 21, "wdir": 120, "wspd": 4, "wgst": null, "reportTime": "2026-07-08T19:00:00.000Z", "rawOb": "METAR RJGG 081900Z AUTO 12004KT 9999 OVC040 23/21 Q1014 NOSIG"}, "RJAA": {"temp": 20, "dewp": 19, "wdir": 170, "wspd": 1, "wgst": null, "reportTime": "2026-07-08T19:00:00.000Z", "rawOb": "METAR RJAA 081900Z AUTO 17001KT 5000 BR NCD 20/19 Q1014 NOSIG"}, "RJOA": {"temp": 23, "dewp": 22, "wdir": 230, "wspd": 3, "wgst": null, "reportTime": "2026-07-08T19:00:00.000Z", "rawOb": "METAR RJOA 081900Z AUTO 23003KT 200V270 9999 FEW007 BKN017 OVC022 23/22 Q1014"}, "RJOM": {"temp": 24, "dewp": 23, "wdir": 10, "wspd": 2, "wgst": null, "reportTime": "2026-07-08T19:00:00.000Z", "rawOb": "METAR RJOM 081900Z AUTO 01002KT 9999 FEW033 24/23 Q1013"}, "RJOO": {"temp": 23, "dewp": 20, "wdir": 330, "wspd": 3, "wgst": null, "reportTime": "2026-07-08T19:00:00.000Z", "rawOb": "METAR RJOO 081900Z AUTO 33003KT 9999 NCD 23/20 Q1013"}, "RJOT": {"temp": 22, "dewp": 22, "wdir": 140, "wspd": 4, "wgst": null, "reportTime": "2026-07-08T19:00:00.000Z", "rawOb": "METAR RJOT 081900Z AUTO 14004KT 9999 BKN011 22/22 Q1013"}, "RJSS": {"temp": 21, "dewp": 19, "wdir": 330, "wspd": 3, "wgst": null, "reportTime": "2026-07-08T19:00:00.000Z", "rawOb": "METAR RJSS 081900Z AUTO 33003KT 290V350 9999 NCD 21/19 Q1014"}, "RJCK": {"temp": 15, "dewp": 15, "wdir": 200, "wspd": 2, "wgst": null, "reportTime": "2026-07-08T19:00:00.000Z", "rawOb": "METAR RJCK 081900Z AUTO 20002KT 0100 R35/0275N FG OVC000 15/15 Q1015"}, "RJEC": {"temp": 19, "dewp": 18, "wdir": "VRB", "wspd": 2, "wgst": null, "reportTime": "2026-07-08T19:00:00.000Z", "rawOb": "METAR RJEC 081900Z AUTO VRB02KT 9999 NSC 19/18 Q1014"}, "_updated": "2026-07-08T21:42:56Z"}