{"RJEC": {"temp": 21, "dewp": 20, "wdir": 180, "wspd": 5, "wgst": null, "reportTime": "2026-07-18T12:00:00.000Z", "rawOb": "METAR RJEC 181200Z AUTO 18005KT 9999 -RA BKN013 BKN024 BKN044 21/20 Q1009"}, "RJFF": {"temp": 31, "dewp": 25, "wdir": 140, "wspd": 9, "wgst": null, "reportTime": "2026-07-18T12:00:00.000Z", "rawOb": "METAR RJFF 181200Z 14009KT 9999 FEW030 SCT/// 31/25 Q1003 NOSIG"}, "RJGG": {"temp": 28, "dewp": 25, "wdir": 130, "wspd": 10, "wgst": null, "reportTime": "2026-07-18T12:00:00.000Z", "rawOb": "METAR RJGG 181200Z 13010KT 9999 FEW010 SCT013 BKN/// 28/25 Q1007 NOSIG"}, "ROAH": {"temp": 28, "dewp": 27, "wdir": 200, "wspd": 6, "wgst": null, "reportTime": "2026-07-18T12:00:00.000Z", "rawOb": "METAR ROAH 181200Z 20006KT 9999 FEW005 SCT013 28/27 Q1006"}, "RJOA": {"temp": 28, "dewp": 23, "wdir": "VRB", "wspd": 1, "wgst": null, "reportTime": "2026-07-18T12:00:00.000Z", "rawOb": "METAR RJOA 181200Z VRB01KT 9999 FEW030 BKN035 28/23 Q1006"}, "RJOM": {"temp": 27, "dewp": 24, "wdir": 340, "wspd": 4, "wgst": null, "reportTime": "2026-07-18T12:00:00.000Z", "rawOb": "METAR RJOM 181200Z 34004KT 9999 FEW030 SCT045 27/24 Q1004"}, "RJOO": {"temp": 30, "dewp": 24, "wdir": 220, "wspd": 4, "wgst": null, "reportTime": "2026-07-18T12:00:00.000Z", "rawOb": "METAR RJOO 181200Z AUTO 22004KT 160V320 9999 SCT046 BKN050 OVC060 30/24 Q1005"}, "RJOT": {"temp": 27, "dewp": 26, "wdir": 130, "wspd": 5, "wgst": null, "reportTime": "2026-07-18T12:00:00.000Z", "rawOb": "METAR RJOT 181200Z 13005KT 090V160 9999 FEW025 BKN/// 27/26 Q1005"}, "RJSS": {"temp": 23, "dewp": 22, "wdir": 170, "wspd": 11, "wgst": null, "reportTime": "2026-07-18T12:00:00.000Z", "rawOb": "METAR RJSS 181200Z 17011KT 9999 FEW003 BKN005 BKN035 23/22 Q1008"}, "RJTT": {"temp": 27, "dewp": 24, "wdir": 170, "wspd": 10, "wgst": null, "reportTime": "2026-07-18T12:00:00.000Z", "rawOb": "METAR RJTT 181200Z 17010KT 9999 SCT018 BKN030 27/24 Q1008 NOSIG"}, "RJCK": {"temp": 19, "dewp": 19, "wdir": 130, "wspd": 9, "wgst": null, "reportTime": "2026-07-18T12:00:00.000Z", "rawOb": "METAR RJCK 181200Z AUTO 13009KT 0300 R35/0600N -RA FG OVC001 19/19 Q1012"}, "RJAA": {"temp": 24, "dewp": 23, "wdir": 150, "wspd": 4, "wgst": null, "reportTime": "2026-07-18T12:00:00.000Z", "rawOb": "METAR RJAA 181200Z 15004KT 9999 FEW010 24/23 Q1008 NOSIG"}, "RJBB": {"temp": 30, "dewp": 23, "wdir": 190, "wspd": 6, "wgst": null, "reportTime": "2026-07-18T12:00:00.000Z", "rawOb": "METAR RJBB 181200Z 19006KT 9999 FEW020 BKN/// 30/23 Q1005 NOSIG"}, "RJBE": {"temp": 28, "dewp": 25, "wdir": 210, "wspd": 6, "wgst": null, "reportTime": "2026-07-18T12:00:00.000Z", "rawOb": "METAR RJBE 181200Z 21006KT 180V250 9999 FEW025 SCT040 BKN/// 28/25 Q1005"}, "RJOB": {"temp": 27, "dewp": 25, "wdir": 90, "wspd": 5, "wgst": null, "reportTime": "2026-07-18T12:00:00.000Z", "rawOb": "METAR RJOB 181200Z 09005KT 9999 FEW020 SCT/// 27/25 Q1005"}, "RJSK": {"temp": 26, "dewp": 21, "wdir": 120, "wspd": 9, "wgst": null, "reportTime": "2026-07-18T12:00:00.000Z", "rawOb": "METAR RJSK 181200Z 12009KT 9999 FEW030 BKN140 BKN/// 26/21 Q1005"}, "_updated": "2026-07-18T14:34:53Z"}