{"RJBB": {"temp": 32, "dewp": 25, "wdir": 30, "wspd": 3, "wgst": null, "reportTime": "2026-07-24T12:30:00.000Z", "rawOb": "METAR RJBB 241230Z 03003KT 360V080 9999 FEW030 32/25 Q1010 NOSIG"}, "RJEC": {"temp": 18, "dewp": 16, "wdir": "VRB", "wspd": 2, "wgst": null, "reportTime": "2026-07-24T13:00:00.000Z", "rawOb": "METAR RJEC 241300Z AUTO VRB02KT 9999 SCT016 BKN022 BKN026 18/16 Q1014"}, "RJAA": {"temp": 27, "dewp": 25, "wdir": 90, "wspd": 3, "wgst": null, "reportTime": "2026-07-24T12:30:00.000Z", "rawOb": "METAR RJAA 241230Z 09003KT 040V150 9999 -SHRA BKN012 27/25 Q1010 NOSIG"}, "RJFF": {"temp": 30, "dewp": 25, "wdir": 40, "wspd": 5, "wgst": null, "reportTime": "2026-07-24T12:30:00.000Z", "rawOb": "METAR RJFF 241230Z 04005KT 360V070 CAVOK 30/25 Q1011 BECMG 13004KT"}, "RJGG": {"temp": 31, "dewp": 24, "wdir": 290, "wspd": 11, "wgst": null, "reportTime": "2026-07-24T12:30:00.000Z", "rawOb": "METAR RJGG 241230Z 29011KT 9999 FEW020 31/24 Q1009 NOSIG"}, "RJOA": {"temp": 28, "dewp": 20, "wdir": 320, "wspd": 8, "wgst": null, "reportTime": "2026-07-24T13:00:00.000Z", "rawOb": "METAR RJOA 241300Z 32008KT 290V360 CAVOK 28/20 Q1013"}, "RJOM": {"temp": 30, "dewp": 23, "wdir": 130, "wspd": 5, "wgst": null, "reportTime": "2026-07-24T13:00:00.000Z", "rawOb": "METAR RJOM 241300Z AUTO 13005KT 9999 NCD 30/23 Q1011"}, "RJOO": {"temp": 31, "dewp": 22, "wdir": 350, "wspd": 6, "wgst": null, "reportTime": "2026-07-24T13:00:00.000Z", "rawOb": "METAR RJOO 241300Z AUTO 35006KT 310V020 9999 NCD 31/22 Q1011"}, "RJOT": {"temp": 28, "dewp": 22, "wdir": 240, "wspd": 5, "wgst": null, "reportTime": "2026-07-24T13:00:00.000Z", "rawOb": "METAR RJOT 241300Z AUTO 24005KT 9999 BKN048 BKN050 28/22 Q1012"}, "RJTT": {"temp": 29, "dewp": 26, "wdir": 200, "wspd": 11, "wgst": null, "reportTime": "2026-07-24T12:30:00.000Z", "rawOb": "METAR RJTT 241230Z 20011KT 9999 FEW015 BKN/// 29/26 Q1010 NOSIG"}, "RJCK": {"temp": 14, "dewp": 13, "wdir": 80, "wspd": 3, "wgst": null, "reportTime": "2026-07-24T13:00:00.000Z", "rawOb": "METAR RJCK 241300Z AUTO 08003KT 050V110 9999 SCT004 OVC005 14/13 Q1016"}, "ROAH": {"temp": 30, "dewp": 27, "wdir": 140, "wspd": 8, "wgst": null, "reportTime": "2026-07-24T12:30:00.000Z", "rawOb": "METAR ROAH 241230Z 14008KT 9999 VCSH FEW013 30/27 Q1012"}, "RJSS": {"temp": 24, "dewp": 23, "wdir": 150, "wspd": 6, "wgst": null, "reportTime": "2026-07-24T13:00:00.000Z", "rawOb": "METAR RJSS 241300Z AUTO 15006KT 5000 RA BR FEW005 SCT007 BKN008 //////TCU 24/23 Q1011"}, "RJBE": {"temp": 32, "dewp": 24, "wdir": 60, "wspd": 12, "wgst": null, "reportTime": "2026-07-24T13:00:00.000Z", "rawOb": "METAR RJBE 241300Z 06012KT 9999 FEW030 SCT080 32/24 Q1010"}, "_updated": "2026-07-24T15:27:16Z"}