{"RJCK": {"temp": 18, "dewp": 17, "wdir": "VRB", "wspd": 2, "wgst": null, "reportTime": "2026-07-23T14:00:00.000Z", "rawOb": "METAR RJCK 231400Z AUTO VRB02KT 9999 SCT029 OVC037 18/17 Q1012"}, "RJEC": {"temp": 18, "dewp": 16, "wdir": 350, "wspd": 3, "wgst": null, "reportTime": "2026-07-23T14:00:00.000Z", "rawOb": "METAR RJEC 231400Z AUTO 35003KT 9999 NSC 18/16 Q1012"}, "RJFF": {"temp": 29, "dewp": 24, "wdir": 310, "wspd": 6, "wgst": null, "reportTime": "2026-07-23T13:30:00.000Z", "rawOb": "METAR RJFF 231330Z 31006KT 9999 FEW030 29/24 Q1011 BECMG 08004KT"}, "RJOO": {"temp": 31, "dewp": 21, "wdir": 350, "wspd": 8, "wgst": null, "reportTime": "2026-07-23T14:00:00.000Z", "rawOb": "METAR RJOO 231400Z AUTO 35008KT 9999 NCD 31/21 Q1010"}, "RJGG": {"temp": 30, "dewp": 24, "wdir": 310, "wspd": 10, "wgst": null, "reportTime": "2026-07-23T13:30:00.000Z", "rawOb": "METAR RJGG 231330Z 31010KT 9999 FEW050 30/24 Q1008 NOSIG"}, "RJOM": {"temp": 29, "dewp": 24, "wdir": 140, "wspd": 6, "wgst": null, "reportTime": "2026-07-23T14:00:00.000Z", "rawOb": "METAR RJOM 231400Z AUTO 14006KT 9999 NCD 29/24 Q1010"}, "RJOT": {"temp": 28, "dewp": 23, "wdir": 220, "wspd": 6, "wgst": null, "reportTime": "2026-07-23T14:00:00.000Z", "rawOb": "METAR RJOT 231400Z AUTO 22006KT 9999 NCD 28/23 Q1011"}, "RJSS": {"temp": 24, "dewp": 22, "wdir": 120, "wspd": 5, "wgst": null, "reportTime": "2026-07-23T14:00:00.000Z", "rawOb": "METAR RJSS 231400Z AUTO 12005KT 9999 OVC016 24/22 Q1011"}, "RJTT": {"temp": 29, "dewp": 24, "wdir": 80, "wspd": 4, "wgst": null, "reportTime": "2026-07-23T13:30:00.000Z", "rawOb": "METAR RJTT 231330Z 08004KT 9999 BKN050 29/24 Q1010 NOSIG"}, "ROAH": {"temp": 30, "dewp": 27, "wdir": 120, "wspd": 7, "wgst": null, "reportTime": "2026-07-23T13:30:00.000Z", "rawOb": "METAR ROAH 231330Z 12007KT 9999 FEW015 30/27 Q1011"}, "RJAA": {"temp": 26, "dewp": 24, "wdir": 360, "wspd": 11, "wgst": null, "reportTime": "2026-07-23T13:30:00.000Z", "rawOb": "METAR RJAA 231330Z 36011KT 9999 -SHRA SCT008 FEW030CB BKN040 26/24 Q1011 TEMPO 4000 -TSRA BR"}, "RJBB": {"temp": 31, "dewp": 25, "wdir": 40, "wspd": 8, "wgst": null, "reportTime": "2026-07-23T13:30:00.000Z", "rawOb": "METAR RJBB 231330Z 04008KT 9999 FEW035 31/25 Q1010 NOSIG"}, "RJOA": {"temp": 27, "dewp": 23, "wdir": "VRB", "wspd": 1, "wgst": null, "reportTime": "2026-07-23T14:00:00.000Z", "rawOb": "METAR RJOA 231400Z AUTO VRB01KT 9999 NCD 27/23 Q1012"}, "_updated": "2026-07-23T16:14:33Z"}