{"RJTT": {"temp": 27, "dewp": 25, "wdir": 140, "wspd": 12, "wgst": null, "reportTime": "2026-07-17T13:00:00.000Z", "rawOb": "METAR RJTT 171300Z 14012KT 9999 FEW014 SCT018 BKN045 27/25 Q1006 NOSIG"}, "RJGG": {"temp": 28, "dewp": 26, "wdir": 150, "wspd": 7, "wgst": null, "reportTime": "2026-07-17T13:00:00.000Z", "rawOb": "METAR RJGG 171300Z 15007KT 9000 FEW020 BKN/// 28/26 Q1004 NOSIG"}, "RJBB": {"temp": 29, "dewp": 24, "wdir": 220, "wspd": 8, "wgst": null, "reportTime": "2026-07-17T13:00:00.000Z", "rawOb": "METAR RJBB 171300Z 22008KT 9999 FEW030 SCT080 29/24 Q1004 NOSIG"}, "ROAH": {"temp": 28, "dewp": 27, "wdir": 210, "wspd": 8, "wgst": null, "reportTime": "2026-07-17T13:00:00.000Z", "rawOb": "METAR ROAH 171300Z 21008KT 9999 FEW010 BKN/// 28/27 Q1006"}, "RJFF": {"temp": 29, "dewp": 25, "wdir": 120, "wspd": 8, "wgst": null, "reportTime": "2026-07-17T13:00:00.000Z", "rawOb": "METAR RJFF 171300Z 12008KT 9999 FEW025 BKN/// 29/25 Q1003 NOSIG"}, "RJAA": {"temp": 25, "dewp": 23, "wdir": 140, "wspd": 6, "wgst": null, "reportTime": "2026-07-17T13:00:00.000Z", "rawOb": "METAR RJAA 171300Z 14006KT 9999 FEW005 SCT008 BKN020 25/23 Q1006 TEMPO FEW005 BKN008"}, "RJCK": {"temp": 18, "dewp": 18, "wdir": 360, "wspd": 3, "wgst": null, "reportTime": "2026-07-17T13:00:00.000Z", "rawOb": "METAR RJCK 171300Z AUTO 36003KT 0100 R35/0550N FG OVC000 18/18 Q1011"}, "RJEC": {"temp": 23, "dewp": 21, "wdir": 160, "wspd": 7, "wgst": null, "reportTime": "2026-07-17T13:00:00.000Z", "rawOb": "METAR RJEC 171300Z AUTO 16007KT 9999 NSC 23/21 Q1008"}, "RJOO": {"temp": 31, "dewp": 22, "wdir": 250, "wspd": 4, "wgst": null, "reportTime": "2026-07-17T13:00:00.000Z", "rawOb": "METAR RJOO 171300Z AUTO 25004KT 190V290 9999 NSC 31/22 Q1004"}, "RJOT": {"temp": 26, "dewp": 22, "wdir": 140, "wspd": 5, "wgst": null, "reportTime": "2026-07-17T13:00:00.000Z", "rawOb": "METAR RJOT 171300Z AUTO 14005KT 9999 NCD 26/22 Q1004"}, "RJSS": {"temp": 23, "dewp": 23, "wdir": 140, "wspd": 8, "wgst": null, "reportTime": "2026-07-17T13:00:00.000Z", "rawOb": "METAR RJSS 171300Z AUTO 14008KT 9999 OVC003 23/23 Q1007"}, "RJOA": {"temp": 27, "dewp": 22, "wdir": "VRB", "wspd": 1, "wgst": null, "reportTime": "2026-07-17T13:00:00.000Z", "rawOb": "METAR RJOA 171300Z VRB01KT 9999 FEW025 SCT070 BKN090 27/22 Q1005"}, "RJOM": {"temp": 27, "dewp": 25, "wdir": 0, "wspd": 0, "wgst": null, "reportTime": "2026-07-17T13:00:00.000Z", "rawOb": "METAR RJOM 171300Z AUTO 00000KT 9999 NCD 27/25 Q1003"}, "RJBE": {"temp": 27, "dewp": 26, "wdir": 260, "wspd": 7, "wgst": null, "reportTime": "2026-07-17T13:00:00.000Z", "rawOb": "METAR RJBE 171300Z 26007KT 9999 FEW020 BKN080 27/26 Q1004"}, "_updated": "2026-07-17T15:57:00Z"}