{"ROAH": {"temp": 29, "dewp": 27, "wdir": 170, "wspd": 6, "wgst": null, "reportTime": "2026-07-24T14:30:00.000Z", "rawOb": "METAR ROAH 241430Z AUTO 17006KT 9999 NCD 29/27 Q1012"}, "RJGG": {"temp": 30, "dewp": 25, "wdir": 290, "wspd": 9, "wgst": null, "reportTime": "2026-07-24T14:30:00.000Z", "rawOb": "METAR RJGG 241430Z AUTO 29009KT 9999 NCD 30/25 Q1009 NOSIG"}, "RJOM": {"temp": 29, "dewp": 22, "wdir": 10, "wspd": 3, "wgst": null, "reportTime": "2026-07-24T15:00:00.000Z", "rawOb": "METAR RJOM 241500Z AUTO 01003KT 9999 NCD 29/22 Q1011"}, "RJBB": {"temp": 30, "dewp": 25, "wdir": 50, "wspd": 9, "wgst": null, "reportTime": "2026-07-24T14:30:00.000Z", "rawOb": "METAR RJBB 241430Z AUTO 05009KT 9999 NCD 30/25 Q1010 NOSIG"}, "RJCK": {"temp": 13, "dewp": 13, "wdir": 30, "wspd": 2, "wgst": null, "reportTime": "2026-07-24T15:00:00.000Z", "rawOb": "METAR RJCK 241500Z AUTO 03002KT 9999 OVC012 13/13 Q1016"}, "RJEC": {"temp": 18, "dewp": 16, "wdir": 170, "wspd": 4, "wgst": null, "reportTime": "2026-07-24T15:00:00.000Z", "rawOb": "METAR RJEC 241500Z AUTO 17004KT 9999 FEW011 OVC023 18/16 Q1014"}, "RJOA": {"temp": 26, "dewp": 20, "wdir": 0, "wspd": 0, "wgst": null, "reportTime": "2026-07-24T15:00:00.000Z", "rawOb": "METAR RJOA 241500Z AUTO 00000KT 9999 NCD 26/20 Q1013"}, "RJFF": {"temp": 28, "dewp": 23, "wdir": "VRB", "wspd": 2, "wgst": null, "reportTime": "2026-07-24T14:30:00.000Z", "rawOb": "METAR RJFF 241430Z AUTO VRB02KT 9999 NCD 28/23 Q1011 NOSIG"}, "RJTT": {"temp": 29, "dewp": 26, "wdir": 190, "wspd": 11, "wgst": null, "reportTime": "2026-07-24T14:30:00.000Z", "rawOb": "METAR RJTT 241430Z 19011KT 9999 FEW009 SCT020 29/26 Q1009 NOSIG"}, "RJSS": {"temp": 23, "dewp": 22, "wdir": "VRB", "wspd": 1, "wgst": null, "reportTime": "2026-07-24T15:00:00.000Z", "rawOb": "METAR RJSS 241500Z AUTO VRB01KT 3300 RA BR FEW003 SCT005 BKN007 //////TCU 23/22 Q1011"}, "RJOT": {"temp": 28, "dewp": 22, "wdir": 180, "wspd": 4, "wgst": null, "reportTime": "2026-07-24T15:00:00.000Z", "rawOb": "METAR RJOT 241500Z AUTO 18004KT 140V220 9999 NCD 28/22 Q1011"}, "RJOO": {"temp": 30, "dewp": 23, "wdir": 330, "wspd": 4, "wgst": null, "reportTime": "2026-07-24T15:00:00.000Z", "rawOb": "METAR RJOO 241500Z AUTO 33004KT 280V010 9999 NCD 30/23 Q1010"}, "RJAA": {"temp": 25, "dewp": 24, "wdir": 40, "wspd": 5, "wgst": null, "reportTime": "2026-07-24T14:30:00.000Z", "rawOb": "METAR RJAA 241430Z AUTO 04005KT 350V060 9999 BKN008 OVC011 25/24 Q1010 NOSIG"}, "_updated": "2026-07-24T17:07:58Z"}