{"ROAH": {"temp": 27, "dewp": 27, "wdir": 200, "wspd": 6, "wgst": null, "reportTime": "2026-07-01T19:30:00.000Z", "rawOb": "METAR ROAH 011930Z AUTO 20006KT 9999 NCD 27/27 Q1012"}, "RJFF": {"temp": 22, "dewp": 21, "wdir": 320, "wspd": 4, "wgst": null, "reportTime": "2026-07-01T19:30:00.000Z", "rawOb": "METAR RJFF 011930Z AUTO 32004KT 4000 -RA BR FEW003 BKN005 BKN007 22/21 Q1008 BECMG 8000 -SHRA"}, "RJTT": {"temp": 21, "dewp": 19, "wdir": 170, "wspd": 7, "wgst": null, "reportTime": "2026-07-01T19:30:00.000Z", "rawOb": "METAR RJTT 011930Z 17007KT 160V220 5000 -SHRA BR FEW010 SCT015 BKN025 21/19 Q1009 TEMPO 4000 SHRA BR FEW005 BKN008"}, "RJGG": {"temp": 23, "dewp": 22, "wdir": 130, "wspd": 8, "wgst": null, "reportTime": "2026-07-01T19:30:00.000Z", "rawOb": "METAR RJGG 011930Z AUTO 13008KT 9999 -RA OVC004 //////TCU 23/22 Q1005 BECMG FEW002 BKN006"}, "RJAA": {"temp": 21, "dewp": 21, "wdir": 120, "wspd": 5, "wgst": null, "reportTime": "2026-07-01T19:30:00.000Z", "rawOb": "METAR RJAA 011930Z AUTO 12005KT 8000 -RA FEW001 SCT020 BKN049 21/21 Q1008 TEMPO 4000 SHRA BR FEW003 BKN005"}, "RJBB": {"temp": 25, "dewp": 24, "wdir": 220, "wspd": 22, "wgst": null, "reportTime": "2026-07-01T19:30:00.000Z", "rawOb": "METAR RJBB 011930Z AUTO 22022KT 9999 OVC010 //////TCU 25/24 Q1005 TEMPO 3000 SHRA BR FEW003 BKN008 BKN015"}, "RJCK": {"temp": 13, "dewp": 12, "wdir": 40, "wspd": 3, "wgst": null, "reportTime": "2026-07-01T20:00:00.000Z", "rawOb": "METAR RJCK 012000Z AUTO 04003KT 9999 SCT003 OVC011 13/12 Q1013"}, "RJEC": {"temp": 14, "dewp": 13, "wdir": 300, "wspd": 3, "wgst": null, "reportTime": "2026-07-01T20:00:00.000Z", "rawOb": "METAR RJEC 012000Z AUTO 30003KT 9999 BKN007 OVC044 14/13 Q1012"}, "RJOA": {"temp": 22, "dewp": 21, "wdir": 290, "wspd": 7, "wgst": null, "reportTime": "2026-07-01T20:00:00.000Z", "rawOb": "METAR RJOA 012000Z AUTO 29007KT 250V320 9999 -RA FEW005 BKN050 BKN060 //////TCU 22/21 Q1007"}, "RJOT": {"temp": 23, "dewp": 23, "wdir": 230, "wspd": 6, "wgst": null, "reportTime": "2026-07-01T20:00:00.000Z", "rawOb": "METAR RJOT 012000Z AUTO 23006KT 9999 -RA FEW005 SCT009 BKN046 //////TCU 23/23 Q1006"}, "RJSS": {"temp": 21, "dewp": 20, "wdir": 110, "wspd": 3, "wgst": null, "reportTime": "2026-07-01T20:00:00.000Z", "rawOb": "METAR RJSS 012000Z AUTO 11003KT 080V150 9999 OVC002 21/20 Q1009"}, "RJOM": {"temp": 23, "dewp": 23, "wdir": 120, "wspd": 8, "wgst": null, "reportTime": "2026-07-01T20:00:00.000Z", "rawOb": "METAR RJOM 012000Z AUTO 12008KT 9999 FEW001 SCT009 BKN016 //////CB 23/23 Q1004"}, "RJOO": {"temp": 24, "dewp": 23, "wdir": 260, "wspd": 6, "wgst": null, "reportTime": "2026-07-01T20:00:00.000Z", "rawOb": "METAR RJOO 012000Z AUTO 26006KT 220V300 6000 RA FEW015 SCT034 BKN042 //////TCU 24/23 Q1005"}, "_updated": "2026-07-01T22:04:06Z"}