{"ROAH": {"temp": 28, "dewp": 27, "wdir": 200, "wspd": 8, "wgst": null, "reportTime": "2026-07-18T15:00:00.000Z", "rawOb": "METAR ROAH 181500Z AUTO 20008KT 9999 FEW005 BKN007 28/27 Q1006"}, "RJFF": {"temp": 29, "dewp": 24, "wdir": 140, "wspd": 14, "wgst": null, "reportTime": "2026-07-18T15:00:00.000Z", "rawOb": "METAR RJFF 181500Z AUTO 14014KT 9999 NCD 29/24 Q1004 NOSIG"}, "RJBB": {"temp": 28, "dewp": 26, "wdir": 50, "wspd": 2, "wgst": null, "reportTime": "2026-07-18T15:00:00.000Z", "rawOb": "METAR RJBB 181500Z AUTO 05002KT 9999 NSC 28/26 Q1006 NOSIG"}, "RJAA": {"temp": 24, "dewp": 23, "wdir": 140, "wspd": 4, "wgst": null, "reportTime": "2026-07-18T15:00:00.000Z", "rawOb": "METAR RJAA 181500Z AUTO 14004KT 9999 NCD 24/23 Q1008 NOSIG"}, "RJGG": {"temp": 27, "dewp": 25, "wdir": 120, "wspd": 11, "wgst": null, "reportTime": "2026-07-18T15:00:00.000Z", "rawOb": "METAR RJGG 181500Z AUTO 12011KT 9999 OVC029 27/25 Q1007 NOSIG"}, "RJTT": {"temp": 27, "dewp": 23, "wdir": 180, "wspd": 9, "wgst": null, "reportTime": "2026-07-18T15:00:00.000Z", "rawOb": "METAR RJTT 181500Z 18009KT 150V210 9999 SCT015 BKN025 27/23 Q1008 NOSIG"}, "RJSS": {"temp": 22, "dewp": 22, "wdir": 170, "wspd": 9, "wgst": null, "reportTime": "2026-07-18T15:00:00.000Z", "rawOb": "METAR RJSS 181500Z AUTO 17009KT 6000 OVC001 22/22 Q1007"}, "RJOA": {"temp": 26, "dewp": 22, "wdir": 260, "wspd": 7, "wgst": null, "reportTime": "2026-07-18T15:00:00.000Z", "rawOb": "METAR RJOA 181500Z AUTO 26007KT 9999 FEW033 26/22 Q1006"}, "RJOM": {"temp": 26, "dewp": 25, "wdir": 10, "wspd": 4, "wgst": null, "reportTime": "2026-07-18T15:00:00.000Z", "rawOb": "METAR RJOM 181500Z AUTO 01004KT 9999 NCD 26/25 Q1004"}, "RJOO": {"temp": 29, "dewp": 24, "wdir": 70, "wspd": 4, "wgst": null, "reportTime": "2026-07-18T15:00:00.000Z", "rawOb": "METAR RJOO 181500Z AUTO 07004KT 040V130 9999 FEW024 SCT031 BKN060 29/24 Q1005"}, "RJOT": {"temp": 26, "dewp": 25, "wdir": 140, "wspd": 6, "wgst": null, "reportTime": "2026-07-18T15:00:00.000Z", "rawOb": "METAR RJOT 181500Z AUTO 14006KT 9999 OVC060 26/25 Q1006"}, "RJCK": {"temp": 19, "dewp": 19, "wdir": 150, "wspd": 12, "wgst": null, "reportTime": "2026-07-18T15:00:00.000Z", "rawOb": "METAR RJCK 181500Z AUTO 15012KT 0200 R17/0550V0750N FG OVC001 19/19 Q1011"}, "RJEC": {"temp": 20, "dewp": 19, "wdir": 60, "wspd": 2, "wgst": null, "reportTime": "2026-07-18T15:00:00.000Z", "rawOb": "METAR RJEC 181500Z AUTO 06002KT 9999 -RA FEW048 SCT060 BKN070 20/19 Q1007"}, "_updated": "2026-07-18T17:41:31Z"}