{"RJAA": {"temp": 26, "dewp": 26, "wdir": 130, "wspd": 6, "wgst": null, "reportTime": "2026-07-16T15:00:00.000Z", "rawOb": "METAR RJAA 161500Z AUTO 13006KT 2500 BR OVC002 26/26 Q1002 NOSIG"}, "RJBB": {"temp": 29, "dewp": 24, "wdir": 80, "wspd": 6, "wgst": null, "reportTime": "2026-07-16T15:00:00.000Z", "rawOb": "METAR RJBB 161500Z AUTO 08006KT 9999 NCD 29/24 Q1002 NOSIG"}, "RJFF": {"temp": 29, "dewp": 25, "wdir": 150, "wspd": 10, "wgst": null, "reportTime": "2026-07-16T15:00:00.000Z", "rawOb": "METAR RJFF 161500Z AUTO 15010KT 9999 NCD 29/25 Q1003 NOSIG"}, "RJGG": {"temp": 29, "dewp": 24, "wdir": 250, "wspd": 5, "wgst": null, "reportTime": "2026-07-16T15:00:00.000Z", "rawOb": "METAR RJGG 161500Z AUTO 25005KT 9999 NCD 29/24 Q1001 BECMG 32004KT"}, "RJTT": {"temp": 28, "dewp": 26, "wdir": 330, "wspd": 4, "wgst": null, "reportTime": "2026-07-16T15:00:00.000Z", "rawOb": "METAR RJTT 161500Z 33004KT 9999 FEW015 BKN/// 28/26 Q1003 NOSIG"}, "ROAH": {"temp": 28, "dewp": 27, "wdir": 220, "wspd": 10, "wgst": null, "reportTime": "2026-07-16T15:00:00.000Z", "rawOb": "METAR ROAH 161500Z AUTO 22010KT 9999 BKN005 OVC008 28/27 Q1008"}, "RJOM": {"temp": 28, "dewp": 20, "wdir": 140, "wspd": 4, "wgst": null, "reportTime": "2026-07-16T15:00:00.000Z", "rawOb": "METAR RJOM 161500Z AUTO 14004KT 9999 NSC 28/20 Q1002"}, "RJSS": {"temp": 24, "dewp": 23, "wdir": 50, "wspd": 5, "wgst": null, "reportTime": "2026-07-16T15:00:00.000Z", "rawOb": "METAR RJSS 161500Z AUTO 05005KT 0300 R27/0550V0900N FG OVC000 24/23 Q1003"}, "RJOO": {"temp": 28, "dewp": 21, "wdir": 40, "wspd": 5, "wgst": null, "reportTime": "2026-07-16T15:00:00.000Z", "rawOb": "METAR RJOO 161500Z AUTO 04005KT 360V070 9999 NCD 28/21 Q1002"}, "RJOT": {"temp": 24, "dewp": 21, "wdir": 140, "wspd": 7, "wgst": null, "reportTime": "2026-07-16T15:00:00.000Z", "rawOb": "METAR RJOT 161500Z AUTO 14007KT 9999 NCD 24/21 Q1003"}, "RJCK": {"temp": 20, "dewp": 20, "wdir": 30, "wspd": 3, "wgst": null, "reportTime": "2026-07-16T15:00:00.000Z", "rawOb": "METAR RJCK 161500Z AUTO 03003KT 0100 R35/0500V0750N FG OVC001 20/20 Q1005"}, "RJOA": {"temp": 26, "dewp": 20, "wdir": 310, "wspd": 3, "wgst": null, "reportTime": "2026-07-16T15:00:00.000Z", "rawOb": "METAR RJOA 161500Z AUTO 31003KT 9999 NCD 26/20 Q1004"}, "RJEC": {"temp": 21, "dewp": 20, "wdir": "VRB", "wspd": 1, "wgst": null, "reportTime": "2026-07-16T15:00:00.000Z", "rawOb": "METAR RJEC 161500Z AUTO VRB01KT 0000 R34/0075V0250N FG NCD 21/20 Q1005"}, "_updated": "2026-07-16T17:54:30Z"}