{"RJCB": {"temp": 22, "dewp": 22, "wdir": "VRB", "wspd": 2, "wgst": null, "reportTime": "2026-07-10T23:00:00.000Z", "rawOb": "METAR RJCB 102300Z VRB02KT 9999 FEW004 BKN006 BKN050 22/22 Q1012"}, "RJAA": {"temp": 26, "dewp": 23, "wdir": 220, "wspd": 6, "wgst": null, "reportTime": "2026-07-10T22:30:00.000Z", "rawOb": "METAR RJAA 102230Z 22006KT 180V260 9999 FEW010 BKN/// 26/23 Q1014 NOSIG"}, "RJGG": {"temp": 26, "dewp": 23, "wdir": 120, "wspd": 3, "wgst": null, "reportTime": "2026-07-10T22:30:00.000Z", "rawOb": "METAR RJGG 102230Z 12003KT 080V170 9999 FEW012 SCT020 BKN/// 26/23 Q1015 NOSIG"}, "RJOO": {"temp": 28, "dewp": 22, "wdir": 230, "wspd": 4, "wgst": null, "reportTime": "2026-07-10T23:00:00.000Z", "rawOb": "METAR RJOO 102300Z 23004KT 190V270 9999 FEW015 SCT025 BKN050 28/22 Q1015"}, "RJOB": {"temp": 25, "dewp": 23, "wdir": 80, "wspd": 3, "wgst": null, "reportTime": "2026-07-10T23:00:00.000Z", "rawOb": "METAR RJOB 102300Z 08003KT 9999 FEW007 BKN010 25/23 Q1015"}, "RJBB": {"temp": 26, "dewp": 23, "wdir": "VRB", "wspd": 2, "wgst": null, "reportTime": "2026-07-10T22:30:00.000Z", "rawOb": "METAR RJBB 102230Z VRB02KT 9999 FEW010 SCT050 26/23 Q1015 NOSIG"}, "RJSK": {"temp": 23, "dewp": 23, "wdir": 170, "wspd": 3, "wgst": null, "reportTime": "2026-07-10T23:00:00.000Z", "rawOb": "METAR RJSK 102300Z 17003KT 9999 VCSH FEW008 SCT060 BKN160 23/23 Q1014"}, "RJTT": {"temp": 27, "dewp": 23, "wdir": 180, "wspd": 11, "wgst": null, "reportTime": "2026-07-10T22:30:00.000Z", "rawOb": "METAR RJTT 102230Z 18011KT 9999 FEW010 SCT015 BKN/// 27/23 Q1014 NOSIG"}, "RJOM": {"temp": 28, "dewp": 23, "wdir": 360, "wspd": 8, "wgst": null, "reportTime": "2026-07-10T23:00:00.000Z", "rawOb": "METAR RJOM 102300Z 36008KT 9999 FEW012 28/23 Q1013"}, "RJOT": {"temp": 27, "dewp": 23, "wdir": 10, "wspd": 4, "wgst": null, "reportTime": "2026-07-10T23:00:00.000Z", "rawOb": "METAR RJOT 102300Z 01004KT 330V050 9999 R26/0650VP2000U FEW015 27/23 Q1015"}, "RJBE": {"temp": 27, "dewp": 23, "wdir": 280, "wspd": 3, "wgst": null, "reportTime": "2026-07-10T23:00:00.000Z", "rawOb": "METAR RJBE 102300Z 28003KT 9999 FEW015 SCT020 BKN045 27/23 Q1015"}, "RJSS": {"temp": 26, "dewp": 23, "wdir": "VRB", "wspd": 1, "wgst": null, "reportTime": "2026-07-10T22:30:00.000Z", "rawOb": "METAR RJSS 102230Z VRB01KT 9999 FEW050 SCT070 BKN/// 26/23 Q1013"}, "RJCK": {"temp": 22, "dewp": 22, "wdir": 190, "wspd": 4, "wgst": null, "reportTime": "2026-07-10T23:00:00.000Z", "rawOb": "METAR RJCK 102300Z 19004KT 9999 PRFG -SHRA FEW001 SCT030 BKN100 22/22 Q1011"}, "RJCO": {"temp": 22, "dewp": 21, "wdir": "VRB", "wspd": 2, "wgst": null, "reportTime": "2026-07-10T23:00:00.000Z", "rawOb": "METAR RJCO 102300Z VRB02KT 4000 SHRA BR FEW006 SCT015 BKN035 22/21 Q1010"}, "RJEC": {"temp": 21, "dewp": 21, "wdir": 160, "wspd": 6, "wgst": null, "reportTime": "2026-07-10T23:00:00.000Z", "rawOb": "METAR RJEC 102300Z 16006KT 1500 R34/1400VP2000D +SHRA BR FEW002 SCT025 BKN040 21/21 Q1011"}, "ROAH": {"temp": 26, "dewp": 25, "wdir": 130, "wspd": 38, "wgst": 60, "reportTime": "2026-07-10T22:30:00.000Z", "rawOb": "METAR ROAH 102230Z 13038G60KT 5000 -SHRA BR FEW015 SCT020 BKN050 26/25 Q0994"}, "RJFF": {"temp": 29, "dewp": 23, "wdir": 150, "wspd": 7, "wgst": null, "reportTime": "2026-07-10T22:30:00.000Z", "rawOb": "METAR RJFF 102230Z 15007KT 9999 FEW015 BKN/// 29/23 Q1011 NOSIG"}, "RJOA": {"temp": 24, "dewp": 23, "wdir": 110, "wspd": 5, "wgst": null, "reportTime": "2026-07-10T22:30:00.000Z", "rawOb": "METAR RJOA 102230Z 11005KT 9999 FEW010 24/23 Q1016"}, "_updated": "2026-07-11T01:10:06Z"}