{"RJTT": {"temp": 28, "dewp": 25, "wdir": 200, "wspd": 13, "wgst": null, "reportTime": "2026-07-14T11:00:00.000Z", "rawOb": "METAR RJTT 141100Z 20013KT 9999 FEW050 BKN/// 28/25 Q1006 NOSIG"}, "ROAH": {"temp": 27, "dewp": 25, "wdir": 180, "wspd": 9, "wgst": null, "reportTime": "2026-07-14T11:00:00.000Z", "rawOb": "METAR ROAH 141100Z 18009KT 9999 FEW009 SCT/// 27/25 Q1011"}, "RJBB": {"temp": 30, "dewp": 24, "wdir": 210, "wspd": 9, "wgst": null, "reportTime": "2026-07-14T11:00:00.000Z", "rawOb": "METAR RJBB 141100Z 21009KT CAVOK 30/24 Q1006 NOSIG"}, "RJAA": {"temp": 26, "dewp": 24, "wdir": 150, "wspd": 4, "wgst": null, "reportTime": "2026-07-14T11:00:00.000Z", "rawOb": "METAR RJAA 141100Z 15004KT CAVOK 26/24 Q1006 NOSIG"}, "RJGG": {"temp": 28, "dewp": 23, "wdir": 330, "wspd": 16, "wgst": null, "reportTime": "2026-07-14T11:00:00.000Z", "rawOb": "METAR RJGG 141100Z 33016KT 9999 FEW020 BKN/// 28/23 Q1006 NOSIG"}, "RJFF": {"temp": 31, "dewp": 23, "wdir": 170, "wspd": 12, "wgst": null, "reportTime": "2026-07-14T11:00:00.000Z", "rawOb": "METAR RJFF 141100Z 17012KT 9999 FEW030 SCT040 BKN/// 31/23 Q1008 NOSIG"}, "RJOT": {"temp": 28, "dewp": 23, "wdir": 210, "wspd": 5, "wgst": null, "reportTime": "2026-07-14T11:00:00.000Z", "rawOb": "METAR RJOT 141100Z 21005KT 9999 FEW040 BKN/// 28/23 Q1008"}, "RJSS": {"temp": 26, "dewp": 23, "wdir": 110, "wspd": 2, "wgst": null, "reportTime": "2026-07-14T11:00:00.000Z", "rawOb": "METAR RJSS 141100Z 11002KT 9999 FEW030 BKN/// 26/23 Q1006"}, "RJBE": {"temp": 28, "dewp": 24, "wdir": 230, "wspd": 9, "wgst": null, "reportTime": "2026-07-14T11:00:00.000Z", "rawOb": "METAR RJBE 141100Z 23009KT CAVOK 28/24 Q1006"}, "RJEC": {"temp": 23, "dewp": 23, "wdir": 250, "wspd": 2, "wgst": null, "reportTime": "2026-07-14T11:00:00.000Z", "rawOb": "METAR RJEC 141100Z 25002KT 9999 FEW012 SCT025 BKN/// 23/23 Q1004"}, "RJCK": {"temp": 17, "dewp": 17, "wdir": 50, "wspd": 2, "wgst": null, "reportTime": "2026-07-14T11:00:00.000Z", "rawOb": "METAR RJCK 141100Z 05002KT 1800 R17/0700VP2000D BCFG BR FEW002 SCT004 BKN006 17/17 Q1005"}, "RJOA": {"temp": 28, "dewp": 22, "wdir": 250, "wspd": 2, "wgst": null, "reportTime": "2026-07-14T11:00:00.000Z", "rawOb": "METAR RJOA 141100Z 25002KT CAVOK 28/22 Q1009"}, "RJOM": {"temp": 31, "dewp": 23, "wdir": 180, "wspd": 5, "wgst": null, "reportTime": "2026-07-14T11:00:00.000Z", "rawOb": "METAR RJOM 141100Z 18005KT 9999 FEW040 BKN/// 31/23 Q1006"}, "RJOO": {"temp": 32, "dewp": 23, "wdir": 310, "wspd": 4, "wgst": null, "reportTime": "2026-07-14T11:00:00.000Z", "rawOb": "METAR RJOO 141100Z 31004KT 9999 FEW030 BKN/// 32/23 Q1006"}, "RJSK": {"temp": 25, "dewp": 24, "wdir": 240, "wspd": 3, "wgst": null, "reportTime": "2026-07-14T11:00:00.000Z", "rawOb": "METAR RJSK 141100Z 24003KT 200V290 4000 -SHRA BR FEW004 BKN007 BKN010 25/24 Q1007"}, "RJOB": {"temp": 28, "dewp": 24, "wdir": 260, "wspd": 5, "wgst": null, "reportTime": "2026-07-14T11:00:00.000Z", "rawOb": "METAR RJOB 141100Z 26005KT CAVOK 28/24 Q1007"}, "RJCB": {"temp": 22, "dewp": 21, "wdir": 180, "wspd": 3, "wgst": null, "reportTime": "2026-07-14T11:00:00.000Z", "rawOb": "METAR RJCB 141100Z 18003KT 9999 FEW005 BKN070 BKN090 22/21 Q1004"}, "RJCO": {"temp": 23, "dewp": 22, "wdir": 140, "wspd": 8, "wgst": null, "reportTime": "2026-07-14T11:00:00.000Z", "rawOb": "METAR RJCO 141100Z 14008KT 9999 FEW005 SCT040 BKN250 23/22 Q1003"}, "_updated": "2026-07-14T13:58:36Z"}