{"RJBB": {"temp": 30, "dewp": 23, "wdir": 80, "wspd": 6, "wgst": null, "reportTime": "2026-07-24T16:00:00.000Z", "rawOb": "METAR RJBB 241600Z AUTO 08006KT 9999 NCD 30/23 Q1010 NOSIG"}, "RJAA": {"temp": 25, "dewp": 24, "wdir": 30, "wspd": 4, "wgst": null, "reportTime": "2026-07-24T16:00:00.000Z", "rawOb": "METAR RJAA 241600Z AUTO 03004KT 9999 BKN005 OVC007 //////TCU 25/24 Q1009 NOSIG"}, "RJFF": {"temp": 28, "dewp": 23, "wdir": 310, "wspd": 8, "wgst": null, "reportTime": "2026-07-24T16:00:00.000Z", "rawOb": "METAR RJFF 241600Z AUTO 31008KT 9999 NCD 28/23 Q1011 BECMG 12004KT"}, "RJGG": {"temp": 30, "dewp": 25, "wdir": 290, "wspd": 9, "wgst": null, "reportTime": "2026-07-24T16:00:00.000Z", "rawOb": "METAR RJGG 241600Z AUTO 29009KT 9999 NCD 30/25 Q1009 NOSIG"}, "ROAH": {"temp": 29, "dewp": 27, "wdir": 130, "wspd": 4, "wgst": null, "reportTime": "2026-07-24T16:00:00.000Z", "rawOb": "METAR ROAH 241600Z AUTO 13004KT 9999 NCD 29/27 Q1011"}, "RJTT": {"temp": 29, "dewp": 26, "wdir": 190, "wspd": 8, "wgst": null, "reportTime": "2026-07-24T16:00:00.000Z", "rawOb": "METAR RJTT 241600Z 19008KT 9999 FEW008 SCT014 BKN025 29/26 Q1009 TEMPO FEW008 BKN012 BECMG TL1730 35006KT"}, "RJCK": {"temp": 13, "dewp": 13, "wdir": "VRB", "wspd": 1, "wgst": null, "reportTime": "2026-07-24T16:00:00.000Z", "rawOb": "METAR RJCK 241600Z AUTO VRB01KT 9999 OVC013 13/13 Q1016"}, "RJSS": {"temp": 22, "dewp": 22, "wdir": 60, "wspd": 3, "wgst": null, "reportTime": "2026-07-24T16:00:00.000Z", "rawOb": "METAR RJSS 241600Z AUTO 06003KT 020V100 6000 RA FEW004 SCT017 BKN023 //////TCU 22/22 Q1010"}, "RJOO": {"temp": 29, "dewp": 23, "wdir": 310, "wspd": 5, "wgst": null, "reportTime": "2026-07-24T16:00:00.000Z", "rawOb": "METAR RJOO 241600Z AUTO 31005KT 9999 NCD 29/23 Q1010"}, "RJOT": {"temp": 27, "dewp": 22, "wdir": 150, "wspd": 5, "wgst": null, "reportTime": "2026-07-24T16:00:00.000Z", "rawOb": "METAR RJOT 241600Z AUTO 15005KT 9999 NCD 27/22 Q1011"}, "RJEC": {"temp": 17, "dewp": 16, "wdir": "VRB", "wspd": 1, "wgst": null, "reportTime": "2026-07-24T16:00:00.000Z", "rawOb": "METAR RJEC 241600Z AUTO VRB01KT 9999 FEW012 OVC022 17/16 Q1014"}, "RJOA": {"temp": 26, "dewp": 19, "wdir": "VRB", "wspd": 1, "wgst": null, "reportTime": "2026-07-24T16:00:00.000Z", "rawOb": "METAR RJOA 241600Z AUTO VRB01KT 9999 NCD 26/19 Q1012"}, "RJOM": {"temp": 28, "dewp": 22, "wdir": 130, "wspd": 5, "wgst": null, "reportTime": "2026-07-24T16:00:00.000Z", "rawOb": "METAR RJOM 241600Z AUTO 13005KT 9999 NCD 28/22 Q1010"}, "_updated": "2026-07-24T18:46:38Z"}