{"RJOB": {"temp": 21, "dewp": 20, "wdir": 90, "wspd": 2, "wgst": null, "reportTime": "2026-07-03T22:00:00.000Z", "rawOb": "METAR RJOB 032200Z 09002KT 9999 -RA FEW020 SCT060 BKN120 21/20 Q1012"}, "RJOM": {"temp": 24, "dewp": 20, "wdir": 100, "wspd": 4, "wgst": null, "reportTime": "2026-07-03T20:00:00.000Z", "rawOb": "METAR RJOM 032000Z AUTO 10004KT 9999 FEW047 SCT050 BKN070 24/20 Q1010"}, "RJOO": {"temp": 23, "dewp": 17, "wdir": 60, "wspd": 4, "wgst": null, "reportTime": "2026-07-03T20:00:00.000Z", "rawOb": "METAR RJOO 032000Z AUTO 06004KT 9999 NSC 23/17 Q1011"}, "RJSK": {"temp": 22, "dewp": 20, "wdir": 120, "wspd": 3, "wgst": null, "reportTime": "2026-07-03T22:00:00.000Z", "rawOb": "METAR RJSK 032200Z 12003KT 090V160 9999 FEW010 SCT040 BKN/// 22/20 Q1013"}, "RJOT": {"temp": 21, "dewp": 20, "wdir": 140, "wspd": 5, "wgst": null, "reportTime": "2026-07-03T20:00:00.000Z", "rawOb": "METAR RJOT 032000Z AUTO 14005KT 9999 FEW037 BKN140 OVC150 21/20 Q1011"}, "RJCK": {"temp": 11, "dewp": 11, "wdir": 210, "wspd": 6, "wgst": null, "reportTime": "2026-07-03T20:00:00.000Z", "rawOb": "METAR RJCK 032000Z AUTO 21006KT 9999 NCD 11/11 Q1013"}, "RJCO": {"temp": 17, "dewp": 14, "wdir": 130, "wspd": 8, "wgst": null, "reportTime": "2026-07-03T22:00:00.000Z", "rawOb": "METAR RJCO 032200Z 13008KT 9999 NSC 17/14 Q1013"}, "RJEC": {"temp": 13, "dewp": 13, "wdir": 190, "wspd": 3, "wgst": null, "reportTime": "2026-07-03T20:00:00.000Z", "rawOb": "METAR RJEC 032000Z AUTO 19003KT 9999 NCD 13/13 Q1012"}, "RJTT": {"temp": 21, "dewp": 20, "wdir": 120, "wspd": 6, "wgst": null, "reportTime": "2026-07-03T19:30:00.000Z", "rawOb": "METAR RJTT 031930Z 12006KT 8000 FEW008 BKN010 21/20 Q1013 TEMPO FEW005 BKN008"}, "RJBB": {"temp": 24, "dewp": 20, "wdir": "VRB", "wspd": 2, "wgst": null, "reportTime": "2026-07-03T19:30:00.000Z", "rawOb": "METAR RJBB 031930Z AUTO VRB02KT 9999 SCT048 BKN120 BKN130 24/20 Q1011 NOSIG"}, "RJFF": {"temp": 23, "dewp": 21, "wdir": 130, "wspd": 8, "wgst": null, "reportTime": "2026-07-03T19:30:00.000Z", "rawOb": "METAR RJFF 031930Z AUTO 13008KT 9999 -RA FEW048 BKN050 BKN060 //////TCU 23/21 Q1009 NOSIG"}, "RJGG": {"temp": 23, "dewp": 21, "wdir": 130, "wspd": 3, "wgst": null, "reportTime": "2026-07-03T19:30:00.000Z", "rawOb": "METAR RJGG 031930Z AUTO 13003KT 9999 OVC031 23/21 Q1012 NOSIG"}, "RJBE": {"temp": 25, "dewp": 19, "wdir": 60, "wspd": 7, "wgst": null, "reportTime": "2026-07-03T22:00:00.000Z", "rawOb": "METAR RJBE 032200Z 06007KT 9999 -RA FEW020 SCT050 BKN120 25/19 Q1012"}, "ROAH": {"temp": 27, "dewp": 26, "wdir": 210, "wspd": 5, "wgst": null, "reportTime": "2026-07-03T19:30:00.000Z", "rawOb": "METAR ROAH 031930Z AUTO 21005KT 9999 NCD 27/26 Q1013"}, "RJSS": {"temp": 19, "dewp": 17, "wdir": 130, "wspd": 3, "wgst": null, "reportTime": "2026-07-03T20:00:00.000Z", "rawOb": "METAR RJSS 032000Z AUTO 13003KT 9999 OVC009 19/17 Q1013"}, "RJAA": {"temp": 19, "dewp": 18, "wdir": 80, "wspd": 3, "wgst": null, "reportTime": "2026-07-03T19:30:00.000Z", "rawOb": "METAR RJAA 031930Z AUTO 08003KT 040V120 4900 BR OVC003 19/18 Q1013 TEMPO 3000 BR"}, "RJOA": {"temp": 21, "dewp": 19, "wdir": 80, "wspd": 1, "wgst": null, "reportTime": "2026-07-03T20:00:00.000Z", "rawOb": "METAR RJOA 032000Z AUTO 08001KT 9999 -RA NSC 21/19 Q1012"}, "_updated": "2026-07-03T22:17:40Z"}