{"RJCK": {"temp": 19, "dewp": 18, "wdir": 30, "wspd": 3, "wgst": null, "reportTime": "2026-07-23T12:00:00.000Z", "rawOb": "METAR RJCK 231200Z AUTO 03003KT 4900 BR OVC026 19/18 Q1012"}, "RJGG": {"temp": 31, "dewp": 23, "wdir": 320, "wspd": 15, "wgst": null, "reportTime": "2026-07-23T12:00:00.000Z", "rawOb": "METAR RJGG 231200Z 32015KT 9999 FEW020 31/23 Q1008 NOSIG"}, "RJBB": {"temp": 30, "dewp": 27, "wdir": 260, "wspd": 4, "wgst": null, "reportTime": "2026-07-23T12:00:00.000Z", "rawOb": "METAR RJBB 231200Z 26004KT 9999 FEW025 SCT040 30/27 Q1009 BECMG 06006KT"}, "RJEC": {"temp": 20, "dewp": 19, "wdir": 300, "wspd": 3, "wgst": null, "reportTime": "2026-07-23T12:00:00.000Z", "rawOb": "METAR RJEC 231200Z AUTO 30003KT 240V330 9999 NCD 20/19 Q1011"}, "RJOA": {"temp": 29, "dewp": 23, "wdir": 300, "wspd": 5, "wgst": null, "reportTime": "2026-07-23T12:00:00.000Z", "rawOb": "METAR RJOA 231200Z 30005KT 270V330 CAVOK 29/23 Q1012"}, "RJOM": {"temp": 30, "dewp": 24, "wdir": 180, "wspd": 5, "wgst": null, "reportTime": "2026-07-23T12:00:00.000Z", "rawOb": "METAR RJOM 231200Z 18005KT 9999 FEW060 30/24 Q1010"}, "RJOO": {"temp": 32, "dewp": 21, "wdir": 350, "wspd": 10, "wgst": null, "reportTime": "2026-07-23T12:00:00.000Z", "rawOb": "METAR RJOO 231200Z AUTO 35010KT 9999 NCD 32/21 Q1009"}, "RJAA": {"temp": 27, "dewp": 23, "wdir": 50, "wspd": 6, "wgst": null, "reportTime": "2026-07-23T12:00:00.000Z", "rawOb": "METAR RJAA 231200Z 05006KT 360V090 9999 FEW030 BKN060 27/23 Q1010 NOSIG"}, "RJFF": {"temp": 29, "dewp": 24, "wdir": 330, "wspd": 6, "wgst": null, "reportTime": "2026-07-23T12:00:00.000Z", "rawOb": "METAR RJFF 231200Z 33006KT 9999 FEW030 29/24 Q1011 NOSIG"}, "ROAH": {"temp": 30, "dewp": 27, "wdir": 120, "wspd": 9, "wgst": null, "reportTime": "2026-07-23T12:00:00.000Z", "rawOb": "METAR ROAH 231200Z 12009KT 9999 FEW017 30/27 Q1010"}, "RJTT": {"temp": 29, "dewp": 24, "wdir": 100, "wspd": 8, "wgst": null, "reportTime": "2026-07-23T12:00:00.000Z", "rawOb": "METAR RJTT 231200Z 10008KT 9999 FEW025 BKN050 BKN070 29/24 Q1010 NOSIG"}, "RJSS": {"temp": 24, "dewp": 22, "wdir": 110, "wspd": 9, "wgst": null, "reportTime": "2026-07-23T12:00:00.000Z", "rawOb": "METAR RJSS 231200Z 11009KT 9999 FEW008 SCT012 BKN018 24/22 Q1011"}, "RJOT": {"temp": 28, "dewp": 24, "wdir": 200, "wspd": 5, "wgst": null, "reportTime": "2026-07-23T12:00:00.000Z", "rawOb": "METAR RJOT 231200Z 20005KT 9999 FEW060 28/24 Q1011"}, "RJBE": {"temp": 32, "dewp": 24, "wdir": 50, "wspd": 9, "wgst": null, "reportTime": "2026-07-23T12:00:00.000Z", "rawOb": "METAR RJBE 231200Z 05009KT CAVOK 32/24 Q1009"}, "RJOB": {"temp": 29, "dewp": 24, "wdir": 340, "wspd": 3, "wgst": null, "reportTime": "2026-07-23T12:00:00.000Z", "rawOb": "METAR RJOB 231200Z 34003KT 300V020 CAVOK 29/24 Q1011"}, "RJSK": {"temp": 25, "dewp": 23, "wdir": 320, "wspd": 2, "wgst": null, "reportTime": "2026-07-23T12:00:00.000Z", "rawOb": "METAR RJSK 231200Z 32002KT 9999 FEW010 SCT/// 25/23 Q1010"}, "_updated": "2026-07-23T14:33:17Z"}