{"RJFF": {"temp": 27, "dewp": 25, "wdir": 140, "wspd": 10, "wgst": null, "reportTime": "2026-07-07T17:30:00.000Z", "rawOb": "METAR RJFF 071730Z AUTO 14010KT 9999 NCD 27/25 Q1009 NOSIG"}, "RJGG": {"temp": 23, "dewp": 21, "wdir": 180, "wspd": 5, "wgst": null, "reportTime": "2026-07-07T17:30:00.000Z", "rawOb": "METAR RJGG 071730Z AUTO 18005KT 9999 OVC047 23/21 Q1013 NOSIG"}, "ROAH": {"temp": 27, "dewp": 25, "wdir": 20, "wspd": 6, "wgst": null, "reportTime": "2026-07-07T17:30:00.000Z", "rawOb": "METAR ROAH 071730Z AUTO 02006KT 9999 NCD 27/25 Q1009"}, "RJAA": {"temp": 19, "dewp": 18, "wdir": 0, "wspd": 0, "wgst": null, "reportTime": "2026-07-07T17:30:00.000Z", "rawOb": "METAR RJAA 071730Z AUTO 00000KT 9999 NCD 19/18 Q1014 NOSIG"}, "RJOA": {"temp": 23, "dewp": 23, "wdir": 90, "wspd": 3, "wgst": null, "reportTime": "2026-07-07T18:00:00.000Z", "rawOb": "METAR RJOA 071800Z AUTO 09003KT 4700 BR OVC007 23/23 Q1013"}, "RJBB": {"temp": 25, "dewp": 22, "wdir": 200, "wspd": 3, "wgst": null, "reportTime": "2026-07-07T17:30:00.000Z", "rawOb": "METAR RJBB 071730Z AUTO 20003KT 120V230 9999 FEW022 OVC039 25/22 Q1012 NOSIG"}, "RJCK": {"temp": 16, "dewp": 16, "wdir": 210, "wspd": 3, "wgst": null, "reportTime": "2026-07-07T18:00:00.000Z", "rawOb": "METAR RJCK 071800Z AUTO 21003KT 0100 R35/0325N FG OVC000 16/16 Q1016"}, "RJEC": {"temp": 18, "dewp": 16, "wdir": 190, "wspd": 3, "wgst": null, "reportTime": "2026-07-07T18:00:00.000Z", "rawOb": "METAR RJEC 071800Z AUTO 19003KT 9999 BKN070 BKN090 18/16 Q1015"}, "RJTT": {"temp": 22, "dewp": 20, "wdir": 70, "wspd": 7, "wgst": null, "reportTime": "2026-07-07T17:30:00.000Z", "rawOb": "METAR RJTT 071730Z 07007KT 9999 FEW015 SCT050 22/20 Q1014 NOSIG"}, "RJOM": {"temp": 24, "dewp": 24, "wdir": 10, "wspd": 4, "wgst": null, "reportTime": "2026-07-07T18:00:00.000Z", "rawOb": "METAR RJOM 071800Z AUTO 01004KT 8000 FEW070 24/24 Q1011"}, "RJOO": {"temp": 24, "dewp": 20, "wdir": 70, "wspd": 3, "wgst": null, "reportTime": "2026-07-07T18:00:00.000Z", "rawOb": "METAR RJOO 071800Z AUTO 07003KT 9999 OVC021 24/20 Q1013"}, "RJOT": {"temp": 22, "dewp": 22, "wdir": 260, "wspd": 1, "wgst": null, "reportTime": "2026-07-07T18:00:00.000Z", "rawOb": "METAR RJOT 071800Z AUTO 26001KT 4200 BR FEW046 BKN050 22/22 Q1012"}, "RJSS": {"temp": 21, "dewp": 19, "wdir": 180, "wspd": 6, "wgst": null, "reportTime": "2026-07-07T18:00:00.000Z", "rawOb": "METAR RJSS 071800Z AUTO 18006KT 9999 NCD 21/19 Q1014"}, "_updated": "2026-07-07T20:26:07Z"}