{"RJFF": {"temp": 25, "dewp": 24, "wdir": 30, "wspd": 3, "wgst": null, "reportTime": "2026-07-04T20:30:00.000Z", "rawOb": "METAR RJFF 042030Z AUTO 03003KT 350V060 9999 -RA FEW015 SCT018 BKN024 //////TCU 25/24 Q1007 NOSIG"}, "RJBB": {"temp": 23, "dewp": 22, "wdir": 80, "wspd": 5, "wgst": null, "reportTime": "2026-07-04T20:30:00.000Z", "rawOb": "METAR RJBB 042030Z AUTO 08005KT 9999 FEW013 OVC015 23/22 Q1009 NOSIG"}, "RJSK": {"temp": 21, "dewp": 18, "wdir": 140, "wspd": 6, "wgst": null, "reportTime": "2026-07-04T22:00:00.000Z", "rawOb": "METAR RJSK 042200Z 14006KT CAVOK 21/18 Q1011"}, "RJCB": {"temp": 14, "dewp": 14, "wdir": "VRB", "wspd": 2, "wgst": null, "reportTime": "2026-07-04T23:00:00.000Z", "rawOb": "METAR RJCB 042300Z VRB02KT 6000 FEW003 SCT005 BKN006 14/14 Q1016"}, "RJBE": {"temp": 23, "dewp": 21, "wdir": 60, "wspd": 9, "wgst": null, "reportTime": "2026-07-04T22:00:00.000Z", "rawOb": "METAR RJBE 042200Z 06009KT 9999 FEW005 SCT020 BKN080 23/21 Q1010"}, "RJAA": {"temp": 22, "dewp": 21, "wdir": 90, "wspd": 4, "wgst": null, "reportTime": "2026-07-04T20:30:00.000Z", "rawOb": "METAR RJAA 042030Z AUTO 09004KT 9999 FEW014 SCT021 BKN038 22/21 Q1012 NOSIG"}, "ROAH": {"temp": 26, "dewp": 25, "wdir": 280, "wspd": 1, "wgst": null, "reportTime": "2026-07-04T20:30:00.000Z", "rawOb": "METAR ROAH 042030Z AUTO 28001KT 9999 NCD 26/25 Q1013"}, "RJTT": {"temp": 22, "dewp": 22, "wdir": 130, "wspd": 5, "wgst": null, "reportTime": "2026-07-04T20:30:00.000Z", "rawOb": "METAR RJTT 042030Z 13005KT 7000 -SHRA BR FEW006 SCT010 BKN015 22/22 Q1011 TEMPO 4000 -SHRA BR FEW004 SCT008 BKN012"}, "RJSS": {"temp": 20, "dewp": 19, "wdir": 270, "wspd": 3, "wgst": null, "reportTime": "2026-07-04T21:00:00.000Z", "rawOb": "METAR RJSS 042100Z AUTO 27003KT 5000 -RA BR OVC005 20/19 Q1013"}, "RJOB": {"temp": 21, "dewp": 21, "wdir": 110, "wspd": 4, "wgst": null, "reportTime": "2026-07-04T22:00:00.000Z", "rawOb": "METAR RJOB 042200Z 11004KT 0500 R07/0500V1200D -SHRA FG FEW000 SCT001 BKN002 21/21 Q1010"}, "RJEC": {"temp": 16, "dewp": 14, "wdir": 180, "wspd": 4, "wgst": null, "reportTime": "2026-07-04T21:00:00.000Z", "rawOb": "METAR RJEC 042100Z AUTO 18004KT 9999 NCD 16/14 Q1013"}, "RJOT": {"temp": 22, "dewp": 22, "wdir": 70, "wspd": 3, "wgst": null, "reportTime": "2026-07-04T21:00:00.000Z", "rawOb": "METAR RJOT 042100Z AUTO 07003KT 1300 R26/1300VP2000D BR BKN000 OVC043 22/22 Q1010"}, "RJOO": {"temp": 22, "dewp": 21, "wdir": 90, "wspd": 4, "wgst": null, "reportTime": "2026-07-04T21:00:00.000Z", "rawOb": "METAR RJOO 042100Z AUTO 09004KT 9999 BKN012 OVC015 22/21 Q1010"}, "RJOM": {"temp": 24, "dewp": 24, "wdir": 110, "wspd": 6, "wgst": null, "reportTime": "2026-07-04T21:00:00.000Z", "rawOb": "METAR RJOM 042100Z AUTO 11006KT 9999 FEW060 SCT090 BKN120 24/24 Q1008"}, "RJOA": {"temp": 21, "dewp": 21, "wdir": "VRB", "wspd": 2, "wgst": null, "reportTime": "2026-07-04T21:00:00.000Z", "rawOb": "METAR RJOA 042100Z AUTO VRB02KT 0100 R28/0275N FG OVC001 21/21 Q1010"}, "RJCO": {"temp": 18, "dewp": 15, "wdir": 140, "wspd": 14, "wgst": null, "reportTime": "2026-07-04T22:00:00.000Z", "rawOb": "METAR RJCO 042200Z 14014KT 9999 FEW030 SCT150 BKN200 18/15 Q1012"}, "RJGG": {"temp": 22, "dewp": 21, "wdir": 350, "wspd": 5, "wgst": null, "reportTime": "2026-07-04T20:30:00.000Z", "rawOb": "METAR RJGG 042030Z AUTO 35005KT 4200 -RA BR FEW002 SCT016 BKN037 22/21 Q1010 TEMPO FEW005 BKN008 BECMG TL2200 8000 NSW"}, "RJCK": {"temp": 14, "dewp": 13, "wdir": 190, "wspd": 4, "wgst": null, "reportTime": "2026-07-04T21:00:00.000Z", "rawOb": "METAR RJCK 042100Z AUTO 19004KT 9999 SCT003 BKN008 OVC013 14/13 Q1016"}, "_updated": "2026-07-04T23:15:25Z"}