{"RJCK": {"temp": 18, "dewp": 18, "wdir": 140, "wspd": 3, "wgst": null, "reportTime": "2026-07-15T08:00:00.000Z", "rawOb": "METAR RJCK 150800Z 14003KT 0400 R17/0750VP2000U FG VV001 18/18 Q1002"}, "RJBE": {"temp": 32, "dewp": 24, "wdir": 220, "wspd": 5, "wgst": null, "reportTime": "2026-07-15T08:00:00.000Z", "rawOb": "METAR RJBE 150800Z 22005KT 170V250 9999 FEW030 BKN/// 32/24 Q1002"}, "RJAA": {"temp": 30, "dewp": 26, "wdir": 140, "wspd": 13, "wgst": null, "reportTime": "2026-07-15T07:30:00.000Z", "rawOb": "METAR RJAA 150730Z 14013KT 9999 FEW015 BKN/// 30/26 Q1001 NOSIG"}, "RJCB": {"temp": 24, "dewp": 21, "wdir": 170, "wspd": 6, "wgst": null, "reportTime": "2026-07-15T08:00:00.000Z", "rawOb": "METAR RJCB 150800Z 17006KT 9999 FEW010 SCT050 BKN070 24/21 Q1001"}, "RJOO": {"temp": 34, "dewp": 23, "wdir": 220, "wspd": 8, "wgst": null, "reportTime": "2026-07-15T08:00:00.000Z", "rawOb": "METAR RJOO 150800Z 22008KT 110V270 9999 FEW030 BKN/// 34/23 Q1001"}, "RJTT": {"temp": 30, "dewp": 25, "wdir": 180, "wspd": 16, "wgst": null, "reportTime": "2026-07-15T07:30:00.000Z", "rawOb": "METAR RJTT 150730Z 18016KT 9999 FEW030 BKN/// 30/25 Q1001 NOSIG"}, "RJSK": {"temp": 31, "dewp": 24, "wdir": 120, "wspd": 6, "wgst": null, "reportTime": "2026-07-15T08:00:00.000Z", "rawOb": "METAR RJSK 150800Z 12006KT 9999 FEW030 BKN/// 31/24 Q0999"}, "RJEC": {"temp": 26, "dewp": 22, "wdir": 170, "wspd": 12, "wgst": null, "reportTime": "2026-07-15T08:00:00.000Z", "rawOb": "METAR RJEC 150800Z 17012KT 9999 FEW020 SCT050 BKN/// 26/22 Q0999"}, "RJCO": {"temp": 25, "dewp": 22, "wdir": 140, "wspd": 17, "wgst": null, "reportTime": "2026-07-15T08:00:00.000Z", "rawOb": "METAR RJCO 150800Z 14017KT 9999 FEW008 SCT030 BKN040 25/22 Q0998"}, "RJOT": {"temp": 33, "dewp": 25, "wdir": 280, "wspd": 9, "wgst": null, "reportTime": "2026-07-15T08:00:00.000Z", "rawOb": "METAR RJOT 150800Z 28009KT 9999 FEW030 BKN/// 33/25 Q1003"}, "RJFF": {"temp": 33, "dewp": 25, "wdir": 200, "wspd": 15, "wgst": null, "reportTime": "2026-07-15T07:30:00.000Z", "rawOb": "METAR RJFF 150730Z 20015KT 9999 FEW025 SCT035 BKN/// 33/25 Q1003 NOSIG"}, "RJOM": {"temp": 28, "dewp": 24, "wdir": 320, "wspd": 5, "wgst": null, "reportTime": "2026-07-15T08:00:00.000Z", "rawOb": "METAR RJOM 150800Z 32005KT 290V010 9999 FEW030 BKN/// 28/24 Q1002"}, "RJBB": {"temp": 31, "dewp": 26, "wdir": 240, "wspd": 9, "wgst": null, "reportTime": "2026-07-15T07:30:00.000Z", "rawOb": "METAR RJBB 150730Z 24009KT 9999 FEW030 SCT180 BKN/// 31/26 Q1002 NOSIG"}, "RJOB": {"temp": 30, "dewp": 24, "wdir": 240, "wspd": 7, "wgst": null, "reportTime": "2026-07-15T08:00:00.000Z", "rawOb": "METAR RJOB 150800Z 24007KT 9999 FEW030 BKN050 BKN/// 30/24 Q1003"}, "RJGG": {"temp": 31, "dewp": 24, "wdir": 160, "wspd": 10, "wgst": null, "reportTime": "2026-07-15T07:30:00.000Z", "rawOb": "METAR RJGG 150730Z 16010KT 9999 FEW020 BKN/// 31/24 Q1001 NOSIG"}, "RJOA": {"temp": 29, "dewp": 24, "wdir": 210, "wspd": 6, "wgst": null, "reportTime": "2026-07-15T08:00:00.000Z", "rawOb": "METAR RJOA 150800Z 21006KT 170V250 9999 FEW025 BKN030 BKN/// 29/24 Q1004"}, "RJSS": {"temp": 27, "dewp": 24, "wdir": 160, "wspd": 11, "wgst": null, "reportTime": "2026-07-15T08:00:00.000Z", "rawOb": "METAR RJSS 150800Z 16011KT 9999 FEW050 BKN/// 27/24 Q1000"}, "ROAH": {"temp": 29, "dewp": 27, "wdir": 210, "wspd": 10, "wgst": null, "reportTime": "2026-07-15T07:30:00.000Z", "rawOb": "METAR ROAH 150730Z 21010KT 9999 FEW006 SCT010 29/27 Q1009"}, "_updated": "2026-07-15T10:29:02Z"}