{"RJTT": {"temp": 24, "dewp": 21, "wdir": 180, "wspd": 7, "wgst": null, "reportTime": "2026-07-08T16:00:00.000Z", "rawOb": "METAR RJTT 081600Z 18007KT 9999 FEW015 SCT/// 24/21 Q1014 NOSIG"}, "RJGG": {"temp": 23, "dewp": 21, "wdir": 130, "wspd": 6, "wgst": null, "reportTime": "2026-07-08T16:00:00.000Z", "rawOb": "METAR RJGG 081600Z AUTO 13006KT 9999 NCD 23/21 Q1014 NOSIG"}, "RJFF": {"temp": 28, "dewp": 25, "wdir": 310, "wspd": 3, "wgst": null, "reportTime": "2026-07-08T16:00:00.000Z", "rawOb": "METAR RJFF 081600Z AUTO 31003KT 9999 FEW030 BKN036 BKN060 28/25 Q1011 NOSIG"}, "RJBB": {"temp": 25, "dewp": 22, "wdir": 220, "wspd": 5, "wgst": null, "reportTime": "2026-07-08T16:00:00.000Z", "rawOb": "METAR RJBB 081600Z AUTO 22005KT 9999 BKN039 OVC046 25/22 Q1013 NOSIG"}, "RJAA": {"temp": 20, "dewp": 19, "wdir": 140, "wspd": 2, "wgst": null, "reportTime": "2026-07-08T16:00:00.000Z", "rawOb": "METAR RJAA 081600Z AUTO 14002KT 9999 NCD 20/19 Q1014 NOSIG"}, "ROAH": {"temp": 29, "dewp": 25, "wdir": 50, "wspd": 13, "wgst": null, "reportTime": "2026-07-08T16:00:00.000Z", "rawOb": "METAR ROAH 081600Z AUTO 05013KT 9999 FEW021 29/25 Q1006"}, "RJCK": {"temp": 16, "dewp": 16, "wdir": 170, "wspd": 3, "wgst": null, "reportTime": "2026-07-08T16:00:00.000Z", "rawOb": "METAR RJCK 081600Z AUTO 17003KT 120V200 0200 R35/0375N FG OVC000 16/16 Q1014"}, "RJOA": {"temp": 24, "dewp": 23, "wdir": "VRB", "wspd": 1, "wgst": null, "reportTime": "2026-07-08T16:00:00.000Z", "rawOb": "METAR RJOA 081600Z AUTO VRB01KT 9999 BKN015 OVC022 24/23 Q1014"}, "RJEC": {"temp": 20, "dewp": 18, "wdir": 170, "wspd": 3, "wgst": null, "reportTime": "2026-07-08T16:00:00.000Z", "rawOb": "METAR RJEC 081600Z AUTO 17003KT 9999 FEW031 SCT035 BKN038 20/18 Q1014"}, "RJOO": {"temp": 25, "dewp": 20, "wdir": 120, "wspd": 2, "wgst": null, "reportTime": "2026-07-08T16:00:00.000Z", "rawOb": "METAR RJOO 081600Z AUTO 12002KT 9999 FEW041 SCT044 BKN048 25/20 Q1013"}, "RJOT": {"temp": 23, "dewp": 23, "wdir": 140, "wspd": 2, "wgst": null, "reportTime": "2026-07-08T16:00:00.000Z", "rawOb": "METAR RJOT 081600Z AUTO 14002KT 9999 OVC060 23/23 Q1013"}, "RJSS": {"temp": 21, "dewp": 20, "wdir": 260, "wspd": 3, "wgst": null, "reportTime": "2026-07-08T16:00:00.000Z", "rawOb": "METAR RJSS 081600Z AUTO 26003KT 9999 NCD 21/20 Q1013"}, "RJOM": {"temp": 24, "dewp": 23, "wdir": 310, "wspd": 1, "wgst": null, "reportTime": "2026-07-08T16:00:00.000Z", "rawOb": "METAR RJOM 081600Z AUTO 31001KT 9999 NCD 24/23 Q1012"}, "_updated": "2026-07-08T18:48:35Z"}